<?xml version="1.0" encoding="UTF-8"?><gpx xmlns="http://www.topografix.com/GPX/1/1" creator="CONTWISE MAPS" xsi:schemaLocation="http://www.topografix.com/GPX/1/1 http://www.topografix.com/GPX/1/1/gpx.xsd http://www.topografix.com/GPX/gpx_overlay/0/3 http://www.topografix.com/GPX/gpx_overlay/0/3/gpx_overlay.xsd http://www.topografix.com/GPX/gpx_modified/0/1 http://www.topografix.com/GPX/gpx_modified/0/1/gpx_modified.xsd http://www.topografix.com/GPX/Private/TopoGrafix/0/3 http://www.topografix.com/GPX/Private/TopoGrafix/0/3/topografix.xsd" xmlns:xsi="http://www.w3.org/2001/XMLSchema-instance" version="1.1"><wpt lon="11.6883" lat="47.042049"><name><![CDATA[olpererhuette_2.389m_-_schlegeis]]></name></wpt>
<wpt lon="11.702303" lat="47.038939"><name><![CDATA[tagesparkplatz_schlegeis_stausee]]></name></wpt>
<trk><name><![CDATA[huettenwanderung_ginzling_schlegeis_stausee_-_olpererhuette_hin_95293167]]></name><extensions><label xmlns="http://www.topografix.com/GPX/gpx_overlay/0/3"></label>
</extensions>
<trkseg><trkpt lon="11.69734" lat="47.03203"><ele><![CDATA[1785]]></ele></trkpt>
<trkpt lon="11.69726" lat="47.03203"><ele><![CDATA[1786]]></ele></trkpt>
<trkpt lon="11.69718" lat="47.03202"><ele><![CDATA[1789]]></ele></trkpt>
<trkpt lon="11.69713" lat="47.03205"><ele><![CDATA[1789]]></ele></trkpt>
<trkpt lon="11.6971" lat="47.03205"><ele><![CDATA[1789]]></ele></trkpt>
<trkpt lon="11.697" lat="47.03205"><ele><![CDATA[1793]]></ele></trkpt>
<trkpt lon="11.69689" lat="47.03203"><ele><![CDATA[1796]]></ele></trkpt>
<trkpt lon="11.69684" lat="47.03204"><ele><![CDATA[1796]]></ele></trkpt>
<trkpt lon="11.69668" lat="47.03194"><ele><![CDATA[1802]]></ele></trkpt>
<trkpt lon="11.69664" lat="47.03194"><ele><![CDATA[1802]]></ele></trkpt>
<trkpt lon="11.69664" lat="47.03208"><ele><![CDATA[1807]]></ele></trkpt>
<trkpt lon="11.69672" lat="47.03236"><ele><![CDATA[1812]]></ele></trkpt>
<trkpt lon="11.69697" lat="47.03302"><ele><![CDATA[1826]]></ele></trkpt>
<trkpt lon="11.697" lat="47.03332"><ele><![CDATA[1831]]></ele></trkpt>
<trkpt lon="11.69695" lat="47.03351"><ele><![CDATA[1839]]></ele></trkpt>
<trkpt lon="11.69678" lat="47.03337"><ele><![CDATA[1842]]></ele></trkpt>
<trkpt lon="11.69672" lat="47.03336"><ele><![CDATA[1842]]></ele></trkpt>
<trkpt lon="11.69673" lat="47.03346"><ele><![CDATA[1844]]></ele></trkpt>
<trkpt lon="11.6967" lat="47.03358"><ele><![CDATA[1845]]></ele></trkpt>
<trkpt lon="11.69662" lat="47.0335"><ele><![CDATA[1848]]></ele></trkpt>
<trkpt lon="11.69649" lat="47.03341"><ele><![CDATA[1852]]></ele></trkpt>
<trkpt lon="11.69646" lat="47.03353"><ele><![CDATA[1854]]></ele></trkpt>
<trkpt lon="11.69633" lat="47.03342"><ele><![CDATA[1858]]></ele></trkpt>
<trkpt lon="11.69631" lat="47.03357"><ele><![CDATA[1866]]></ele></trkpt>
<trkpt lon="11.69622" lat="47.03354"><ele><![CDATA[1866]]></ele></trkpt>
<trkpt lon="11.69617" lat="47.03366"><ele><![CDATA[1873]]></ele></trkpt>
<trkpt lon="11.69609" lat="47.03361"><ele><![CDATA[1871]]></ele></trkpt>
<trkpt lon="11.6961" lat="47.03373"><ele><![CDATA[1876]]></ele></trkpt>
<trkpt lon="11.69608" lat="47.03376"><ele><![CDATA[1876]]></ele></trkpt>
<trkpt lon="11.69599" lat="47.03366"><ele><![CDATA[1879]]></ele></trkpt>
<trkpt lon="11.69597" lat="47.03369"><ele><![CDATA[1879]]></ele></trkpt>
<trkpt lon="11.69596" lat="47.03379"><ele><![CDATA[1882]]></ele></trkpt>
<trkpt lon="11.69599" lat="47.03384"><ele><![CDATA[1884]]></ele></trkpt>
<trkpt lon="11.69594" lat="47.03382"><ele><![CDATA[1884]]></ele></trkpt>
<trkpt lon="11.69596" lat="47.03401"><ele><![CDATA[1889]]></ele></trkpt>
<trkpt lon="11.69593" lat="47.03408"><ele><![CDATA[1895]]></ele></trkpt>
<trkpt lon="11.69586" lat="47.034"><ele><![CDATA[1894]]></ele></trkpt>
<trkpt lon="11.69586" lat="47.0341"><ele><![CDATA[1895]]></ele></trkpt>
<trkpt lon="11.69577" lat="47.03402"><ele><![CDATA[1899]]></ele></trkpt>
<trkpt lon="11.69572" lat="47.03418"><ele><![CDATA[1903]]></ele></trkpt>
<trkpt lon="11.69564" lat="47.03404"><ele><![CDATA[1906]]></ele></trkpt>
<trkpt lon="11.69559" lat="47.03402"><ele><![CDATA[1906]]></ele></trkpt>
<trkpt lon="11.69561" lat="47.03413"><ele><![CDATA[1907]]></ele></trkpt>
<trkpt lon="11.69559" lat="47.03428"><ele><![CDATA[1910]]></ele></trkpt>
<trkpt lon="11.69558" lat="47.03444"><ele><![CDATA[1914]]></ele></trkpt>
<trkpt lon="11.69547" lat="47.03432"><ele><![CDATA[1918]]></ele></trkpt>
<trkpt lon="11.69545" lat="47.03445"><ele><![CDATA[1920]]></ele></trkpt>
<trkpt lon="11.69542" lat="47.03452"><ele><![CDATA[1921]]></ele></trkpt>
<trkpt lon="11.69538" lat="47.03468"><ele><![CDATA[1929]]></ele></trkpt>
<trkpt lon="11.69541" lat="47.03473"><ele><![CDATA[1929]]></ele></trkpt>
<trkpt lon="11.69539" lat="47.03474"><ele><![CDATA[1929]]></ele></trkpt>
<trkpt lon="11.69532" lat="47.03469"><ele><![CDATA[1929]]></ele></trkpt>
<trkpt lon="11.69532" lat="47.03466"><ele><![CDATA[1928]]></ele></trkpt>
<trkpt lon="11.69528" lat="47.03463"><ele><![CDATA[1935]]></ele></trkpt>
<trkpt lon="11.69525" lat="47.03465"><ele><![CDATA[1935]]></ele></trkpt>
<trkpt lon="11.69526" lat="47.0347"><ele><![CDATA[1936]]></ele></trkpt>
<trkpt lon="11.69522" lat="47.0348"><ele><![CDATA[1937]]></ele></trkpt>
<trkpt lon="11.69524" lat="47.03488"><ele><![CDATA[1937]]></ele></trkpt>
<trkpt lon="11.69516" lat="47.03491"><ele><![CDATA[1943]]></ele></trkpt>
<trkpt lon="11.69511" lat="47.03498"><ele><![CDATA[1943]]></ele></trkpt>
<trkpt lon="11.69507" lat="47.03498"><ele><![CDATA[1943]]></ele></trkpt>
<trkpt lon="11.69503" lat="47.03502"><ele><![CDATA[1950]]></ele></trkpt>
<trkpt lon="11.695" lat="47.03499"><ele><![CDATA[1949]]></ele></trkpt>
<trkpt lon="11.69501" lat="47.03493"><ele><![CDATA[1949]]></ele></trkpt>
<trkpt lon="11.69499" lat="47.03488"><ele><![CDATA[1949]]></ele></trkpt>
<trkpt lon="11.69494" lat="47.03492"><ele><![CDATA[1949]]></ele></trkpt>
<trkpt lon="11.69487" lat="47.0348"><ele><![CDATA[1955]]></ele></trkpt>
<trkpt lon="11.6948" lat="47.03481"><ele><![CDATA[1955]]></ele></trkpt>
<trkpt lon="11.6948" lat="47.03477"><ele><![CDATA[1955]]></ele></trkpt>
<trkpt lon="11.69468" lat="47.03477"><ele><![CDATA[1959]]></ele></trkpt>
<trkpt lon="11.69464" lat="47.0348"><ele><![CDATA[1961]]></ele></trkpt>
<trkpt lon="11.69457" lat="47.03484"><ele><![CDATA[1961]]></ele></trkpt>
<trkpt lon="11.69455" lat="47.03489"><ele><![CDATA[1961]]></ele></trkpt>
<trkpt lon="11.6945" lat="47.03487"><ele><![CDATA[1965]]></ele></trkpt>
<trkpt lon="11.69445" lat="47.03496"><ele><![CDATA[1965]]></ele></trkpt>
<trkpt lon="11.69437" lat="47.03489"><ele><![CDATA[1969]]></ele></trkpt>
<trkpt lon="11.69431" lat="47.03497"><ele><![CDATA[1969]]></ele></trkpt>
<trkpt lon="11.69419" lat="47.03476"><ele><![CDATA[1974]]></ele></trkpt>
<trkpt lon="11.69405" lat="47.03468"><ele><![CDATA[1978]]></ele></trkpt>
<trkpt lon="11.69401" lat="47.0347"><ele><![CDATA[1982]]></ele></trkpt>
<trkpt lon="11.69404" lat="47.03473"><ele><![CDATA[1978]]></ele></trkpt>
<trkpt lon="11.69394" lat="47.0348"><ele><![CDATA[1982]]></ele></trkpt>
<trkpt lon="11.6939" lat="47.03481"><ele><![CDATA[1982]]></ele></trkpt>
<trkpt lon="11.69389" lat="47.03485"><ele><![CDATA[1983]]></ele></trkpt>
<trkpt lon="11.69383" lat="47.03488"><ele><![CDATA[1987]]></ele></trkpt>
<trkpt lon="11.6938" lat="47.03498"><ele><![CDATA[1987]]></ele></trkpt>
<trkpt lon="11.69372" lat="47.03491"><ele><![CDATA[1990]]></ele></trkpt>
<trkpt lon="11.69366" lat="47.03492"><ele><![CDATA[1990]]></ele></trkpt>
<trkpt lon="11.69363" lat="47.03488"><ele><![CDATA[1994]]></ele></trkpt>
<trkpt lon="11.69349" lat="47.035"><ele><![CDATA[1998]]></ele></trkpt>
<trkpt lon="11.69344" lat="47.03493"><ele><![CDATA[1998]]></ele></trkpt>
<trkpt lon="11.69341" lat="47.03497"><ele><![CDATA[1998]]></ele></trkpt>
<trkpt lon="11.69331" lat="47.0349"><ele><![CDATA[2004]]></ele></trkpt>
<trkpt lon="11.69326" lat="47.03494"><ele><![CDATA[2002]]></ele></trkpt>
<trkpt lon="11.69323" lat="47.03489"><ele><![CDATA[2008]]></ele></trkpt>
<trkpt lon="11.69317" lat="47.03491"><ele><![CDATA[2008]]></ele></trkpt>
<trkpt lon="11.69318" lat="47.03487"><ele><![CDATA[2008]]></ele></trkpt>
<trkpt lon="11.69315" lat="47.03486"><ele><![CDATA[2008]]></ele></trkpt>
<trkpt lon="11.69304" lat="47.03489"><ele><![CDATA[2011]]></ele></trkpt>
<trkpt lon="11.69294" lat="47.03486"><ele><![CDATA[2014]]></ele></trkpt>
<trkpt lon="11.6929" lat="47.03489"><ele><![CDATA[2014]]></ele></trkpt>
<trkpt lon="11.69283" lat="47.03492"><ele><![CDATA[2018]]></ele></trkpt>
<trkpt lon="11.69273" lat="47.03489"><ele><![CDATA[2020]]></ele></trkpt>
<trkpt lon="11.69269" lat="47.0349"><ele><![CDATA[2020]]></ele></trkpt>
<trkpt lon="11.69261" lat="47.03485"><ele><![CDATA[2020]]></ele></trkpt>
<trkpt lon="11.69255" lat="47.03488"><ele><![CDATA[2023]]></ele></trkpt>
<trkpt lon="11.6925" lat="47.03482"><ele><![CDATA[2025]]></ele></trkpt>
<trkpt lon="11.69249" lat="47.03486"><ele><![CDATA[2023]]></ele></trkpt>
<trkpt lon="11.69246" lat="47.03482"><ele><![CDATA[2028]]></ele></trkpt>
<trkpt lon="11.69243" lat="47.03481"><ele><![CDATA[2028]]></ele></trkpt>
<trkpt lon="11.6924" lat="47.03484"><ele><![CDATA[2027]]></ele></trkpt>
<trkpt lon="11.69238" lat="47.03482"><ele><![CDATA[2028]]></ele></trkpt>
<trkpt lon="11.69233" lat="47.03483"><ele><![CDATA[2032]]></ele></trkpt>
<trkpt lon="11.69229" lat="47.03483"><ele><![CDATA[2032]]></ele></trkpt>
<trkpt lon="11.69227" lat="47.03483"><ele><![CDATA[2032]]></ele></trkpt>
<trkpt lon="11.69225" lat="47.03481"><ele><![CDATA[2032]]></ele></trkpt>
<trkpt lon="11.69223" lat="47.03479"><ele><![CDATA[2032]]></ele></trkpt>
<trkpt lon="11.6922" lat="47.03479"><ele><![CDATA[2036]]></ele></trkpt>
<trkpt lon="11.69219" lat="47.03482"><ele><![CDATA[2036]]></ele></trkpt>
<trkpt lon="11.69218" lat="47.03484"><ele><![CDATA[2035]]></ele></trkpt>
<trkpt lon="11.69216" lat="47.03483"><ele><![CDATA[2036]]></ele></trkpt>
<trkpt lon="11.69211" lat="47.03479"><ele><![CDATA[2036]]></ele></trkpt>
<trkpt lon="11.69211" lat="47.03476"><ele><![CDATA[2036]]></ele></trkpt>
<trkpt lon="11.69211" lat="47.03474"><ele><![CDATA[2039]]></ele></trkpt>
<trkpt lon="11.69214" lat="47.03471"><ele><![CDATA[2039]]></ele></trkpt>
<trkpt lon="11.69213" lat="47.03469"><ele><![CDATA[2039]]></ele></trkpt>
<trkpt lon="11.69201" lat="47.03471"><ele><![CDATA[2043]]></ele></trkpt>
<trkpt lon="11.69195" lat="47.03477"><ele><![CDATA[2045]]></ele></trkpt>
<trkpt lon="11.69178" lat="47.03481"><ele><![CDATA[2050]]></ele></trkpt>
<trkpt lon="11.69176" lat="47.03483"><ele><![CDATA[2050]]></ele></trkpt>
<trkpt lon="11.69171" lat="47.03493"><ele><![CDATA[2053]]></ele></trkpt>
<trkpt lon="11.69162" lat="47.03498"><ele><![CDATA[2053]]></ele></trkpt>
<trkpt lon="11.69156" lat="47.03503"><ele><![CDATA[2055]]></ele></trkpt>
<trkpt lon="11.69141" lat="47.03509"><ele><![CDATA[2061]]></ele></trkpt>
<trkpt lon="11.69141" lat="47.0351"><ele><![CDATA[2061]]></ele></trkpt>
<trkpt lon="11.69137" lat="47.03511"><ele><![CDATA[2058]]></ele></trkpt>
<trkpt lon="11.69129" lat="47.03516"><ele><![CDATA[2063]]></ele></trkpt>
<trkpt lon="11.69126" lat="47.03517"><ele><![CDATA[2063]]></ele></trkpt>
<trkpt lon="11.6912" lat="47.03522"><ele><![CDATA[2066]]></ele></trkpt>
<trkpt lon="11.69115" lat="47.03529"><ele><![CDATA[2065]]></ele></trkpt>
<trkpt lon="11.69108" lat="47.03534"><ele><![CDATA[2065]]></ele></trkpt>
<trkpt lon="11.691" lat="47.03539"><ele><![CDATA[2069]]></ele></trkpt>
<trkpt lon="11.69096" lat="47.03543"><ele><![CDATA[2069]]></ele></trkpt>
<trkpt lon="11.69093" lat="47.0355"><ele><![CDATA[2073]]></ele></trkpt>
<trkpt lon="11.69084" lat="47.03557"><ele><![CDATA[2072]]></ele></trkpt>
<trkpt lon="11.69079" lat="47.03565"><ele><![CDATA[2077]]></ele></trkpt>
<trkpt lon="11.69076" lat="47.03572"><ele><![CDATA[2076]]></ele></trkpt>
<trkpt lon="11.6907" lat="47.03577"><ele><![CDATA[2076]]></ele></trkpt>
<trkpt lon="11.69065" lat="47.03588"><ele><![CDATA[2082]]></ele></trkpt>
<trkpt lon="11.69062" lat="47.03592"><ele><![CDATA[2082]]></ele></trkpt>
<trkpt lon="11.69061" lat="47.03597"><ele><![CDATA[2082]]></ele></trkpt>
<trkpt lon="11.69055" lat="47.03606"><ele><![CDATA[2086]]></ele></trkpt>
<trkpt lon="11.69051" lat="47.03613"><ele><![CDATA[2086]]></ele></trkpt>
<trkpt lon="11.69047" lat="47.03619"><ele><![CDATA[2085]]></ele></trkpt>
<trkpt lon="11.69042" lat="47.03622"><ele><![CDATA[2091]]></ele></trkpt>
<trkpt lon="11.69038" lat="47.03622"><ele><![CDATA[2091]]></ele></trkpt>
<trkpt lon="11.69039" lat="47.03616"><ele><![CDATA[2091]]></ele></trkpt>
<trkpt lon="11.69034" lat="47.03607"><ele><![CDATA[2092]]></ele></trkpt>
<trkpt lon="11.69031" lat="47.0361"><ele><![CDATA[2098]]></ele></trkpt>
<trkpt lon="11.6903" lat="47.03607"><ele><![CDATA[2098]]></ele></trkpt>
<trkpt lon="11.69024" lat="47.03593"><ele><![CDATA[2099]]></ele></trkpt>
<trkpt lon="11.69019" lat="47.03598"><ele><![CDATA[2098]]></ele></trkpt>
<trkpt lon="11.69014" lat="47.03605"><ele><![CDATA[2104]]></ele></trkpt>
<trkpt lon="11.69011" lat="47.03608"><ele><![CDATA[2103]]></ele></trkpt>
<trkpt lon="11.69009" lat="47.03606"><ele><![CDATA[2103]]></ele></trkpt>
<trkpt lon="11.69009" lat="47.036"><ele><![CDATA[2104]]></ele></trkpt>
<trkpt lon="11.69007" lat="47.03594"><ele><![CDATA[2105]]></ele></trkpt>
<trkpt lon="11.69008" lat="47.03589"><ele><![CDATA[2105]]></ele></trkpt>
<trkpt lon="11.69006" lat="47.03587"><ele><![CDATA[2106]]></ele></trkpt>
<trkpt lon="11.68997" lat="47.03598"><ele><![CDATA[2110]]></ele></trkpt>
<trkpt lon="11.68988" lat="47.03611"><ele><![CDATA[2114]]></ele></trkpt>
<trkpt lon="11.68986" lat="47.03601"><ele><![CDATA[2115]]></ele></trkpt>
<trkpt lon="11.68983" lat="47.03604"><ele><![CDATA[2115]]></ele></trkpt>
<trkpt lon="11.68979" lat="47.03608"><ele><![CDATA[2119]]></ele></trkpt>
<trkpt lon="11.68975" lat="47.03611"><ele><![CDATA[2119]]></ele></trkpt>
<trkpt lon="11.68971" lat="47.03612"><ele><![CDATA[2119]]></ele></trkpt>
<trkpt lon="11.68972" lat="47.03604"><ele><![CDATA[2121]]></ele></trkpt>
<trkpt lon="11.68975" lat="47.03601"><ele><![CDATA[2121]]></ele></trkpt>
<trkpt lon="11.68976" lat="47.03594"><ele><![CDATA[2123]]></ele></trkpt>
<trkpt lon="11.68978" lat="47.03591"><ele><![CDATA[2123]]></ele></trkpt>
<trkpt lon="11.68978" lat="47.03588"><ele><![CDATA[2125]]></ele></trkpt>
<trkpt lon="11.68975" lat="47.03588"><ele><![CDATA[2125]]></ele></trkpt>
<trkpt lon="11.68973" lat="47.03592"><ele><![CDATA[2123]]></ele></trkpt>
<trkpt lon="11.68969" lat="47.03593"><ele><![CDATA[2123]]></ele></trkpt>
<trkpt lon="11.68968" lat="47.03587"><ele><![CDATA[2125]]></ele></trkpt>
<trkpt lon="11.68968" lat="47.03581"><ele><![CDATA[2125]]></ele></trkpt>
<trkpt lon="11.68966" lat="47.03576"><ele><![CDATA[2134]]></ele></trkpt>
<trkpt lon="11.68964" lat="47.03577"><ele><![CDATA[2134]]></ele></trkpt>
<trkpt lon="11.68961" lat="47.03581"><ele><![CDATA[2132]]></ele></trkpt>
<trkpt lon="11.68953" lat="47.03585"><ele><![CDATA[2138]]></ele></trkpt>
<trkpt lon="11.68954" lat="47.0358"><ele><![CDATA[2138]]></ele></trkpt>
<trkpt lon="11.68953" lat="47.03574"><ele><![CDATA[2141]]></ele></trkpt>
<trkpt lon="11.68951" lat="47.03572"><ele><![CDATA[2141]]></ele></trkpt>
<trkpt lon="11.68949" lat="47.03573"><ele><![CDATA[2141]]></ele></trkpt>
<trkpt lon="11.68949" lat="47.03575"><ele><![CDATA[2141]]></ele></trkpt>
<trkpt lon="11.68946" lat="47.03576"><ele><![CDATA[2141]]></ele></trkpt>
<trkpt lon="11.68942" lat="47.03579"><ele><![CDATA[2141]]></ele></trkpt>
<trkpt lon="11.6894" lat="47.03583"><ele><![CDATA[2145]]></ele></trkpt>
<trkpt lon="11.6893" lat="47.03592"><ele><![CDATA[2142]]></ele></trkpt>
<trkpt lon="11.68925" lat="47.03594"><ele><![CDATA[2147]]></ele></trkpt>
<trkpt lon="11.68929" lat="47.03586"><ele><![CDATA[2145]]></ele></trkpt>
<trkpt lon="11.68929" lat="47.03583"><ele><![CDATA[2145]]></ele></trkpt>
<trkpt lon="11.68915" lat="47.03591"><ele><![CDATA[2152]]></ele></trkpt>
<trkpt lon="11.68913" lat="47.0359"><ele><![CDATA[2152]]></ele></trkpt>
<trkpt lon="11.68915" lat="47.03589"><ele><![CDATA[2152]]></ele></trkpt>
<trkpt lon="11.68919" lat="47.03581"><ele><![CDATA[2151]]></ele></trkpt>
<trkpt lon="11.68911" lat="47.03583"><ele><![CDATA[2156]]></ele></trkpt>
<trkpt lon="11.68908" lat="47.03586"><ele><![CDATA[2156]]></ele></trkpt>
<trkpt lon="11.68891" lat="47.03594"><ele><![CDATA[2158]]></ele></trkpt>
<trkpt lon="11.68888" lat="47.03596"><ele><![CDATA[2163]]></ele></trkpt>
<trkpt lon="11.68878" lat="47.03599"><ele><![CDATA[2159]]></ele></trkpt>
<trkpt lon="11.68861" lat="47.03606"><ele><![CDATA[2165]]></ele></trkpt>
<trkpt lon="11.68857" lat="47.03612"><ele><![CDATA[2165]]></ele></trkpt>
<trkpt lon="11.68855" lat="47.03615"><ele><![CDATA[2163]]></ele></trkpt>
<trkpt lon="11.68852" lat="47.03618"><ele><![CDATA[2169]]></ele></trkpt>
<trkpt lon="11.68843" lat="47.03628"><ele><![CDATA[2167]]></ele></trkpt>
<trkpt lon="11.68833" lat="47.03646"><ele><![CDATA[2173]]></ele></trkpt>
<trkpt lon="11.68826" lat="47.03654"><ele><![CDATA[2178]]></ele></trkpt>
<trkpt lon="11.68823" lat="47.0366"><ele><![CDATA[2177]]></ele></trkpt>
<trkpt lon="11.68822" lat="47.03665"><ele><![CDATA[2177]]></ele></trkpt>
<trkpt lon="11.68811" lat="47.0367"><ele><![CDATA[2180]]></ele></trkpt>
<trkpt lon="11.688" lat="47.03676"><ele><![CDATA[2182]]></ele></trkpt>
<trkpt lon="11.68797" lat="47.03677"><ele><![CDATA[2182]]></ele></trkpt>
<trkpt lon="11.68794" lat="47.03679"><ele><![CDATA[2182]]></ele></trkpt>
<trkpt lon="11.68793" lat="47.03681"><ele><![CDATA[2182]]></ele></trkpt>
<trkpt lon="11.68789" lat="47.03682"><ele><![CDATA[2182]]></ele></trkpt>
<trkpt lon="11.68787" lat="47.03681"><ele><![CDATA[2186]]></ele></trkpt>
<trkpt lon="11.68788" lat="47.03679"><ele><![CDATA[2186]]></ele></trkpt>
<trkpt lon="11.68789" lat="47.03676"><ele><![CDATA[2182]]></ele></trkpt>
<trkpt lon="11.68791" lat="47.03672"><ele><![CDATA[2184]]></ele></trkpt>
<trkpt lon="11.68795" lat="47.03666"><ele><![CDATA[2187]]></ele></trkpt>
<trkpt lon="11.68797" lat="47.03662"><ele><![CDATA[2187]]></ele></trkpt>
<trkpt lon="11.68796" lat="47.0366"><ele><![CDATA[2187]]></ele></trkpt>
<trkpt lon="11.68792" lat="47.03664"><ele><![CDATA[2187]]></ele></trkpt>
<trkpt lon="11.6879" lat="47.03663"><ele><![CDATA[2187]]></ele></trkpt>
<trkpt lon="11.6879" lat="47.0366"><ele><![CDATA[2187]]></ele></trkpt>
<trkpt lon="11.68785" lat="47.03655"><ele><![CDATA[2193]]></ele></trkpt>
<trkpt lon="11.68784" lat="47.0365"><ele><![CDATA[2193]]></ele></trkpt>
<trkpt lon="11.68781" lat="47.0365"><ele><![CDATA[2193]]></ele></trkpt>
<trkpt lon="11.68778" lat="47.03653"><ele><![CDATA[2193]]></ele></trkpt>
<trkpt lon="11.68775" lat="47.03658"><ele><![CDATA[2196]]></ele></trkpt>
<trkpt lon="11.68773" lat="47.03656"><ele><![CDATA[2197]]></ele></trkpt>
<trkpt lon="11.68772" lat="47.03653"><ele><![CDATA[2197]]></ele></trkpt>
<trkpt lon="11.6877" lat="47.03653"><ele><![CDATA[2197]]></ele></trkpt>
<trkpt lon="11.6876" lat="47.03661"><ele><![CDATA[2200]]></ele></trkpt>
<trkpt lon="11.68753" lat="47.03662"><ele><![CDATA[2200]]></ele></trkpt>
<trkpt lon="11.68756" lat="47.03658"><ele><![CDATA[2200]]></ele></trkpt>
<trkpt lon="11.68756" lat="47.03654"><ele><![CDATA[2202]]></ele></trkpt>
<trkpt lon="11.68754" lat="47.03651"><ele><![CDATA[2202]]></ele></trkpt>
<trkpt lon="11.68752" lat="47.03645"><ele><![CDATA[2204]]></ele></trkpt>
<trkpt lon="11.68753" lat="47.03641"><ele><![CDATA[2204]]></ele></trkpt>
<trkpt lon="11.68754" lat="47.03637"><ele><![CDATA[2205]]></ele></trkpt>
<trkpt lon="11.68755" lat="47.03632"><ele><![CDATA[2205]]></ele></trkpt>
<trkpt lon="11.68753" lat="47.03632"><ele><![CDATA[2205]]></ele></trkpt>
<trkpt lon="11.68749" lat="47.03635"><ele><![CDATA[2211]]></ele></trkpt>
<trkpt lon="11.68739" lat="47.03644"><ele><![CDATA[2209]]></ele></trkpt>
<trkpt lon="11.68737" lat="47.03649"><ele><![CDATA[2214]]></ele></trkpt>
<trkpt lon="11.68734" lat="47.03653"><ele><![CDATA[2212]]></ele></trkpt>
<trkpt lon="11.68731" lat="47.03653"><ele><![CDATA[2212]]></ele></trkpt>
<trkpt lon="11.68733" lat="47.0365"><ele><![CDATA[2212]]></ele></trkpt>
<trkpt lon="11.68734" lat="47.03645"><ele><![CDATA[2214]]></ele></trkpt>
<trkpt lon="11.68732" lat="47.03643"><ele><![CDATA[2214]]></ele></trkpt>
<trkpt lon="11.68731" lat="47.03636"><ele><![CDATA[2216]]></ele></trkpt>
<trkpt lon="11.68729" lat="47.03636"><ele><![CDATA[2216]]></ele></trkpt>
<trkpt lon="11.68725" lat="47.03645"><ele><![CDATA[2214]]></ele></trkpt>
<trkpt lon="11.68717" lat="47.0365"><ele><![CDATA[2216]]></ele></trkpt>
<trkpt lon="11.68712" lat="47.03653"><ele><![CDATA[2216]]></ele></trkpt>
<trkpt lon="11.68706" lat="47.03655"><ele><![CDATA[2220]]></ele></trkpt>
<trkpt lon="11.68701" lat="47.03657"><ele><![CDATA[2220]]></ele></trkpt>
<trkpt lon="11.68694" lat="47.03658"><ele><![CDATA[2221]]></ele></trkpt>
<trkpt lon="11.68688" lat="47.03659"><ele><![CDATA[2221]]></ele></trkpt>
<trkpt lon="11.68684" lat="47.03666"><ele><![CDATA[2226]]></ele></trkpt>
<trkpt lon="11.6868" lat="47.03671"><ele><![CDATA[2227]]></ele></trkpt>
<trkpt lon="11.68678" lat="47.03679"><ele><![CDATA[2228]]></ele></trkpt>
<trkpt lon="11.68679" lat="47.03683"><ele><![CDATA[2228]]></ele></trkpt>
<trkpt lon="11.68678" lat="47.03688"><ele><![CDATA[2229]]></ele></trkpt>
<trkpt lon="11.68676" lat="47.03696"><ele><![CDATA[2230]]></ele></trkpt>
<trkpt lon="11.68664" lat="47.03715"><ele><![CDATA[2235]]></ele></trkpt>
<trkpt lon="11.68661" lat="47.03714"><ele><![CDATA[2235]]></ele></trkpt>
<trkpt lon="11.6866" lat="47.03709"><ele><![CDATA[2239]]></ele></trkpt>
<trkpt lon="11.68659" lat="47.03705"><ele><![CDATA[2239]]></ele></trkpt>
<trkpt lon="11.68655" lat="47.03705"><ele><![CDATA[2239]]></ele></trkpt>
<trkpt lon="11.68654" lat="47.03712"><ele><![CDATA[2239]]></ele></trkpt>
<trkpt lon="11.6865" lat="47.03713"><ele><![CDATA[2239]]></ele></trkpt>
<trkpt lon="11.68648" lat="47.03708"><ele><![CDATA[2239]]></ele></trkpt>
<trkpt lon="11.68646" lat="47.03708"><ele><![CDATA[2243]]></ele></trkpt>
<trkpt lon="11.68644" lat="47.03712"><ele><![CDATA[2244]]></ele></trkpt>
<trkpt lon="11.68641" lat="47.03717"><ele><![CDATA[2244]]></ele></trkpt>
<trkpt lon="11.68637" lat="47.03718"><ele><![CDATA[2244]]></ele></trkpt>
<trkpt lon="11.68635" lat="47.03715"><ele><![CDATA[2248]]></ele></trkpt>
<trkpt lon="11.68633" lat="47.03712"><ele><![CDATA[2248]]></ele></trkpt>
<trkpt lon="11.68629" lat="47.03709"><ele><![CDATA[2247]]></ele></trkpt>
<trkpt lon="11.68628" lat="47.03712"><ele><![CDATA[2248]]></ele></trkpt>
<trkpt lon="11.68628" lat="47.03716"><ele><![CDATA[2248]]></ele></trkpt>
<trkpt lon="11.68626" lat="47.03716"><ele><![CDATA[2248]]></ele></trkpt>
<trkpt lon="11.68626" lat="47.03713"><ele><![CDATA[2248]]></ele></trkpt>
<trkpt lon="11.68624" lat="47.03713"><ele><![CDATA[2248]]></ele></trkpt>
<trkpt lon="11.68622" lat="47.03716"><ele><![CDATA[2254]]></ele></trkpt>
<trkpt lon="11.68624" lat="47.03725"><ele><![CDATA[2250]]></ele></trkpt>
<trkpt lon="11.68621" lat="47.03735"><ele><![CDATA[2257]]></ele></trkpt>
<trkpt lon="11.68619" lat="47.03741"><ele><![CDATA[2258]]></ele></trkpt>
<trkpt lon="11.68621" lat="47.03746"><ele><![CDATA[2260]]></ele></trkpt>
<trkpt lon="11.68623" lat="47.0375"><ele><![CDATA[2255]]></ele></trkpt>
<trkpt lon="11.68627" lat="47.03753"><ele><![CDATA[2255]]></ele></trkpt>
<trkpt lon="11.68629" lat="47.03758"><ele><![CDATA[2258]]></ele></trkpt>
<trkpt lon="11.68634" lat="47.03762"><ele><![CDATA[2258]]></ele></trkpt>
<trkpt lon="11.68637" lat="47.03769"><ele><![CDATA[2256]]></ele></trkpt>
<trkpt lon="11.68635" lat="47.03774"><ele><![CDATA[2263]]></ele></trkpt>
<trkpt lon="11.68636" lat="47.03783"><ele><![CDATA[2261]]></ele></trkpt>
<trkpt lon="11.68635" lat="47.03789"><ele><![CDATA[2268]]></ele></trkpt>
<trkpt lon="11.68637" lat="47.03793"><ele><![CDATA[2263]]></ele></trkpt>
<trkpt lon="11.6864" lat="47.03796"><ele><![CDATA[2263]]></ele></trkpt>
<trkpt lon="11.68645" lat="47.03798"><ele><![CDATA[2265]]></ele></trkpt>
<trkpt lon="11.68652" lat="47.03808"><ele><![CDATA[2263]]></ele></trkpt>
<trkpt lon="11.68649" lat="47.03815"><ele><![CDATA[2264]]></ele></trkpt>
<trkpt lon="11.68647" lat="47.03819"><ele><![CDATA[2266]]></ele></trkpt>
<trkpt lon="11.68642" lat="47.03824"><ele><![CDATA[2266]]></ele></trkpt>
<trkpt lon="11.68639" lat="47.03829"><ele><![CDATA[2266]]></ele></trkpt>
<trkpt lon="11.68641" lat="47.03833"><ele><![CDATA[2267]]></ele></trkpt>
<trkpt lon="11.68642" lat="47.03835"><ele><![CDATA[2267]]></ele></trkpt>
<trkpt lon="11.68644" lat="47.03839"><ele><![CDATA[2267]]></ele></trkpt>
<trkpt lon="11.68645" lat="47.03843"><ele><![CDATA[2268]]></ele></trkpt>
<trkpt lon="11.68654" lat="47.03848"><ele><![CDATA[2267]]></ele></trkpt>
<trkpt lon="11.68655" lat="47.03851"><ele><![CDATA[2270]]></ele></trkpt>
<trkpt lon="11.68655" lat="47.03856"><ele><![CDATA[2270]]></ele></trkpt>
<trkpt lon="11.68654" lat="47.0386"><ele><![CDATA[2272]]></ele></trkpt>
<trkpt lon="11.68655" lat="47.03864"><ele><![CDATA[2272]]></ele></trkpt>
<trkpt lon="11.68651" lat="47.03866"><ele><![CDATA[2272]]></ele></trkpt>
<trkpt lon="11.6865" lat="47.03868"><ele><![CDATA[2274]]></ele></trkpt>
<trkpt lon="11.68652" lat="47.0387"><ele><![CDATA[2274]]></ele></trkpt>
<trkpt lon="11.68656" lat="47.03872"><ele><![CDATA[2274]]></ele></trkpt>
<trkpt lon="11.68657" lat="47.03875"><ele><![CDATA[2274]]></ele></trkpt>
<trkpt lon="11.68655" lat="47.0388"><ele><![CDATA[2275]]></ele></trkpt>
<trkpt lon="11.68655" lat="47.03886"><ele><![CDATA[2277]]></ele></trkpt>
<trkpt lon="11.68657" lat="47.0389"><ele><![CDATA[2277]]></ele></trkpt>
<trkpt lon="11.68661" lat="47.03893"><ele><![CDATA[2276]]></ele></trkpt>
<trkpt lon="11.68666" lat="47.03894"><ele><![CDATA[2277]]></ele></trkpt>
<trkpt lon="11.68674" lat="47.03897"><ele><![CDATA[2277]]></ele></trkpt>
<trkpt lon="11.68687" lat="47.03897"><ele><![CDATA[2277]]></ele></trkpt>
<trkpt lon="11.68692" lat="47.03896"><ele><![CDATA[2277]]></ele></trkpt>
<trkpt lon="11.68699" lat="47.03896"><ele><![CDATA[2277]]></ele></trkpt>
<trkpt lon="11.68721" lat="47.03902"><ele><![CDATA[2279]]></ele></trkpt>
<trkpt lon="11.68726" lat="47.03902"><ele><![CDATA[2279]]></ele></trkpt>
<trkpt lon="11.68737" lat="47.03905"><ele><![CDATA[2279]]></ele></trkpt>
<trkpt lon="11.6875" lat="47.03911"><ele><![CDATA[2281]]></ele></trkpt>
<trkpt lon="11.68759" lat="47.03916"><ele><![CDATA[2282]]></ele></trkpt>
<trkpt lon="11.6876" lat="47.03918"><ele><![CDATA[2282]]></ele></trkpt>
<trkpt lon="11.6877" lat="47.03925"><ele><![CDATA[2285]]></ele></trkpt>
<trkpt lon="11.68783" lat="47.03932"><ele><![CDATA[2288]]></ele></trkpt>
<trkpt lon="11.68789" lat="47.03931"><ele><![CDATA[2289]]></ele></trkpt>
<trkpt lon="11.68793" lat="47.03934"><ele><![CDATA[2289]]></ele></trkpt>
<trkpt lon="11.68796" lat="47.03937"><ele><![CDATA[2290]]></ele></trkpt>
<trkpt lon="11.68797" lat="47.03941"><ele><![CDATA[2290]]></ele></trkpt>
<trkpt lon="11.68818" lat="47.03953"><ele><![CDATA[2293]]></ele></trkpt>
<trkpt lon="11.68843" lat="47.03963"><ele><![CDATA[2298]]></ele></trkpt>
<trkpt lon="11.68848" lat="47.03967"><ele><![CDATA[2298]]></ele></trkpt>
<trkpt lon="11.68849" lat="47.0397"><ele><![CDATA[2298]]></ele></trkpt>
<trkpt lon="11.68849" lat="47.03972"><ele><![CDATA[2301]]></ele></trkpt>
<trkpt lon="11.68857" lat="47.03974"><ele><![CDATA[2302]]></ele></trkpt>
<trkpt lon="11.68865" lat="47.0398"><ele><![CDATA[2302]]></ele></trkpt>
<trkpt lon="11.68875" lat="47.03984"><ele><![CDATA[2305]]></ele></trkpt>
<trkpt lon="11.68881" lat="47.0399"><ele><![CDATA[2307]]></ele></trkpt>
<trkpt lon="11.68884" lat="47.03996"><ele><![CDATA[2307]]></ele></trkpt>
<trkpt lon="11.68894" lat="47.03998"><ele><![CDATA[2309]]></ele></trkpt>
<trkpt lon="11.68897" lat="47.04"><ele><![CDATA[2309]]></ele></trkpt>
<trkpt lon="11.68907" lat="47.04005"><ele><![CDATA[2308]]></ele></trkpt>
<trkpt lon="11.68912" lat="47.04011"><ele><![CDATA[2311]]></ele></trkpt>
<trkpt lon="11.68912" lat="47.04015"><ele><![CDATA[2313]]></ele></trkpt>
<trkpt lon="11.68907" lat="47.04014"><ele><![CDATA[2311]]></ele></trkpt>
<trkpt lon="11.689" lat="47.04013"><ele><![CDATA[2312]]></ele></trkpt>
<trkpt lon="11.68897" lat="47.04018"><ele><![CDATA[2313]]></ele></trkpt>
<trkpt lon="11.689" lat="47.04025"><ele><![CDATA[2315]]></ele></trkpt>
<trkpt lon="11.68915" lat="47.04035"><ele><![CDATA[2316]]></ele></trkpt>
<trkpt lon="11.6893" lat="47.04043"><ele><![CDATA[2316]]></ele></trkpt>
<trkpt lon="11.6894" lat="47.04056"><ele><![CDATA[2317]]></ele></trkpt>
<trkpt lon="11.68941" lat="47.04071"><ele><![CDATA[2319]]></ele></trkpt>
<trkpt lon="11.68942" lat="47.0408"><ele><![CDATA[2321]]></ele></trkpt>
<trkpt lon="11.68946" lat="47.04084"><ele><![CDATA[2321]]></ele></trkpt>
<trkpt lon="11.68945" lat="47.04085"><ele><![CDATA[2324]]></ele></trkpt>
<trkpt lon="11.68933" lat="47.04082"><ele><![CDATA[2322]]></ele></trkpt>
<trkpt lon="11.68932" lat="47.04084"><ele><![CDATA[2322]]></ele></trkpt>
<trkpt lon="11.68937" lat="47.04087"><ele><![CDATA[2326]]></ele></trkpt>
<trkpt lon="11.68936" lat="47.04089"><ele><![CDATA[2326]]></ele></trkpt>
<trkpt lon="11.68929" lat="47.04087"><ele><![CDATA[2326]]></ele></trkpt>
<trkpt lon="11.68919" lat="47.04085"><ele><![CDATA[2328]]></ele></trkpt>
<trkpt lon="11.68911" lat="47.04086"><ele><![CDATA[2329]]></ele></trkpt>
<trkpt lon="11.68911" lat="47.04087"><ele><![CDATA[2329]]></ele></trkpt>
<trkpt lon="11.68915" lat="47.0409"><ele><![CDATA[2329]]></ele></trkpt>
<trkpt lon="11.68919" lat="47.04092"><ele><![CDATA[2328]]></ele></trkpt>
<trkpt lon="11.68921" lat="47.04095"><ele><![CDATA[2332]]></ele></trkpt>
<trkpt lon="11.68923" lat="47.04096"><ele><![CDATA[2332]]></ele></trkpt>
<trkpt lon="11.68926" lat="47.04099"><ele><![CDATA[2332]]></ele></trkpt>
<trkpt lon="11.68925" lat="47.041"><ele><![CDATA[2332]]></ele></trkpt>
<trkpt lon="11.68916" lat="47.04099"><ele><![CDATA[2334]]></ele></trkpt>
<trkpt lon="11.68915" lat="47.04101"><ele><![CDATA[2334]]></ele></trkpt>
<trkpt lon="11.6892" lat="47.04105"><ele><![CDATA[2336]]></ele></trkpt>
<trkpt lon="11.68925" lat="47.04109"><ele><![CDATA[2336]]></ele></trkpt>
<trkpt lon="11.68929" lat="47.0411"><ele><![CDATA[2335]]></ele></trkpt>
<trkpt lon="11.68936" lat="47.04111"><ele><![CDATA[2339]]></ele></trkpt>
<trkpt lon="11.68944" lat="47.04116"><ele><![CDATA[2337]]></ele></trkpt>
<trkpt lon="11.68944" lat="47.04118"><ele><![CDATA[2337]]></ele></trkpt>
<trkpt lon="11.68942" lat="47.04118"><ele><![CDATA[2337]]></ele></trkpt>
<trkpt lon="11.68935" lat="47.04118"><ele><![CDATA[2339]]></ele></trkpt>
<trkpt lon="11.68931" lat="47.04118"><ele><![CDATA[2339]]></ele></trkpt>
<trkpt lon="11.68926" lat="47.04118"><ele><![CDATA[2340]]></ele></trkpt>
<trkpt lon="11.68926" lat="47.0412"><ele><![CDATA[2342]]></ele></trkpt>
<trkpt lon="11.68938" lat="47.04129"><ele><![CDATA[2345]]></ele></trkpt>
<trkpt lon="11.6895" lat="47.04137"><ele><![CDATA[2346]]></ele></trkpt>
<trkpt lon="11.68951" lat="47.04142"><ele><![CDATA[2346]]></ele></trkpt>
<trkpt lon="11.68949" lat="47.04144"><ele><![CDATA[2346]]></ele></trkpt>
<trkpt lon="11.68944" lat="47.04145"><ele><![CDATA[2346]]></ele></trkpt>
<trkpt lon="11.68934" lat="47.04147"><ele><![CDATA[2351]]></ele></trkpt>
<trkpt lon="11.68925" lat="47.04145"><ele><![CDATA[2350]]></ele></trkpt>
<trkpt lon="11.68921" lat="47.04146"><ele><![CDATA[2353]]></ele></trkpt>
<trkpt lon="11.68921" lat="47.04148"><ele><![CDATA[2353]]></ele></trkpt>
<trkpt lon="11.68923" lat="47.0415"><ele><![CDATA[2353]]></ele></trkpt>
<trkpt lon="11.68918" lat="47.0415"><ele><![CDATA[2353]]></ele></trkpt>
<trkpt lon="11.68906" lat="47.04147"><ele><![CDATA[2356]]></ele></trkpt>
<trkpt lon="11.68897" lat="47.04145"><ele><![CDATA[2355]]></ele></trkpt>
<trkpt lon="11.68888" lat="47.04145"><ele><![CDATA[2357]]></ele></trkpt>
<trkpt lon="11.68876" lat="47.04142"><ele><![CDATA[2359]]></ele></trkpt>
<trkpt lon="11.68866" lat="47.04144"><ele><![CDATA[2359]]></ele></trkpt>
<trkpt lon="11.68858" lat="47.04143"><ele><![CDATA[2361]]></ele></trkpt>
<trkpt lon="11.68854" lat="47.04145"><ele><![CDATA[2361]]></ele></trkpt>
<trkpt lon="11.68857" lat="47.04148"><ele><![CDATA[2366]]></ele></trkpt>
<trkpt lon="11.68852" lat="47.04149"><ele><![CDATA[2367]]></ele></trkpt>
<trkpt lon="11.68857" lat="47.04152"><ele><![CDATA[2366]]></ele></trkpt>
<trkpt lon="11.68863" lat="47.04154"><ele><![CDATA[2366]]></ele></trkpt>
<trkpt lon="11.68859" lat="47.04155"><ele><![CDATA[2370]]></ele></trkpt>
<trkpt lon="11.68851" lat="47.04155"><ele><![CDATA[2371]]></ele></trkpt>
<trkpt lon="11.68846" lat="47.04156"><ele><![CDATA[2371]]></ele></trkpt>
<trkpt lon="11.68846" lat="47.04158"><ele><![CDATA[2371]]></ele></trkpt>
<trkpt lon="11.68854" lat="47.04161"><ele><![CDATA[2370]]></ele></trkpt>
<trkpt lon="11.68859" lat="47.04165"><ele><![CDATA[2373]]></ele></trkpt>
<trkpt lon="11.68859" lat="47.04166"><ele><![CDATA[2373]]></ele></trkpt>
<trkpt lon="11.68855" lat="47.04166"><ele><![CDATA[2373]]></ele></trkpt>
<trkpt lon="11.68853" lat="47.04171"><ele><![CDATA[2373]]></ele></trkpt>
<trkpt lon="11.68843" lat="47.04173"><ele><![CDATA[2377]]></ele></trkpt>
<trkpt lon="11.68834" lat="47.04174"><ele><![CDATA[2379]]></ele></trkpt>
<trkpt lon="11.68827" lat="47.04179"><ele><![CDATA[2379]]></ele></trkpt>
<trkpt lon="11.68825" lat="47.04179"><ele><![CDATA[2381]]></ele></trkpt>
<trkpt lon="11.68822" lat="47.04181"><ele><![CDATA[2384]]></ele></trkpt>
<trkpt lon="11.68828" lat="47.04186"><ele><![CDATA[2383]]></ele></trkpt>
<trkpt lon="11.68828" lat="47.04189"><ele><![CDATA[2386]]></ele></trkpt>
<trkpt lon="11.68823" lat="47.04192"><ele><![CDATA[2387]]></ele></trkpt>
<trkpt lon="11.68823" lat="47.04192"><ele><![CDATA[2387]]></ele></trkpt>
<trkpt lon="11.68823" lat="47.04192"><ele><![CDATA[2387]]></ele></trkpt>
<trkpt lon="11.68823" lat="47.04192"><ele><![CDATA[2387]]></ele></trkpt>
<trkpt lon="11.68821" lat="47.04194"><ele><![CDATA[2387]]></ele></trkpt>
<trkpt lon="11.68818" lat="47.04194"><ele><![CDATA[2387]]></ele></trkpt>
<trkpt lon="11.68814" lat="47.04196"><ele><![CDATA[2387]]></ele></trkpt>
<trkpt lon="11.68816" lat="47.04201"><ele><![CDATA[2389]]></ele></trkpt>
<trkpt lon="11.68816" lat="47.04201"><ele><![CDATA[2389]]></ele></trkpt>
<trkpt lon="11.68816" lat="47.04201"><ele><![CDATA[2389]]></ele></trkpt>
</trkseg>
</trk>
<trk><name><![CDATA[huettenwanderung_ginzling_schlegeis_stausee_-_olpererhuette_retour_95293168]]></name><extensions><label xmlns="http://www.topografix.com/GPX/gpx_overlay/0/3"></label>
</extensions>
<trkseg><trkpt lon="11.68816" lat="47.04201"><ele><![CDATA[2389]]></ele></trkpt>
<trkpt lon="11.68816" lat="47.04201"><ele><![CDATA[2389]]></ele></trkpt>
<trkpt lon="11.68816" lat="47.04201"><ele><![CDATA[2389]]></ele></trkpt>
<trkpt lon="11.68814" lat="47.04196"><ele><![CDATA[2387]]></ele></trkpt>
<trkpt lon="11.68818" lat="47.04194"><ele><![CDATA[2387]]></ele></trkpt>
<trkpt lon="11.68821" lat="47.04194"><ele><![CDATA[2387]]></ele></trkpt>
<trkpt lon="11.68823" lat="47.04192"><ele><![CDATA[2387]]></ele></trkpt>
<trkpt lon="11.68823" lat="47.04192"><ele><![CDATA[2387]]></ele></trkpt>
<trkpt lon="11.68823" lat="47.04192"><ele><![CDATA[2387]]></ele></trkpt>
<trkpt lon="11.68823" lat="47.04192"><ele><![CDATA[2387]]></ele></trkpt>
<trkpt lon="11.68828" lat="47.04189"><ele><![CDATA[2386]]></ele></trkpt>
<trkpt lon="11.68828" lat="47.04186"><ele><![CDATA[2383]]></ele></trkpt>
<trkpt lon="11.68822" lat="47.04181"><ele><![CDATA[2384]]></ele></trkpt>
<trkpt lon="11.68825" lat="47.04179"><ele><![CDATA[2381]]></ele></trkpt>
<trkpt lon="11.68827" lat="47.04179"><ele><![CDATA[2379]]></ele></trkpt>
<trkpt lon="11.68834" lat="47.04174"><ele><![CDATA[2379]]></ele></trkpt>
<trkpt lon="11.68843" lat="47.04173"><ele><![CDATA[2377]]></ele></trkpt>
<trkpt lon="11.68853" lat="47.04171"><ele><![CDATA[2373]]></ele></trkpt>
<trkpt lon="11.68855" lat="47.04166"><ele><![CDATA[2373]]></ele></trkpt>
<trkpt lon="11.68859" lat="47.04166"><ele><![CDATA[2373]]></ele></trkpt>
<trkpt lon="11.68859" lat="47.04165"><ele><![CDATA[2373]]></ele></trkpt>
<trkpt lon="11.68854" lat="47.04161"><ele><![CDATA[2370]]></ele></trkpt>
<trkpt lon="11.68846" lat="47.04158"><ele><![CDATA[2371]]></ele></trkpt>
<trkpt lon="11.68846" lat="47.04156"><ele><![CDATA[2371]]></ele></trkpt>
<trkpt lon="11.68851" lat="47.04155"><ele><![CDATA[2371]]></ele></trkpt>
<trkpt lon="11.68859" lat="47.04155"><ele><![CDATA[2370]]></ele></trkpt>
<trkpt lon="11.68863" lat="47.04154"><ele><![CDATA[2366]]></ele></trkpt>
<trkpt lon="11.68857" lat="47.04152"><ele><![CDATA[2366]]></ele></trkpt>
<trkpt lon="11.68852" lat="47.04149"><ele><![CDATA[2367]]></ele></trkpt>
<trkpt lon="11.68857" lat="47.04148"><ele><![CDATA[2366]]></ele></trkpt>
<trkpt lon="11.68854" lat="47.04145"><ele><![CDATA[2361]]></ele></trkpt>
<trkpt lon="11.68858" lat="47.04143"><ele><![CDATA[2361]]></ele></trkpt>
<trkpt lon="11.68866" lat="47.04144"><ele><![CDATA[2359]]></ele></trkpt>
<trkpt lon="11.68876" lat="47.04142"><ele><![CDATA[2359]]></ele></trkpt>
<trkpt lon="11.68888" lat="47.04145"><ele><![CDATA[2357]]></ele></trkpt>
<trkpt lon="11.68897" lat="47.04145"><ele><![CDATA[2355]]></ele></trkpt>
<trkpt lon="11.68906" lat="47.04147"><ele><![CDATA[2356]]></ele></trkpt>
<trkpt lon="11.68918" lat="47.0415"><ele><![CDATA[2353]]></ele></trkpt>
<trkpt lon="11.68923" lat="47.0415"><ele><![CDATA[2353]]></ele></trkpt>
<trkpt lon="11.68921" lat="47.04148"><ele><![CDATA[2353]]></ele></trkpt>
<trkpt lon="11.68921" lat="47.04146"><ele><![CDATA[2353]]></ele></trkpt>
<trkpt lon="11.68925" lat="47.04145"><ele><![CDATA[2350]]></ele></trkpt>
<trkpt lon="11.68934" lat="47.04147"><ele><![CDATA[2351]]></ele></trkpt>
<trkpt lon="11.68944" lat="47.04145"><ele><![CDATA[2346]]></ele></trkpt>
<trkpt lon="11.68949" lat="47.04144"><ele><![CDATA[2346]]></ele></trkpt>
<trkpt lon="11.68951" lat="47.04142"><ele><![CDATA[2346]]></ele></trkpt>
<trkpt lon="11.6895" lat="47.04137"><ele><![CDATA[2346]]></ele></trkpt>
<trkpt lon="11.68938" lat="47.04129"><ele><![CDATA[2345]]></ele></trkpt>
<trkpt lon="11.68926" lat="47.0412"><ele><![CDATA[2342]]></ele></trkpt>
<trkpt lon="11.68926" lat="47.04118"><ele><![CDATA[2340]]></ele></trkpt>
<trkpt lon="11.68931" lat="47.04118"><ele><![CDATA[2339]]></ele></trkpt>
<trkpt lon="11.68935" lat="47.04118"><ele><![CDATA[2339]]></ele></trkpt>
<trkpt lon="11.68942" lat="47.04118"><ele><![CDATA[2337]]></ele></trkpt>
<trkpt lon="11.68944" lat="47.04118"><ele><![CDATA[2337]]></ele></trkpt>
<trkpt lon="11.68944" lat="47.04116"><ele><![CDATA[2337]]></ele></trkpt>
<trkpt lon="11.68936" lat="47.04111"><ele><![CDATA[2339]]></ele></trkpt>
<trkpt lon="11.68929" lat="47.0411"><ele><![CDATA[2335]]></ele></trkpt>
<trkpt lon="11.68925" lat="47.04109"><ele><![CDATA[2336]]></ele></trkpt>
<trkpt lon="11.6892" lat="47.04105"><ele><![CDATA[2336]]></ele></trkpt>
<trkpt lon="11.68915" lat="47.04101"><ele><![CDATA[2334]]></ele></trkpt>
<trkpt lon="11.68916" lat="47.04099"><ele><![CDATA[2334]]></ele></trkpt>
<trkpt lon="11.68925" lat="47.041"><ele><![CDATA[2332]]></ele></trkpt>
<trkpt lon="11.68926" lat="47.04099"><ele><![CDATA[2332]]></ele></trkpt>
<trkpt lon="11.68923" lat="47.04096"><ele><![CDATA[2332]]></ele></trkpt>
<trkpt lon="11.68921" lat="47.04095"><ele><![CDATA[2332]]></ele></trkpt>
<trkpt lon="11.68919" lat="47.04092"><ele><![CDATA[2328]]></ele></trkpt>
<trkpt lon="11.68915" lat="47.0409"><ele><![CDATA[2329]]></ele></trkpt>
<trkpt lon="11.68911" lat="47.04087"><ele><![CDATA[2329]]></ele></trkpt>
<trkpt lon="11.68911" lat="47.04086"><ele><![CDATA[2329]]></ele></trkpt>
<trkpt lon="11.68919" lat="47.04085"><ele><![CDATA[2328]]></ele></trkpt>
<trkpt lon="11.68929" lat="47.04087"><ele><![CDATA[2326]]></ele></trkpt>
<trkpt lon="11.68936" lat="47.04089"><ele><![CDATA[2326]]></ele></trkpt>
<trkpt lon="11.68937" lat="47.04087"><ele><![CDATA[2326]]></ele></trkpt>
<trkpt lon="11.68932" lat="47.04084"><ele><![CDATA[2322]]></ele></trkpt>
<trkpt lon="11.68933" lat="47.04082"><ele><![CDATA[2322]]></ele></trkpt>
<trkpt lon="11.68945" lat="47.04085"><ele><![CDATA[2324]]></ele></trkpt>
<trkpt lon="11.68946" lat="47.04084"><ele><![CDATA[2321]]></ele></trkpt>
<trkpt lon="11.68942" lat="47.0408"><ele><![CDATA[2321]]></ele></trkpt>
<trkpt lon="11.68941" lat="47.04071"><ele><![CDATA[2319]]></ele></trkpt>
<trkpt lon="11.6894" lat="47.04056"><ele><![CDATA[2317]]></ele></trkpt>
<trkpt lon="11.6893" lat="47.04043"><ele><![CDATA[2316]]></ele></trkpt>
<trkpt lon="11.68915" lat="47.04035"><ele><![CDATA[2316]]></ele></trkpt>
<trkpt lon="11.689" lat="47.04025"><ele><![CDATA[2315]]></ele></trkpt>
<trkpt lon="11.68897" lat="47.04018"><ele><![CDATA[2313]]></ele></trkpt>
<trkpt lon="11.689" lat="47.04013"><ele><![CDATA[2312]]></ele></trkpt>
<trkpt lon="11.68907" lat="47.04014"><ele><![CDATA[2311]]></ele></trkpt>
<trkpt lon="11.68912" lat="47.04015"><ele><![CDATA[2313]]></ele></trkpt>
<trkpt lon="11.68912" lat="47.04011"><ele><![CDATA[2311]]></ele></trkpt>
<trkpt lon="11.68907" lat="47.04005"><ele><![CDATA[2308]]></ele></trkpt>
<trkpt lon="11.68897" lat="47.04"><ele><![CDATA[2309]]></ele></trkpt>
<trkpt lon="11.68894" lat="47.03998"><ele><![CDATA[2309]]></ele></trkpt>
<trkpt lon="11.68884" lat="47.03996"><ele><![CDATA[2307]]></ele></trkpt>
<trkpt lon="11.68881" lat="47.0399"><ele><![CDATA[2307]]></ele></trkpt>
<trkpt lon="11.68875" lat="47.03984"><ele><![CDATA[2305]]></ele></trkpt>
<trkpt lon="11.68865" lat="47.0398"><ele><![CDATA[2302]]></ele></trkpt>
<trkpt lon="11.68857" lat="47.03974"><ele><![CDATA[2302]]></ele></trkpt>
<trkpt lon="11.68849" lat="47.03972"><ele><![CDATA[2301]]></ele></trkpt>
<trkpt lon="11.68849" lat="47.0397"><ele><![CDATA[2298]]></ele></trkpt>
<trkpt lon="11.68848" lat="47.03967"><ele><![CDATA[2298]]></ele></trkpt>
<trkpt lon="11.68843" lat="47.03963"><ele><![CDATA[2298]]></ele></trkpt>
<trkpt lon="11.68818" lat="47.03953"><ele><![CDATA[2293]]></ele></trkpt>
<trkpt lon="11.68797" lat="47.03941"><ele><![CDATA[2290]]></ele></trkpt>
<trkpt lon="11.68796" lat="47.03937"><ele><![CDATA[2290]]></ele></trkpt>
<trkpt lon="11.68793" lat="47.03934"><ele><![CDATA[2289]]></ele></trkpt>
<trkpt lon="11.68789" lat="47.03931"><ele><![CDATA[2289]]></ele></trkpt>
<trkpt lon="11.68783" lat="47.03932"><ele><![CDATA[2288]]></ele></trkpt>
<trkpt lon="11.6877" lat="47.03925"><ele><![CDATA[2285]]></ele></trkpt>
<trkpt lon="11.6876" lat="47.03918"><ele><![CDATA[2282]]></ele></trkpt>
<trkpt lon="11.68759" lat="47.03916"><ele><![CDATA[2282]]></ele></trkpt>
<trkpt lon="11.6875" lat="47.03911"><ele><![CDATA[2281]]></ele></trkpt>
<trkpt lon="11.68737" lat="47.03905"><ele><![CDATA[2279]]></ele></trkpt>
<trkpt lon="11.68726" lat="47.03902"><ele><![CDATA[2279]]></ele></trkpt>
<trkpt lon="11.68721" lat="47.03902"><ele><![CDATA[2279]]></ele></trkpt>
<trkpt lon="11.68699" lat="47.03896"><ele><![CDATA[2277]]></ele></trkpt>
<trkpt lon="11.68692" lat="47.03896"><ele><![CDATA[2277]]></ele></trkpt>
<trkpt lon="11.68687" lat="47.03897"><ele><![CDATA[2277]]></ele></trkpt>
<trkpt lon="11.68674" lat="47.03897"><ele><![CDATA[2277]]></ele></trkpt>
<trkpt lon="11.68666" lat="47.03894"><ele><![CDATA[2277]]></ele></trkpt>
<trkpt lon="11.68661" lat="47.03893"><ele><![CDATA[2276]]></ele></trkpt>
<trkpt lon="11.68657" lat="47.0389"><ele><![CDATA[2277]]></ele></trkpt>
<trkpt lon="11.68655" lat="47.03886"><ele><![CDATA[2277]]></ele></trkpt>
<trkpt lon="11.68655" lat="47.0388"><ele><![CDATA[2275]]></ele></trkpt>
<trkpt lon="11.68657" lat="47.03875"><ele><![CDATA[2274]]></ele></trkpt>
<trkpt lon="11.68656" lat="47.03872"><ele><![CDATA[2274]]></ele></trkpt>
<trkpt lon="11.68652" lat="47.0387"><ele><![CDATA[2274]]></ele></trkpt>
<trkpt lon="11.6865" lat="47.03868"><ele><![CDATA[2274]]></ele></trkpt>
<trkpt lon="11.68651" lat="47.03866"><ele><![CDATA[2272]]></ele></trkpt>
<trkpt lon="11.68655" lat="47.03864"><ele><![CDATA[2272]]></ele></trkpt>
<trkpt lon="11.68654" lat="47.0386"><ele><![CDATA[2272]]></ele></trkpt>
<trkpt lon="11.68655" lat="47.03856"><ele><![CDATA[2270]]></ele></trkpt>
<trkpt lon="11.68655" lat="47.03851"><ele><![CDATA[2270]]></ele></trkpt>
<trkpt lon="11.68654" lat="47.03848"><ele><![CDATA[2267]]></ele></trkpt>
<trkpt lon="11.68645" lat="47.03843"><ele><![CDATA[2268]]></ele></trkpt>
<trkpt lon="11.68644" lat="47.03839"><ele><![CDATA[2267]]></ele></trkpt>
<trkpt lon="11.68642" lat="47.03835"><ele><![CDATA[2267]]></ele></trkpt>
<trkpt lon="11.68641" lat="47.03833"><ele><![CDATA[2267]]></ele></trkpt>
<trkpt lon="11.68639" lat="47.03829"><ele><![CDATA[2266]]></ele></trkpt>
<trkpt lon="11.68642" lat="47.03824"><ele><![CDATA[2266]]></ele></trkpt>
<trkpt lon="11.68647" lat="47.03819"><ele><![CDATA[2266]]></ele></trkpt>
<trkpt lon="11.68649" lat="47.03815"><ele><![CDATA[2264]]></ele></trkpt>
<trkpt lon="11.68652" lat="47.03808"><ele><![CDATA[2263]]></ele></trkpt>
<trkpt lon="11.68645" lat="47.03798"><ele><![CDATA[2265]]></ele></trkpt>
<trkpt lon="11.6864" lat="47.03796"><ele><![CDATA[2263]]></ele></trkpt>
<trkpt lon="11.68637" lat="47.03793"><ele><![CDATA[2263]]></ele></trkpt>
<trkpt lon="11.68635" lat="47.03789"><ele><![CDATA[2268]]></ele></trkpt>
<trkpt lon="11.68636" lat="47.03783"><ele><![CDATA[2261]]></ele></trkpt>
<trkpt lon="11.68635" lat="47.03774"><ele><![CDATA[2263]]></ele></trkpt>
<trkpt lon="11.68637" lat="47.03769"><ele><![CDATA[2256]]></ele></trkpt>
<trkpt lon="11.68634" lat="47.03762"><ele><![CDATA[2258]]></ele></trkpt>
<trkpt lon="11.68629" lat="47.03758"><ele><![CDATA[2258]]></ele></trkpt>
<trkpt lon="11.68627" lat="47.03753"><ele><![CDATA[2255]]></ele></trkpt>
<trkpt lon="11.68623" lat="47.0375"><ele><![CDATA[2255]]></ele></trkpt>
<trkpt lon="11.68621" lat="47.03746"><ele><![CDATA[2260]]></ele></trkpt>
<trkpt lon="11.68619" lat="47.03741"><ele><![CDATA[2258]]></ele></trkpt>
<trkpt lon="11.68621" lat="47.03735"><ele><![CDATA[2257]]></ele></trkpt>
<trkpt lon="11.68624" lat="47.03725"><ele><![CDATA[2250]]></ele></trkpt>
<trkpt lon="11.68622" lat="47.03716"><ele><![CDATA[2254]]></ele></trkpt>
<trkpt lon="11.68624" lat="47.03713"><ele><![CDATA[2248]]></ele></trkpt>
<trkpt lon="11.68626" lat="47.03713"><ele><![CDATA[2248]]></ele></trkpt>
<trkpt lon="11.68626" lat="47.03716"><ele><![CDATA[2248]]></ele></trkpt>
<trkpt lon="11.68628" lat="47.03716"><ele><![CDATA[2248]]></ele></trkpt>
<trkpt lon="11.68628" lat="47.03712"><ele><![CDATA[2248]]></ele></trkpt>
<trkpt lon="11.68629" lat="47.03709"><ele><![CDATA[2247]]></ele></trkpt>
<trkpt lon="11.68633" lat="47.03712"><ele><![CDATA[2248]]></ele></trkpt>
<trkpt lon="11.68635" lat="47.03715"><ele><![CDATA[2248]]></ele></trkpt>
<trkpt lon="11.68637" lat="47.03718"><ele><![CDATA[2244]]></ele></trkpt>
<trkpt lon="11.68641" lat="47.03717"><ele><![CDATA[2244]]></ele></trkpt>
<trkpt lon="11.68644" lat="47.03712"><ele><![CDATA[2244]]></ele></trkpt>
<trkpt lon="11.68646" lat="47.03708"><ele><![CDATA[2243]]></ele></trkpt>
<trkpt lon="11.68648" lat="47.03708"><ele><![CDATA[2239]]></ele></trkpt>
<trkpt lon="11.6865" lat="47.03713"><ele><![CDATA[2239]]></ele></trkpt>
<trkpt lon="11.68654" lat="47.03712"><ele><![CDATA[2239]]></ele></trkpt>
<trkpt lon="11.68655" lat="47.03705"><ele><![CDATA[2239]]></ele></trkpt>
<trkpt lon="11.68659" lat="47.03705"><ele><![CDATA[2239]]></ele></trkpt>
<trkpt lon="11.6866" lat="47.03709"><ele><![CDATA[2239]]></ele></trkpt>
<trkpt lon="11.68661" lat="47.03714"><ele><![CDATA[2235]]></ele></trkpt>
<trkpt lon="11.68664" lat="47.03715"><ele><![CDATA[2235]]></ele></trkpt>
<trkpt lon="11.68676" lat="47.03696"><ele><![CDATA[2230]]></ele></trkpt>
<trkpt lon="11.68678" lat="47.03688"><ele><![CDATA[2229]]></ele></trkpt>
<trkpt lon="11.68679" lat="47.03683"><ele><![CDATA[2228]]></ele></trkpt>
<trkpt lon="11.68678" lat="47.03679"><ele><![CDATA[2228]]></ele></trkpt>
<trkpt lon="11.6868" lat="47.03671"><ele><![CDATA[2227]]></ele></trkpt>
<trkpt lon="11.68684" lat="47.03666"><ele><![CDATA[2226]]></ele></trkpt>
<trkpt lon="11.68688" lat="47.03659"><ele><![CDATA[2221]]></ele></trkpt>
<trkpt lon="11.68694" lat="47.03658"><ele><![CDATA[2221]]></ele></trkpt>
<trkpt lon="11.68701" lat="47.03657"><ele><![CDATA[2220]]></ele></trkpt>
<trkpt lon="11.68706" lat="47.03655"><ele><![CDATA[2220]]></ele></trkpt>
<trkpt lon="11.68712" lat="47.03653"><ele><![CDATA[2216]]></ele></trkpt>
<trkpt lon="11.68717" lat="47.0365"><ele><![CDATA[2216]]></ele></trkpt>
<trkpt lon="11.68725" lat="47.03645"><ele><![CDATA[2214]]></ele></trkpt>
<trkpt lon="11.68729" lat="47.03636"><ele><![CDATA[2216]]></ele></trkpt>
<trkpt lon="11.68731" lat="47.03636"><ele><![CDATA[2216]]></ele></trkpt>
<trkpt lon="11.68732" lat="47.03643"><ele><![CDATA[2214]]></ele></trkpt>
<trkpt lon="11.68734" lat="47.03645"><ele><![CDATA[2214]]></ele></trkpt>
<trkpt lon="11.68733" lat="47.0365"><ele><![CDATA[2212]]></ele></trkpt>
<trkpt lon="11.68731" lat="47.03653"><ele><![CDATA[2212]]></ele></trkpt>
<trkpt lon="11.68734" lat="47.03653"><ele><![CDATA[2212]]></ele></trkpt>
<trkpt lon="11.68737" lat="47.03649"><ele><![CDATA[2214]]></ele></trkpt>
<trkpt lon="11.68739" lat="47.03644"><ele><![CDATA[2209]]></ele></trkpt>
<trkpt lon="11.68749" lat="47.03635"><ele><![CDATA[2211]]></ele></trkpt>
<trkpt lon="11.68753" lat="47.03632"><ele><![CDATA[2205]]></ele></trkpt>
<trkpt lon="11.68755" lat="47.03632"><ele><![CDATA[2205]]></ele></trkpt>
<trkpt lon="11.68754" lat="47.03637"><ele><![CDATA[2205]]></ele></trkpt>
<trkpt lon="11.68753" lat="47.03641"><ele><![CDATA[2204]]></ele></trkpt>
<trkpt lon="11.68752" lat="47.03645"><ele><![CDATA[2204]]></ele></trkpt>
<trkpt lon="11.68754" lat="47.03651"><ele><![CDATA[2202]]></ele></trkpt>
<trkpt lon="11.68756" lat="47.03654"><ele><![CDATA[2202]]></ele></trkpt>
<trkpt lon="11.68756" lat="47.03658"><ele><![CDATA[2200]]></ele></trkpt>
<trkpt lon="11.68753" lat="47.03662"><ele><![CDATA[2200]]></ele></trkpt>
<trkpt lon="11.6876" lat="47.03661"><ele><![CDATA[2200]]></ele></trkpt>
<trkpt lon="11.6877" lat="47.03653"><ele><![CDATA[2197]]></ele></trkpt>
<trkpt lon="11.68772" lat="47.03653"><ele><![CDATA[2197]]></ele></trkpt>
<trkpt lon="11.68773" lat="47.03656"><ele><![CDATA[2197]]></ele></trkpt>
<trkpt lon="11.68775" lat="47.03658"><ele><![CDATA[2196]]></ele></trkpt>
<trkpt lon="11.68778" lat="47.03653"><ele><![CDATA[2193]]></ele></trkpt>
<trkpt lon="11.68781" lat="47.0365"><ele><![CDATA[2193]]></ele></trkpt>
<trkpt lon="11.68784" lat="47.0365"><ele><![CDATA[2193]]></ele></trkpt>
<trkpt lon="11.68785" lat="47.03655"><ele><![CDATA[2193]]></ele></trkpt>
<trkpt lon="11.6879" lat="47.0366"><ele><![CDATA[2187]]></ele></trkpt>
<trkpt lon="11.6879" lat="47.03663"><ele><![CDATA[2187]]></ele></trkpt>
<trkpt lon="11.68792" lat="47.03664"><ele><![CDATA[2187]]></ele></trkpt>
<trkpt lon="11.68796" lat="47.0366"><ele><![CDATA[2187]]></ele></trkpt>
<trkpt lon="11.68797" lat="47.03662"><ele><![CDATA[2187]]></ele></trkpt>
<trkpt lon="11.68795" lat="47.03666"><ele><![CDATA[2187]]></ele></trkpt>
<trkpt lon="11.68791" lat="47.03672"><ele><![CDATA[2184]]></ele></trkpt>
<trkpt lon="11.68789" lat="47.03676"><ele><![CDATA[2182]]></ele></trkpt>
<trkpt lon="11.68788" lat="47.03679"><ele><![CDATA[2186]]></ele></trkpt>
<trkpt lon="11.68787" lat="47.03681"><ele><![CDATA[2186]]></ele></trkpt>
<trkpt lon="11.68789" lat="47.03682"><ele><![CDATA[2182]]></ele></trkpt>
<trkpt lon="11.68793" lat="47.03681"><ele><![CDATA[2182]]></ele></trkpt>
<trkpt lon="11.68794" lat="47.03679"><ele><![CDATA[2182]]></ele></trkpt>
<trkpt lon="11.68797" lat="47.03677"><ele><![CDATA[2182]]></ele></trkpt>
<trkpt lon="11.688" lat="47.03676"><ele><![CDATA[2182]]></ele></trkpt>
<trkpt lon="11.68811" lat="47.0367"><ele><![CDATA[2180]]></ele></trkpt>
<trkpt lon="11.68822" lat="47.03665"><ele><![CDATA[2177]]></ele></trkpt>
<trkpt lon="11.68823" lat="47.0366"><ele><![CDATA[2177]]></ele></trkpt>
<trkpt lon="11.68826" lat="47.03654"><ele><![CDATA[2178]]></ele></trkpt>
<trkpt lon="11.68833" lat="47.03646"><ele><![CDATA[2173]]></ele></trkpt>
<trkpt lon="11.68843" lat="47.03628"><ele><![CDATA[2167]]></ele></trkpt>
<trkpt lon="11.68852" lat="47.03618"><ele><![CDATA[2169]]></ele></trkpt>
<trkpt lon="11.68855" lat="47.03615"><ele><![CDATA[2163]]></ele></trkpt>
<trkpt lon="11.68857" lat="47.03612"><ele><![CDATA[2165]]></ele></trkpt>
<trkpt lon="11.68861" lat="47.03606"><ele><![CDATA[2165]]></ele></trkpt>
<trkpt lon="11.68878" lat="47.03599"><ele><![CDATA[2159]]></ele></trkpt>
<trkpt lon="11.68888" lat="47.03596"><ele><![CDATA[2163]]></ele></trkpt>
<trkpt lon="11.68891" lat="47.03594"><ele><![CDATA[2158]]></ele></trkpt>
<trkpt lon="11.68908" lat="47.03586"><ele><![CDATA[2156]]></ele></trkpt>
<trkpt lon="11.68911" lat="47.03583"><ele><![CDATA[2156]]></ele></trkpt>
<trkpt lon="11.68919" lat="47.03581"><ele><![CDATA[2151]]></ele></trkpt>
<trkpt lon="11.68915" lat="47.03589"><ele><![CDATA[2152]]></ele></trkpt>
<trkpt lon="11.68913" lat="47.0359"><ele><![CDATA[2152]]></ele></trkpt>
<trkpt lon="11.68915" lat="47.03591"><ele><![CDATA[2152]]></ele></trkpt>
<trkpt lon="11.68929" lat="47.03583"><ele><![CDATA[2145]]></ele></trkpt>
<trkpt lon="11.68929" lat="47.03586"><ele><![CDATA[2145]]></ele></trkpt>
<trkpt lon="11.68925" lat="47.03594"><ele><![CDATA[2147]]></ele></trkpt>
<trkpt lon="11.6893" lat="47.03592"><ele><![CDATA[2142]]></ele></trkpt>
<trkpt lon="11.6894" lat="47.03583"><ele><![CDATA[2145]]></ele></trkpt>
<trkpt lon="11.68942" lat="47.03579"><ele><![CDATA[2141]]></ele></trkpt>
<trkpt lon="11.68946" lat="47.03576"><ele><![CDATA[2141]]></ele></trkpt>
<trkpt lon="11.68949" lat="47.03575"><ele><![CDATA[2141]]></ele></trkpt>
<trkpt lon="11.68949" lat="47.03573"><ele><![CDATA[2141]]></ele></trkpt>
<trkpt lon="11.68951" lat="47.03572"><ele><![CDATA[2141]]></ele></trkpt>
<trkpt lon="11.68953" lat="47.03574"><ele><![CDATA[2141]]></ele></trkpt>
<trkpt lon="11.68954" lat="47.0358"><ele><![CDATA[2138]]></ele></trkpt>
<trkpt lon="11.68953" lat="47.03585"><ele><![CDATA[2138]]></ele></trkpt>
<trkpt lon="11.68961" lat="47.03581"><ele><![CDATA[2132]]></ele></trkpt>
<trkpt lon="11.68964" lat="47.03577"><ele><![CDATA[2134]]></ele></trkpt>
<trkpt lon="11.68966" lat="47.03576"><ele><![CDATA[2134]]></ele></trkpt>
<trkpt lon="11.68968" lat="47.03581"><ele><![CDATA[2125]]></ele></trkpt>
<trkpt lon="11.68968" lat="47.03587"><ele><![CDATA[2125]]></ele></trkpt>
<trkpt lon="11.68969" lat="47.03593"><ele><![CDATA[2123]]></ele></trkpt>
<trkpt lon="11.68973" lat="47.03592"><ele><![CDATA[2123]]></ele></trkpt>
<trkpt lon="11.68975" lat="47.03588"><ele><![CDATA[2125]]></ele></trkpt>
<trkpt lon="11.68978" lat="47.03588"><ele><![CDATA[2125]]></ele></trkpt>
<trkpt lon="11.68978" lat="47.03591"><ele><![CDATA[2123]]></ele></trkpt>
<trkpt lon="11.68976" lat="47.03594"><ele><![CDATA[2123]]></ele></trkpt>
<trkpt lon="11.68975" lat="47.03601"><ele><![CDATA[2121]]></ele></trkpt>
<trkpt lon="11.68972" lat="47.03604"><ele><![CDATA[2121]]></ele></trkpt>
<trkpt lon="11.68971" lat="47.03612"><ele><![CDATA[2119]]></ele></trkpt>
<trkpt lon="11.68975" lat="47.03611"><ele><![CDATA[2119]]></ele></trkpt>
<trkpt lon="11.68979" lat="47.03608"><ele><![CDATA[2119]]></ele></trkpt>
<trkpt lon="11.68983" lat="47.03604"><ele><![CDATA[2115]]></ele></trkpt>
<trkpt lon="11.68986" lat="47.03601"><ele><![CDATA[2115]]></ele></trkpt>
<trkpt lon="11.68988" lat="47.03611"><ele><![CDATA[2114]]></ele></trkpt>
<trkpt lon="11.68997" lat="47.03598"><ele><![CDATA[2110]]></ele></trkpt>
<trkpt lon="11.69006" lat="47.03587"><ele><![CDATA[2106]]></ele></trkpt>
<trkpt lon="11.69008" lat="47.03589"><ele><![CDATA[2105]]></ele></trkpt>
<trkpt lon="11.69007" lat="47.03594"><ele><![CDATA[2105]]></ele></trkpt>
<trkpt lon="11.69009" lat="47.036"><ele><![CDATA[2104]]></ele></trkpt>
<trkpt lon="11.69009" lat="47.03606"><ele><![CDATA[2103]]></ele></trkpt>
<trkpt lon="11.69011" lat="47.03608"><ele><![CDATA[2103]]></ele></trkpt>
<trkpt lon="11.69014" lat="47.03605"><ele><![CDATA[2104]]></ele></trkpt>
<trkpt lon="11.69019" lat="47.03598"><ele><![CDATA[2098]]></ele></trkpt>
<trkpt lon="11.69024" lat="47.03593"><ele><![CDATA[2099]]></ele></trkpt>
<trkpt lon="11.6903" lat="47.03607"><ele><![CDATA[2098]]></ele></trkpt>
<trkpt lon="11.69031" lat="47.0361"><ele><![CDATA[2098]]></ele></trkpt>
<trkpt lon="11.69034" lat="47.03607"><ele><![CDATA[2092]]></ele></trkpt>
<trkpt lon="11.69039" lat="47.03616"><ele><![CDATA[2091]]></ele></trkpt>
<trkpt lon="11.69038" lat="47.03622"><ele><![CDATA[2091]]></ele></trkpt>
<trkpt lon="11.69042" lat="47.03622"><ele><![CDATA[2091]]></ele></trkpt>
<trkpt lon="11.69047" lat="47.03619"><ele><![CDATA[2085]]></ele></trkpt>
<trkpt lon="11.69051" lat="47.03613"><ele><![CDATA[2086]]></ele></trkpt>
<trkpt lon="11.69055" lat="47.03606"><ele><![CDATA[2086]]></ele></trkpt>
<trkpt lon="11.69061" lat="47.03597"><ele><![CDATA[2082]]></ele></trkpt>
<trkpt lon="11.69062" lat="47.03592"><ele><![CDATA[2082]]></ele></trkpt>
<trkpt lon="11.69065" lat="47.03588"><ele><![CDATA[2082]]></ele></trkpt>
<trkpt lon="11.6907" lat="47.03577"><ele><![CDATA[2076]]></ele></trkpt>
<trkpt lon="11.69076" lat="47.03572"><ele><![CDATA[2076]]></ele></trkpt>
<trkpt lon="11.69079" lat="47.03565"><ele><![CDATA[2077]]></ele></trkpt>
<trkpt lon="11.69084" lat="47.03557"><ele><![CDATA[2072]]></ele></trkpt>
<trkpt lon="11.69093" lat="47.0355"><ele><![CDATA[2073]]></ele></trkpt>
<trkpt lon="11.69096" lat="47.03543"><ele><![CDATA[2069]]></ele></trkpt>
<trkpt lon="11.691" lat="47.03539"><ele><![CDATA[2069]]></ele></trkpt>
<trkpt lon="11.69108" lat="47.03534"><ele><![CDATA[2065]]></ele></trkpt>
<trkpt lon="11.69115" lat="47.03529"><ele><![CDATA[2065]]></ele></trkpt>
<trkpt lon="11.6912" lat="47.03522"><ele><![CDATA[2066]]></ele></trkpt>
<trkpt lon="11.69126" lat="47.03517"><ele><![CDATA[2063]]></ele></trkpt>
<trkpt lon="11.69129" lat="47.03516"><ele><![CDATA[2063]]></ele></trkpt>
<trkpt lon="11.69137" lat="47.03511"><ele><![CDATA[2058]]></ele></trkpt>
<trkpt lon="11.69141" lat="47.0351"><ele><![CDATA[2061]]></ele></trkpt>
<trkpt lon="11.69141" lat="47.03509"><ele><![CDATA[2061]]></ele></trkpt>
<trkpt lon="11.69156" lat="47.03503"><ele><![CDATA[2055]]></ele></trkpt>
<trkpt lon="11.69162" lat="47.03498"><ele><![CDATA[2053]]></ele></trkpt>
<trkpt lon="11.69171" lat="47.03493"><ele><![CDATA[2053]]></ele></trkpt>
<trkpt lon="11.69176" lat="47.03483"><ele><![CDATA[2050]]></ele></trkpt>
<trkpt lon="11.69178" lat="47.03481"><ele><![CDATA[2050]]></ele></trkpt>
<trkpt lon="11.69195" lat="47.03477"><ele><![CDATA[2045]]></ele></trkpt>
<trkpt lon="11.69201" lat="47.03471"><ele><![CDATA[2043]]></ele></trkpt>
<trkpt lon="11.69213" lat="47.03469"><ele><![CDATA[2039]]></ele></trkpt>
<trkpt lon="11.69214" lat="47.03471"><ele><![CDATA[2039]]></ele></trkpt>
<trkpt lon="11.69211" lat="47.03474"><ele><![CDATA[2039]]></ele></trkpt>
<trkpt lon="11.69211" lat="47.03476"><ele><![CDATA[2036]]></ele></trkpt>
<trkpt lon="11.69211" lat="47.03479"><ele><![CDATA[2036]]></ele></trkpt>
<trkpt lon="11.69216" lat="47.03483"><ele><![CDATA[2036]]></ele></trkpt>
<trkpt lon="11.69218" lat="47.03484"><ele><![CDATA[2035]]></ele></trkpt>
<trkpt lon="11.69219" lat="47.03482"><ele><![CDATA[2036]]></ele></trkpt>
<trkpt lon="11.6922" lat="47.03479"><ele><![CDATA[2036]]></ele></trkpt>
<trkpt lon="11.69223" lat="47.03479"><ele><![CDATA[2032]]></ele></trkpt>
<trkpt lon="11.69225" lat="47.03481"><ele><![CDATA[2032]]></ele></trkpt>
<trkpt lon="11.69227" lat="47.03483"><ele><![CDATA[2032]]></ele></trkpt>
<trkpt lon="11.69229" lat="47.03483"><ele><![CDATA[2032]]></ele></trkpt>
<trkpt lon="11.69233" lat="47.03483"><ele><![CDATA[2032]]></ele></trkpt>
<trkpt lon="11.69238" lat="47.03482"><ele><![CDATA[2028]]></ele></trkpt>
<trkpt lon="11.6924" lat="47.03484"><ele><![CDATA[2027]]></ele></trkpt>
<trkpt lon="11.69243" lat="47.03481"><ele><![CDATA[2028]]></ele></trkpt>
<trkpt lon="11.69246" lat="47.03482"><ele><![CDATA[2028]]></ele></trkpt>
<trkpt lon="11.69249" lat="47.03486"><ele><![CDATA[2023]]></ele></trkpt>
<trkpt lon="11.6925" lat="47.03482"><ele><![CDATA[2025]]></ele></trkpt>
<trkpt lon="11.69255" lat="47.03488"><ele><![CDATA[2023]]></ele></trkpt>
<trkpt lon="11.69261" lat="47.03485"><ele><![CDATA[2020]]></ele></trkpt>
<trkpt lon="11.69269" lat="47.0349"><ele><![CDATA[2020]]></ele></trkpt>
<trkpt lon="11.69273" lat="47.03489"><ele><![CDATA[2020]]></ele></trkpt>
<trkpt lon="11.69283" lat="47.03492"><ele><![CDATA[2018]]></ele></trkpt>
<trkpt lon="11.6929" lat="47.03489"><ele><![CDATA[2014]]></ele></trkpt>
<trkpt lon="11.69294" lat="47.03486"><ele><![CDATA[2014]]></ele></trkpt>
<trkpt lon="11.69304" lat="47.03489"><ele><![CDATA[2011]]></ele></trkpt>
<trkpt lon="11.69315" lat="47.03486"><ele><![CDATA[2008]]></ele></trkpt>
<trkpt lon="11.69318" lat="47.03487"><ele><![CDATA[2008]]></ele></trkpt>
<trkpt lon="11.69317" lat="47.03491"><ele><![CDATA[2008]]></ele></trkpt>
<trkpt lon="11.69323" lat="47.03489"><ele><![CDATA[2008]]></ele></trkpt>
<trkpt lon="11.69326" lat="47.03494"><ele><![CDATA[2002]]></ele></trkpt>
<trkpt lon="11.69331" lat="47.0349"><ele><![CDATA[2004]]></ele></trkpt>
<trkpt lon="11.69341" lat="47.03497"><ele><![CDATA[1998]]></ele></trkpt>
<trkpt lon="11.69344" lat="47.03493"><ele><![CDATA[1998]]></ele></trkpt>
<trkpt lon="11.69349" lat="47.035"><ele><![CDATA[1998]]></ele></trkpt>
<trkpt lon="11.69363" lat="47.03488"><ele><![CDATA[1994]]></ele></trkpt>
<trkpt lon="11.69366" lat="47.03492"><ele><![CDATA[1990]]></ele></trkpt>
<trkpt lon="11.69372" lat="47.03491"><ele><![CDATA[1990]]></ele></trkpt>
<trkpt lon="11.6938" lat="47.03498"><ele><![CDATA[1987]]></ele></trkpt>
<trkpt lon="11.69383" lat="47.03488"><ele><![CDATA[1987]]></ele></trkpt>
<trkpt lon="11.69389" lat="47.03485"><ele><![CDATA[1983]]></ele></trkpt>
<trkpt lon="11.6939" lat="47.03481"><ele><![CDATA[1982]]></ele></trkpt>
<trkpt lon="11.69394" lat="47.0348"><ele><![CDATA[1982]]></ele></trkpt>
<trkpt lon="11.69404" lat="47.03473"><ele><![CDATA[1978]]></ele></trkpt>
<trkpt lon="11.69401" lat="47.0347"><ele><![CDATA[1982]]></ele></trkpt>
<trkpt lon="11.69405" lat="47.03468"><ele><![CDATA[1978]]></ele></trkpt>
<trkpt lon="11.69419" lat="47.03476"><ele><![CDATA[1974]]></ele></trkpt>
<trkpt lon="11.69431" lat="47.03497"><ele><![CDATA[1969]]></ele></trkpt>
<trkpt lon="11.69437" lat="47.03489"><ele><![CDATA[1969]]></ele></trkpt>
<trkpt lon="11.69445" lat="47.03496"><ele><![CDATA[1965]]></ele></trkpt>
<trkpt lon="11.6945" lat="47.03487"><ele><![CDATA[1965]]></ele></trkpt>
<trkpt lon="11.69455" lat="47.03489"><ele><![CDATA[1961]]></ele></trkpt>
<trkpt lon="11.69457" lat="47.03484"><ele><![CDATA[1961]]></ele></trkpt>
<trkpt lon="11.69464" lat="47.0348"><ele><![CDATA[1961]]></ele></trkpt>
<trkpt lon="11.69468" lat="47.03477"><ele><![CDATA[1959]]></ele></trkpt>
<trkpt lon="11.6948" lat="47.03477"><ele><![CDATA[1955]]></ele></trkpt>
<trkpt lon="11.6948" lat="47.03481"><ele><![CDATA[1955]]></ele></trkpt>
<trkpt lon="11.69487" lat="47.0348"><ele><![CDATA[1955]]></ele></trkpt>
<trkpt lon="11.69494" lat="47.03492"><ele><![CDATA[1949]]></ele></trkpt>
<trkpt lon="11.69499" lat="47.03488"><ele><![CDATA[1949]]></ele></trkpt>
<trkpt lon="11.69501" lat="47.03493"><ele><![CDATA[1949]]></ele></trkpt>
<trkpt lon="11.695" lat="47.03499"><ele><![CDATA[1949]]></ele></trkpt>
<trkpt lon="11.69503" lat="47.03502"><ele><![CDATA[1950]]></ele></trkpt>
<trkpt lon="11.69507" lat="47.03498"><ele><![CDATA[1943]]></ele></trkpt>
<trkpt lon="11.69511" lat="47.03498"><ele><![CDATA[1943]]></ele></trkpt>
<trkpt lon="11.69516" lat="47.03491"><ele><![CDATA[1943]]></ele></trkpt>
<trkpt lon="11.69524" lat="47.03488"><ele><![CDATA[1937]]></ele></trkpt>
<trkpt lon="11.69522" lat="47.0348"><ele><![CDATA[1937]]></ele></trkpt>
<trkpt lon="11.69526" lat="47.0347"><ele><![CDATA[1936]]></ele></trkpt>
<trkpt lon="11.69525" lat="47.03465"><ele><![CDATA[1935]]></ele></trkpt>
<trkpt lon="11.69528" lat="47.03463"><ele><![CDATA[1935]]></ele></trkpt>
<trkpt lon="11.69532" lat="47.03466"><ele><![CDATA[1928]]></ele></trkpt>
<trkpt lon="11.69532" lat="47.03469"><ele><![CDATA[1929]]></ele></trkpt>
<trkpt lon="11.69539" lat="47.03474"><ele><![CDATA[1929]]></ele></trkpt>
<trkpt lon="11.69541" lat="47.03473"><ele><![CDATA[1929]]></ele></trkpt>
<trkpt lon="11.69538" lat="47.03468"><ele><![CDATA[1929]]></ele></trkpt>
<trkpt lon="11.69542" lat="47.03452"><ele><![CDATA[1921]]></ele></trkpt>
<trkpt lon="11.69545" lat="47.03445"><ele><![CDATA[1920]]></ele></trkpt>
<trkpt lon="11.69547" lat="47.03432"><ele><![CDATA[1918]]></ele></trkpt>
<trkpt lon="11.69558" lat="47.03444"><ele><![CDATA[1914]]></ele></trkpt>
<trkpt lon="11.69559" lat="47.03428"><ele><![CDATA[1910]]></ele></trkpt>
<trkpt lon="11.69561" lat="47.03413"><ele><![CDATA[1907]]></ele></trkpt>
<trkpt lon="11.69559" lat="47.03402"><ele><![CDATA[1906]]></ele></trkpt>
<trkpt lon="11.69564" lat="47.03404"><ele><![CDATA[1906]]></ele></trkpt>
<trkpt lon="11.69572" lat="47.03418"><ele><![CDATA[1903]]></ele></trkpt>
<trkpt lon="11.69577" lat="47.03402"><ele><![CDATA[1899]]></ele></trkpt>
<trkpt lon="11.69586" lat="47.0341"><ele><![CDATA[1895]]></ele></trkpt>
<trkpt lon="11.69586" lat="47.034"><ele><![CDATA[1894]]></ele></trkpt>
<trkpt lon="11.69593" lat="47.03408"><ele><![CDATA[1895]]></ele></trkpt>
<trkpt lon="11.69596" lat="47.03401"><ele><![CDATA[1889]]></ele></trkpt>
<trkpt lon="11.69594" lat="47.03382"><ele><![CDATA[1884]]></ele></trkpt>
<trkpt lon="11.69599" lat="47.03384"><ele><![CDATA[1884]]></ele></trkpt>
<trkpt lon="11.69596" lat="47.03379"><ele><![CDATA[1882]]></ele></trkpt>
<trkpt lon="11.69597" lat="47.03369"><ele><![CDATA[1879]]></ele></trkpt>
<trkpt lon="11.69599" lat="47.03366"><ele><![CDATA[1879]]></ele></trkpt>
<trkpt lon="11.69608" lat="47.03376"><ele><![CDATA[1876]]></ele></trkpt>
<trkpt lon="11.6961" lat="47.03373"><ele><![CDATA[1876]]></ele></trkpt>
<trkpt lon="11.69609" lat="47.03361"><ele><![CDATA[1871]]></ele></trkpt>
<trkpt lon="11.69617" lat="47.03366"><ele><![CDATA[1873]]></ele></trkpt>
<trkpt lon="11.69622" lat="47.03354"><ele><![CDATA[1866]]></ele></trkpt>
<trkpt lon="11.69631" lat="47.03357"><ele><![CDATA[1866]]></ele></trkpt>
<trkpt lon="11.69633" lat="47.03342"><ele><![CDATA[1858]]></ele></trkpt>
<trkpt lon="11.69646" lat="47.03353"><ele><![CDATA[1854]]></ele></trkpt>
<trkpt lon="11.69649" lat="47.03341"><ele><![CDATA[1852]]></ele></trkpt>
<trkpt lon="11.69662" lat="47.0335"><ele><![CDATA[1848]]></ele></trkpt>
<trkpt lon="11.6967" lat="47.03358"><ele><![CDATA[1845]]></ele></trkpt>
<trkpt lon="11.69673" lat="47.03346"><ele><![CDATA[1844]]></ele></trkpt>
<trkpt lon="11.69672" lat="47.03336"><ele><![CDATA[1842]]></ele></trkpt>
<trkpt lon="11.69678" lat="47.03337"><ele><![CDATA[1842]]></ele></trkpt>
<trkpt lon="11.69695" lat="47.03351"><ele><![CDATA[1839]]></ele></trkpt>
<trkpt lon="11.697" lat="47.03332"><ele><![CDATA[1831]]></ele></trkpt>
<trkpt lon="11.69697" lat="47.03302"><ele><![CDATA[1826]]></ele></trkpt>
<trkpt lon="11.69672" lat="47.03236"><ele><![CDATA[1812]]></ele></trkpt>
<trkpt lon="11.69664" lat="47.03208"><ele><![CDATA[1807]]></ele></trkpt>
<trkpt lon="11.69664" lat="47.03194"><ele><![CDATA[1802]]></ele></trkpt>
<trkpt lon="11.69668" lat="47.03194"><ele><![CDATA[1802]]></ele></trkpt>
<trkpt lon="11.69684" lat="47.03204"><ele><![CDATA[1796]]></ele></trkpt>
<trkpt lon="11.69689" lat="47.03203"><ele><![CDATA[1796]]></ele></trkpt>
<trkpt lon="11.697" lat="47.03205"><ele><![CDATA[1793]]></ele></trkpt>
<trkpt lon="11.6971" lat="47.03205"><ele><![CDATA[1789]]></ele></trkpt>
<trkpt lon="11.69713" lat="47.03205"><ele><![CDATA[1789]]></ele></trkpt>
<trkpt lon="11.69718" lat="47.03202"><ele><![CDATA[1789]]></ele></trkpt>
<trkpt lon="11.69726" lat="47.03203"><ele><![CDATA[1786]]></ele></trkpt>
<trkpt lon="11.69734" lat="47.03203"><ele><![CDATA[1785]]></ele></trkpt>
</trkseg>
</trk>
</gpx>
