<?xml version="1.0" encoding="utf-8"?>
		<gpx xmlns="http://www.topografix.com/GPX/1/1" xmlns:xsd="http://www.w3.org/2001/XMLSchema" xmlns:xsi="http://www.w3.org/2001/XMLSchema-instance" version="1.1" creator="Fugawi 4,5,14,1696 http://www.fugawi.com/" xsi:schemaLocation="http://www.topografix.com/GPX/1/1 http://www.topografix.com/GPX/1/1/gpx.xsd">
			<trk>
				<name>Ehrwald-Seebensee-Coburger Hütte</name>
				<desc></desc>
				<trkseg>
					<trkpt lat="47.38766" lon="10.93879"><ele>1111</ele></trkpt>
<trkpt lat="47.38765" lon="10.93879"><ele>1111</ele></trkpt>
<trkpt lat="47.38753" lon="10.93888"><ele>1111</ele></trkpt>
<trkpt lat="47.38748" lon="10.93889"><ele>1111</ele></trkpt>
<trkpt lat="47.38743" lon="10.93891"><ele>1113</ele></trkpt>
<trkpt lat="47.38732" lon="10.93897"><ele>1113</ele></trkpt>
<trkpt lat="47.38725" lon="10.93896"><ele>1113</ele></trkpt>
<trkpt lat="47.38721" lon="10.93896"><ele>1113</ele></trkpt>
<trkpt lat="47.38717" lon="10.93891"><ele>1113</ele></trkpt>
<trkpt lat="47.38717" lon="10.93891"><ele>1113</ele></trkpt>
<trkpt lat="47.38685" lon="10.93881"><ele>1113</ele></trkpt>
<trkpt lat="47.38674" lon="10.93882"><ele>1113</ele></trkpt>
<trkpt lat="47.38627" lon="10.93905"><ele>1113</ele></trkpt>
<trkpt lat="47.38609" lon="10.9391"><ele>1113</ele></trkpt>
<trkpt lat="47.38604" lon="10.93913"><ele>1113</ele></trkpt>
<trkpt lat="47.38583" lon="10.93936"><ele>1113</ele></trkpt>
<trkpt lat="47.3858" lon="10.93941"><ele>1113</ele></trkpt>
<trkpt lat="47.38576" lon="10.93945"><ele>1113</ele></trkpt>
<trkpt lat="47.38574" lon="10.93943"><ele>1113</ele></trkpt>
<trkpt lat="47.38572" lon="10.93942"><ele>1113</ele></trkpt>
<trkpt lat="47.38558" lon="10.93941"><ele>1114</ele></trkpt>
<trkpt lat="47.38527" lon="10.93952"><ele>1114</ele></trkpt>
<trkpt lat="47.38436" lon="10.93976"><ele>1114</ele></trkpt>
<trkpt lat="47.3843" lon="10.93972"><ele>1114</ele></trkpt>
<trkpt lat="47.38418" lon="10.93965"><ele>1118</ele></trkpt>
<trkpt lat="47.38415" lon="10.93964"><ele>1118</ele></trkpt>
<trkpt lat="47.38394" lon="10.93961"><ele>1118</ele></trkpt>
<trkpt lat="47.38384" lon="10.93964"><ele>1118</ele></trkpt>
<trkpt lat="47.3837" lon="10.93977"><ele>1121</ele></trkpt>
<trkpt lat="47.3836" lon="10.93998"><ele>1121</ele></trkpt>
<trkpt lat="47.38358" lon="10.94016"><ele>1121</ele></trkpt>
<trkpt lat="47.38349" lon="10.94027"><ele>1121</ele></trkpt>
<trkpt lat="47.38349" lon="10.94027"><ele>1125</ele></trkpt>
<trkpt lat="47.38336" lon="10.94025"><ele>1125</ele></trkpt>
<trkpt lat="47.3832" lon="10.94027"><ele>1125</ele></trkpt>
<trkpt lat="47.38311" lon="10.94037"><ele>1125</ele></trkpt>
<trkpt lat="47.38305" lon="10.9404"><ele>1136</ele></trkpt>
<trkpt lat="47.38301" lon="10.94038"><ele>1136</ele></trkpt>
<trkpt lat="47.38301" lon="10.94033"><ele>1136</ele></trkpt>
<trkpt lat="47.38305" lon="10.94027"><ele>1136</ele></trkpt>
<trkpt lat="47.38313" lon="10.94007"><ele>1139</ele></trkpt>
<trkpt lat="47.38317" lon="10.93999"><ele>1139</ele></trkpt>
<trkpt lat="47.38319" lon="10.9399"><ele>1139</ele></trkpt>
<trkpt lat="47.38318" lon="10.93976"><ele>1139</ele></trkpt>
<trkpt lat="47.38307" lon="10.93965"><ele>1149</ele></trkpt>
<trkpt lat="47.38307" lon="10.93965"><ele>1149</ele></trkpt>
<trkpt lat="47.38306" lon="10.93945"><ele>1149</ele></trkpt>
<trkpt lat="47.38308" lon="10.93929"><ele>1149</ele></trkpt>
<trkpt lat="47.38328" lon="10.93892"><ele>1152</ele></trkpt>
<trkpt lat="47.38333" lon="10.93881"><ele>1152</ele></trkpt>
<trkpt lat="47.38347" lon="10.93865"><ele>1152</ele></trkpt>
<trkpt lat="47.38352" lon="10.93848"><ele>1152</ele></trkpt>
<trkpt lat="47.38364" lon="10.93827"><ele>1152</ele></trkpt>
<trkpt lat="47.38364" lon="10.93827"><ele>1152</ele></trkpt>
<trkpt lat="47.38364" lon="10.93827"><ele>1152</ele></trkpt>
<trkpt lat="47.38364" lon="10.93827"><ele>1152</ele></trkpt>
<trkpt lat="47.38368" lon="10.9382"><ele>1153</ele></trkpt>
<trkpt lat="47.38374" lon="10.93806"><ele>1153</ele></trkpt>
<trkpt lat="47.38378" lon="10.93792"><ele>1153</ele></trkpt>
<trkpt lat="47.38381" lon="10.93763"><ele>1153</ele></trkpt>
<trkpt lat="47.38386" lon="10.93743"><ele>1153</ele></trkpt>
<trkpt lat="47.38397" lon="10.93722"><ele>1153</ele></trkpt>
<trkpt lat="47.38394" lon="10.93696"><ele>1153</ele></trkpt>
<trkpt lat="47.38393" lon="10.93647"><ele>1153</ele></trkpt>
<trkpt lat="47.38379" lon="10.93591"><ele>1172</ele></trkpt>
<trkpt lat="47.3837" lon="10.93575"><ele>1172</ele></trkpt>
<trkpt lat="47.38368" lon="10.93566"><ele>1172</ele></trkpt>
<trkpt lat="47.38351" lon="10.93564"><ele>1172</ele></trkpt>
<trkpt lat="47.38342" lon="10.93545"><ele>1185</ele></trkpt>
<trkpt lat="47.38339" lon="10.93517"><ele>1185</ele></trkpt>
<trkpt lat="47.38336" lon="10.93472"><ele>1185</ele></trkpt>
<trkpt lat="47.38331" lon="10.93446"><ele>1185</ele></trkpt>
<trkpt lat="47.38333" lon="10.93432"><ele>1181</ele></trkpt>
<trkpt lat="47.38333" lon="10.93408"><ele>1181</ele></trkpt>
<trkpt lat="47.38333" lon="10.93408"><ele>1181</ele></trkpt>
<trkpt lat="47.3833" lon="10.93391"><ele>1181</ele></trkpt>
<trkpt lat="47.38314" lon="10.93369"><ele>1186</ele></trkpt>
<trkpt lat="47.38275" lon="10.93357"><ele>1186</ele></trkpt>
<trkpt lat="47.3825" lon="10.93353"><ele>1186</ele></trkpt>
<trkpt lat="47.38216" lon="10.9335"><ele>1186</ele></trkpt>
<trkpt lat="47.38209" lon="10.93335"><ele>1222</ele></trkpt>
<trkpt lat="47.38217" lon="10.93309"><ele>1222</ele></trkpt>
<trkpt lat="47.38204" lon="10.93296"><ele>1222</ele></trkpt>
<trkpt lat="47.38201" lon="10.93322"><ele>1222</ele></trkpt>
<trkpt lat="47.38186" lon="10.93336"><ele>1234</ele></trkpt>
<trkpt lat="47.38173" lon="10.93343"><ele>1234</ele></trkpt>
<trkpt lat="47.38147" lon="10.93348"><ele>1234</ele></trkpt>
<trkpt lat="47.38135" lon="10.93351"><ele>1234</ele></trkpt>
<trkpt lat="47.38133" lon="10.9337"><ele>1261</ele></trkpt>
<trkpt lat="47.38102" lon="10.93435"><ele>1261</ele></trkpt>
<trkpt lat="47.38089" lon="10.93433"><ele>1261</ele></trkpt>
<trkpt lat="47.3807" lon="10.93457"><ele>1261</ele></trkpt>
<trkpt lat="47.38063" lon="10.93459"><ele>1280</ele></trkpt>
<trkpt lat="47.3804" lon="10.9348"><ele>1280</ele></trkpt>
<trkpt lat="47.38039" lon="10.93489"><ele>1280</ele></trkpt>
<trkpt lat="47.38024" lon="10.93517"><ele>1280</ele></trkpt>
<trkpt lat="47.38014" lon="10.93521"><ele>1303</ele></trkpt>
<trkpt lat="47.37985" lon="10.93525"><ele>1303</ele></trkpt>
<trkpt lat="47.37976" lon="10.93536"><ele>1303</ele></trkpt>
<trkpt lat="47.37961" lon="10.93525"><ele>1303</ele></trkpt>
<trkpt lat="47.37957" lon="10.93549"><ele>1323</ele></trkpt>
<trkpt lat="47.37922" lon="10.9357"><ele>1323</ele></trkpt>
<trkpt lat="47.37911" lon="10.9356"><ele>1323</ele></trkpt>
<trkpt lat="47.37914" lon="10.9354"><ele>1323</ele></trkpt>
<trkpt lat="47.37899" lon="10.93527"><ele>1348</ele></trkpt>
<trkpt lat="47.37891" lon="10.93527"><ele>1348</ele></trkpt>
<trkpt lat="47.37868" lon="10.93534"><ele>1348</ele></trkpt>
<trkpt lat="47.3786" lon="10.93511"><ele>1348</ele></trkpt>
<trkpt lat="47.37852" lon="10.93489"><ele>1376</ele></trkpt>
<trkpt lat="47.37852" lon="10.93474"><ele>1376</ele></trkpt>
<trkpt lat="47.37842" lon="10.93471"><ele>1376</ele></trkpt>
<trkpt lat="47.37826" lon="10.93493"><ele>1376</ele></trkpt>
<trkpt lat="47.37812" lon="10.93499"><ele>1402</ele></trkpt>
<trkpt lat="47.37806" lon="10.93497"><ele>1402</ele></trkpt>
<trkpt lat="47.37802" lon="10.93491"><ele>1402</ele></trkpt>
<trkpt lat="47.37791" lon="10.93491"><ele>1402</ele></trkpt>
<trkpt lat="47.37783" lon="10.93501"><ele>1421</ele></trkpt>
<trkpt lat="47.37781" lon="10.93496"><ele>1421</ele></trkpt>
<trkpt lat="47.37773" lon="10.93507"><ele>1421</ele></trkpt>
<trkpt lat="47.37772" lon="10.93502"><ele>1421</ele></trkpt>
<trkpt lat="47.37767" lon="10.93502"><ele>1442</ele></trkpt>
<trkpt lat="47.37759" lon="10.93491"><ele>1442</ele></trkpt>
<trkpt lat="47.37754" lon="10.93491"><ele>1442</ele></trkpt>
<trkpt lat="47.37748" lon="10.935"><ele>1442</ele></trkpt>
<trkpt lat="47.37738" lon="10.93504"><ele>1467</ele></trkpt>
<trkpt lat="47.37735" lon="10.93502"><ele>1467</ele></trkpt>
<trkpt lat="47.37732" lon="10.93506"><ele>1467</ele></trkpt>
<trkpt lat="47.37724" lon="10.93503"><ele>1467</ele></trkpt>
<trkpt lat="47.37726" lon="10.93519"><ele>1475</ele></trkpt>
<trkpt lat="47.37731" lon="10.93529"><ele>1475</ele></trkpt>
<trkpt lat="47.37731" lon="10.93529"><ele>1475</ele></trkpt>
<trkpt lat="47.37728" lon="10.93534"><ele>1475</ele></trkpt>
<trkpt lat="47.37721" lon="10.93531"><ele>1472</ele></trkpt>
<trkpt lat="47.37712" lon="10.93536"><ele>1472</ele></trkpt>
<trkpt lat="47.37709" lon="10.93528"><ele>1472</ele></trkpt>
<trkpt lat="47.37709" lon="10.9351"><ele>1472</ele></trkpt>
<trkpt lat="47.37707" lon="10.9349"><ele>1506</ele></trkpt>
<trkpt lat="47.37699" lon="10.93488"><ele>1506</ele></trkpt>
<trkpt lat="47.37687" lon="10.93507"><ele>1506</ele></trkpt>
<trkpt lat="47.37679" lon="10.93524"><ele>1506</ele></trkpt>
<trkpt lat="47.37673" lon="10.93537"><ele>1536</ele></trkpt>
<trkpt lat="47.37665" lon="10.93534"><ele>1536</ele></trkpt>
<trkpt lat="47.37651" lon="10.9353"><ele>1536</ele></trkpt>
<trkpt lat="47.37643" lon="10.93522"><ele>1536</ele></trkpt>
<trkpt lat="47.37641" lon="10.93512"><ele>1573</ele></trkpt>
<trkpt lat="47.37626" lon="10.93517"><ele>1573</ele></trkpt>
<trkpt lat="47.37622" lon="10.9352"><ele>1573</ele></trkpt>
<trkpt lat="47.37607" lon="10.93509"><ele>1573</ele></trkpt>
<trkpt lat="47.37602" lon="10.9352"><ele>1589</ele></trkpt>
<trkpt lat="47.37596" lon="10.93527"><ele>1589</ele></trkpt>
<trkpt lat="47.37594" lon="10.93518"><ele>1589</ele></trkpt>
<trkpt lat="47.37591" lon="10.93521"><ele>1589</ele></trkpt>
<trkpt lat="47.37584" lon="10.9351"><ele>1610</ele></trkpt>
<trkpt lat="47.37582" lon="10.93515"><ele>1610</ele></trkpt>
<trkpt lat="47.3758" lon="10.93507"><ele>1610</ele></trkpt>
<trkpt lat="47.37577" lon="10.93508"><ele>1610</ele></trkpt>
<trkpt lat="47.37577" lon="10.93503"><ele>1618</ele></trkpt>
<trkpt lat="47.37574" lon="10.935"><ele>1618</ele></trkpt>
<trkpt lat="47.37568" lon="10.93509"><ele>1618</ele></trkpt>
<trkpt lat="47.37566" lon="10.93501"><ele>1618</ele></trkpt>
<trkpt lat="47.37562" lon="10.93501"><ele>1645</ele></trkpt>
<trkpt lat="47.37561" lon="10.93519"><ele>1645</ele></trkpt>
<trkpt lat="47.37556" lon="10.9353"><ele>1645</ele></trkpt>
<trkpt lat="47.37553" lon="10.93539"><ele>1645</ele></trkpt>
<trkpt lat="47.37551" lon="10.93531"><ele>1641</ele></trkpt>
<trkpt lat="47.37548" lon="10.93537"><ele>1641</ele></trkpt>
<trkpt lat="47.37546" lon="10.93532"><ele>1641</ele></trkpt>
<trkpt lat="47.37546" lon="10.93526"><ele>1641</ele></trkpt>
<trkpt lat="47.37537" lon="10.93515"><ele>1658</ele></trkpt>
<trkpt lat="47.3753" lon="10.93526"><ele>1658</ele></trkpt>
<trkpt lat="47.3753" lon="10.93541"><ele>1658</ele></trkpt>
<trkpt lat="47.37533" lon="10.93556"><ele>1658</ele></trkpt>
<trkpt lat="47.37532" lon="10.93569"><ele>1659</ele></trkpt>
<trkpt lat="47.3753" lon="10.93566"><ele>1659</ele></trkpt>
<trkpt lat="47.37528" lon="10.9357"><ele>1659</ele></trkpt>
<trkpt lat="47.37524" lon="10.93572"><ele>1659</ele></trkpt>
<trkpt lat="47.37521" lon="10.93579"><ele>1665</ele></trkpt>
<trkpt lat="47.37514" lon="10.9357"><ele>1665</ele></trkpt>
<trkpt lat="47.37506" lon="10.93568"><ele>1665</ele></trkpt>
<trkpt lat="47.37496" lon="10.93573"><ele>1665</ele></trkpt>
<trkpt lat="47.37474" lon="10.93578"><ele>1677</ele></trkpt>
<trkpt lat="47.37465" lon="10.93578"><ele>1677</ele></trkpt>
<trkpt lat="47.37458" lon="10.9357"><ele>1677</ele></trkpt>
<trkpt lat="47.37446" lon="10.93568"><ele>1677</ele></trkpt>
<trkpt lat="47.37428" lon="10.93562"><ele>1685</ele></trkpt>
<trkpt lat="47.37426" lon="10.93562"><ele>1685</ele></trkpt>
<trkpt lat="47.37426" lon="10.93562"><ele>1685</ele></trkpt>
<trkpt lat="47.37426" lon="10.93562"><ele>1685</ele></trkpt>
<trkpt lat="47.37426" lon="10.93562"><ele>1684</ele></trkpt>
<trkpt lat="47.37417" lon="10.93564"><ele>1684</ele></trkpt>
<trkpt lat="47.37401" lon="10.93558"><ele>1684</ele></trkpt>
<trkpt lat="47.37383" lon="10.93556"><ele>1684</ele></trkpt>
<trkpt lat="47.37369" lon="10.93561"><ele>1682</ele></trkpt>
<trkpt lat="47.37365" lon="10.93566"><ele>1682</ele></trkpt>
<trkpt lat="47.37361" lon="10.93595"><ele>1682</ele></trkpt>
<trkpt lat="47.37359" lon="10.93599"><ele>1682</ele></trkpt>
<trkpt lat="47.37352" lon="10.93601"><ele>1682</ele></trkpt>
<trkpt lat="47.37339" lon="10.93597"><ele>1682</ele></trkpt>
<trkpt lat="47.37335" lon="10.93598"><ele>1682</ele></trkpt>
<trkpt lat="47.37332" lon="10.93603"><ele>1682</ele></trkpt>
<trkpt lat="47.37328" lon="10.93605"><ele>1677</ele></trkpt>
<trkpt lat="47.37322" lon="10.93605"><ele>1677</ele></trkpt>
<trkpt lat="47.3729" lon="10.93588"><ele>1677</ele></trkpt>
<trkpt lat="47.37259" lon="10.93577"><ele>1677</ele></trkpt>
<trkpt lat="47.37247" lon="10.93582"><ele>1666</ele></trkpt>
<trkpt lat="47.37237" lon="10.93596"><ele>1666</ele></trkpt>
<trkpt lat="47.37228" lon="10.93603"><ele>1666</ele></trkpt>
<trkpt lat="47.37212" lon="10.93608"><ele>1666</ele></trkpt>
<trkpt lat="47.37176" lon="10.93616"><ele>1663</ele></trkpt>
<trkpt lat="47.37156" lon="10.93624"><ele>1663</ele></trkpt>
<trkpt lat="47.37124" lon="10.93628"><ele>1663</ele></trkpt>
<trkpt lat="47.37109" lon="10.93632"><ele>1663</ele></trkpt>
<trkpt lat="47.37089" lon="10.93635"><ele>1656</ele></trkpt>
<trkpt lat="47.37079" lon="10.93632"><ele>1656</ele></trkpt>
<trkpt lat="47.37076" lon="10.93632"><ele>1656</ele></trkpt>
<trkpt lat="47.37069" lon="10.93636"><ele>1656</ele></trkpt>
<trkpt lat="47.37064" lon="10.9364"><ele>1656</ele></trkpt>
<trkpt lat="47.37051" lon="10.93634"><ele>1656</ele></trkpt>
<trkpt lat="47.37023" lon="10.93624"><ele>1656</ele></trkpt>
<trkpt lat="47.37009" lon="10.9362"><ele>1656</ele></trkpt>
<trkpt lat="47.37002" lon="10.93618"><ele>1658</ele></trkpt>
<trkpt lat="47.36993" lon="10.93622"><ele>1658</ele></trkpt>
<trkpt lat="47.36993" lon="10.93622"><ele>1658</ele></trkpt>
<trkpt lat="47.36988" lon="10.93634"><ele>1658</ele></trkpt>
<trkpt lat="47.36985" lon="10.93653"><ele>1657</ele></trkpt>
<trkpt lat="47.36985" lon="10.9368"><ele>1657</ele></trkpt>
<trkpt lat="47.36985" lon="10.9368"><ele>1657</ele></trkpt>
<trkpt lat="47.36991" lon="10.93699"><ele>1657</ele></trkpt>
<trkpt lat="47.36988" lon="10.93711"><ele>1657</ele></trkpt>
<trkpt lat="47.3698" lon="10.93724"><ele>1657</ele></trkpt>
<trkpt lat="47.36962" lon="10.93723"><ele>1657</ele></trkpt>
<trkpt lat="47.36955" lon="10.93736"><ele>1657</ele></trkpt>
<trkpt lat="47.36943" lon="10.93736"><ele>1658</ele></trkpt>
<trkpt lat="47.36943" lon="10.93736"><ele>1658</ele></trkpt>
<trkpt lat="47.3693" lon="10.93742"><ele>1658</ele></trkpt>
<trkpt lat="47.36923" lon="10.93742"><ele>1658</ele></trkpt>
<trkpt lat="47.36912" lon="10.9374"><ele>1658</ele></trkpt>
<trkpt lat="47.36903" lon="10.93737"><ele>1658</ele></trkpt>
<trkpt lat="47.36891" lon="10.93729"><ele>1658</ele></trkpt>
<trkpt lat="47.36885" lon="10.93714"><ele>1658</ele></trkpt>
<trkpt lat="47.36872" lon="10.93673"><ele>1660</ele></trkpt>
<trkpt lat="47.36852" lon="10.93633"><ele>1660</ele></trkpt>
<trkpt lat="47.36841" lon="10.93617"><ele>1660</ele></trkpt>
<trkpt lat="47.36821" lon="10.93598"><ele>1660</ele></trkpt>
<trkpt lat="47.36811" lon="10.93589"><ele>1658</ele></trkpt>
<trkpt lat="47.36804" lon="10.93582"><ele>1658</ele></trkpt>
<trkpt lat="47.36795" lon="10.93573"><ele>1658</ele></trkpt>
<trkpt lat="47.36789" lon="10.9357"><ele>1658</ele></trkpt>
<trkpt lat="47.36781" lon="10.93568"><ele>1659</ele></trkpt>
<trkpt lat="47.36771" lon="10.93566"><ele>1659</ele></trkpt>
<trkpt lat="47.36754" lon="10.93556"><ele>1659</ele></trkpt>
<trkpt lat="47.36738" lon="10.93548"><ele>1659</ele></trkpt>
<trkpt lat="47.36729" lon="10.93542"><ele>1659</ele></trkpt>
<trkpt lat="47.36706" lon="10.93531"><ele>1659</ele></trkpt>
<trkpt lat="47.36692" lon="10.93517"><ele>1659</ele></trkpt>
<trkpt lat="47.36677" lon="10.93506"><ele>1659</ele></trkpt>
<trkpt lat="47.36669" lon="10.93501"><ele>1663</ele></trkpt>
<trkpt lat="47.36631" lon="10.93491"><ele>1663</ele></trkpt>
<trkpt lat="47.36623" lon="10.93482"><ele>1663</ele></trkpt>
<trkpt lat="47.36611" lon="10.93469"><ele>1663</ele></trkpt>
<trkpt lat="47.36589" lon="10.9345"><ele>1671</ele></trkpt>
<trkpt lat="47.36554" lon="10.93423"><ele>1671</ele></trkpt>
<trkpt lat="47.36476" lon="10.93393"><ele>1671</ele></trkpt>
<trkpt lat="47.36458" lon="10.93395"><ele>1671</ele></trkpt>
<trkpt lat="47.36419" lon="10.93391"><ele>1687</ele></trkpt>
<trkpt lat="47.36406" lon="10.93402"><ele>1687</ele></trkpt>
<trkpt lat="47.36406" lon="10.93402"><ele>1687</ele></trkpt>
<trkpt lat="47.36404" lon="10.93395"><ele>1687</ele></trkpt>
<trkpt lat="47.36397" lon="10.9339"><ele>1694</ele></trkpt>
<trkpt lat="47.36384" lon="10.93397"><ele>1694</ele></trkpt>
<trkpt lat="47.36374" lon="10.93389"><ele>1694</ele></trkpt>
<trkpt lat="47.36367" lon="10.93379"><ele>1694</ele></trkpt>
<trkpt lat="47.36345" lon="10.93404"><ele>1719</ele></trkpt>
<trkpt lat="47.36344" lon="10.93388"><ele>1719</ele></trkpt>
<trkpt lat="47.36349" lon="10.9336"><ele>1719</ele></trkpt>
<trkpt lat="47.36328" lon="10.93383"><ele>1719</ele></trkpt>
<trkpt lat="47.36326" lon="10.93375"><ele>1737</ele></trkpt>
<trkpt lat="47.36314" lon="10.93388"><ele>1737</ele></trkpt>
<trkpt lat="47.36309" lon="10.93371"><ele>1737</ele></trkpt>
<trkpt lat="47.3631" lon="10.93347"><ele>1737</ele></trkpt>
<trkpt lat="47.36318" lon="10.93319"><ele>1758</ele></trkpt>
<trkpt lat="47.36303" lon="10.93334"><ele>1758</ele></trkpt>
<trkpt lat="47.36299" lon="10.93335"><ele>1758</ele></trkpt>
<trkpt lat="47.36296" lon="10.93341"><ele>1758</ele></trkpt>
<trkpt lat="47.36292" lon="10.93347"><ele>1766</ele></trkpt>
<trkpt lat="47.36285" lon="10.93348"><ele>1766</ele></trkpt>
<trkpt lat="47.36277" lon="10.93362"><ele>1766</ele></trkpt>
<trkpt lat="47.36272" lon="10.93372"><ele>1766</ele></trkpt>
<trkpt lat="47.36262" lon="10.93339"><ele>1778</ele></trkpt>
<trkpt lat="47.36251" lon="10.93348"><ele>1778</ele></trkpt>
<trkpt lat="47.36246" lon="10.93341"><ele>1778</ele></trkpt>
<trkpt lat="47.36238" lon="10.93343"><ele>1778</ele></trkpt>
<trkpt lat="47.36231" lon="10.93362"><ele>1792</ele></trkpt>
<trkpt lat="47.36224" lon="10.93362"><ele>1792</ele></trkpt>
<trkpt lat="47.3622" lon="10.93373"><ele>1792</ele></trkpt>
<trkpt lat="47.36209" lon="10.93379"><ele>1792</ele></trkpt>
<trkpt lat="47.36196" lon="10.93353"><ele>1808</ele></trkpt>
<trkpt lat="47.36187" lon="10.93373"><ele>1808</ele></trkpt>
<trkpt lat="47.36185" lon="10.93385"><ele>1808</ele></trkpt>
<trkpt lat="47.3618" lon="10.9339"><ele>1808</ele></trkpt>
<trkpt lat="47.36177" lon="10.93397"><ele>1815</ele></trkpt>
<trkpt lat="47.36171" lon="10.934"><ele>1815</ele></trkpt>
<trkpt lat="47.3617" lon="10.93404"><ele>1815</ele></trkpt>
<trkpt lat="47.36166" lon="10.93408"><ele>1815</ele></trkpt>
<trkpt lat="47.36162" lon="10.93385"><ele>1824</ele></trkpt>
<trkpt lat="47.36157" lon="10.93365"><ele>1824</ele></trkpt>
<trkpt lat="47.36157" lon="10.9335"><ele>1824</ele></trkpt>
<trkpt lat="47.36159" lon="10.93338"><ele>1824</ele></trkpt>
<trkpt lat="47.36166" lon="10.933"><ele>1836</ele></trkpt>
<trkpt lat="47.36137" lon="10.93329"><ele>1836</ele></trkpt>
<trkpt lat="47.36138" lon="10.93317"><ele>1836</ele></trkpt>
<trkpt lat="47.36145" lon="10.9328"><ele>1836</ele></trkpt>
<trkpt lat="47.36118" lon="10.93306"><ele>1871</ele></trkpt>
<trkpt lat="47.36121" lon="10.9328"><ele>1871</ele></trkpt>
<trkpt lat="47.36099" lon="10.93309"><ele>1871</ele></trkpt>
<trkpt lat="47.36095" lon="10.93299"><ele>1871</ele></trkpt>
<trkpt lat="47.36089" lon="10.93311"><ele>1889</ele></trkpt>
<trkpt lat="47.36087" lon="10.93336"><ele>1889</ele></trkpt>
<trkpt lat="47.36055" lon="10.93334"><ele>1889</ele></trkpt>
<trkpt lat="47.36042" lon="10.93346"><ele>1889</ele></trkpt>
<trkpt lat="47.36026" lon="10.93358"><ele>1909</ele></trkpt>
<trkpt lat="47.3602" lon="10.9335"><ele>1909</ele></trkpt>
<trkpt lat="47.3602" lon="10.9335"><ele>1909</ele></trkpt>
<trkpt lat="47.36017" lon="10.93358"><ele>1909</ele></trkpt>
<trkpt lat="47.36013" lon="10.93364"><ele>1915</ele></trkpt>
<trkpt lat="47.3601" lon="10.93367"><ele>1915</ele></trkpt>
<trkpt lat="47.36008" lon="10.9337"><ele>1915</ele></trkpt>
<trkpt lat="47.36001" lon="10.93371"><ele>1915</ele></trkpt>
<trkpt lat="47.35994" lon="10.9337"><ele>1916</ele></trkpt>
<trkpt lat="47.35992" lon="10.93369"><ele>1916</ele></trkpt>
<trkpt lat="47.3599" lon="10.93366"><ele>1916</ele></trkpt>
<trkpt lat="47.35987" lon="10.93363"><ele>1916</ele></trkpt>
<trkpt lat="47.35985" lon="10.93362"><ele>1914</ele></trkpt>
<trkpt lat="47.35985" lon="10.93357"><ele>1914</ele></trkpt>
<trkpt lat="47.35985" lon="10.93357"><ele>1914</ele></trkpt>
<trkpt lat="47.35984" lon="10.93361"><ele>1914</ele></trkpt>
<trkpt lat="47.35984" lon="10.93361"><ele>1914</ele></trkpt>
<trkpt lat="47.35984" lon="10.93361"><ele>1914</ele></trkpt>
<trkpt lat="47.35984" lon="10.93361"><ele>1914</ele></trkpt>
<trkpt lat="47.35984" lon="10.93361"><ele>1914</ele></trkpt>
<trkpt lat="47.35984" lon="10.93361"><ele>1914</ele></trkpt>
<trkpt lat="47.35985" lon="10.93357"><ele>1914</ele></trkpt>
<trkpt lat="47.35985" lon="10.93357"><ele>1914</ele></trkpt>
<trkpt lat="47.35985" lon="10.93362"><ele>1914</ele></trkpt>
<trkpt lat="47.35987" lon="10.93363"><ele>1914</ele></trkpt>
<trkpt lat="47.3599" lon="10.93366"><ele>1914</ele></trkpt>
<trkpt lat="47.35992" lon="10.93369"><ele>1914</ele></trkpt>
<trkpt lat="47.35994" lon="10.9337"><ele>1914</ele></trkpt>
<trkpt lat="47.36001" lon="10.93371"><ele>1916</ele></trkpt>
<trkpt lat="47.36008" lon="10.9337"><ele>1916</ele></trkpt>
<trkpt lat="47.3601" lon="10.93367"><ele>1916</ele></trkpt>
<trkpt lat="47.36013" lon="10.93364"><ele>1916</ele></trkpt>
<trkpt lat="47.36017" lon="10.93358"><ele>1913</ele></trkpt>
<trkpt lat="47.3602" lon="10.9335"><ele>1913</ele></trkpt>
<trkpt lat="47.3602" lon="10.9335"><ele>1913</ele></trkpt>
<trkpt lat="47.36026" lon="10.93358"><ele>1913</ele></trkpt>
<trkpt lat="47.36042" lon="10.93346"><ele>1906</ele></trkpt>
<trkpt lat="47.36055" lon="10.93334"><ele>1906</ele></trkpt>
<trkpt lat="47.36087" lon="10.93336"><ele>1906</ele></trkpt>
<trkpt lat="47.36089" lon="10.93311"><ele>1906</ele></trkpt>
<trkpt lat="47.36095" lon="10.93299"><ele>1883</ele></trkpt>
<trkpt lat="47.36099" lon="10.93309"><ele>1883</ele></trkpt>
<trkpt lat="47.36121" lon="10.9328"><ele>1883</ele></trkpt>
<trkpt lat="47.36118" lon="10.93306"><ele>1883</ele></trkpt>
<trkpt lat="47.36145" lon="10.9328"><ele>1861</ele></trkpt>
<trkpt lat="47.36138" lon="10.93317"><ele>1861</ele></trkpt>
<trkpt lat="47.36137" lon="10.93329"><ele>1861</ele></trkpt>
<trkpt lat="47.36166" lon="10.933"><ele>1861</ele></trkpt>
<trkpt lat="47.36159" lon="10.93338"><ele>1830</ele></trkpt>
<trkpt lat="47.36157" lon="10.9335"><ele>1830</ele></trkpt>
<trkpt lat="47.36157" lon="10.93365"><ele>1830</ele></trkpt>
<trkpt lat="47.36162" lon="10.93385"><ele>1830</ele></trkpt>
<trkpt lat="47.36166" lon="10.93408"><ele>1818</ele></trkpt>
<trkpt lat="47.3617" lon="10.93404"><ele>1818</ele></trkpt>
<trkpt lat="47.36171" lon="10.934"><ele>1818</ele></trkpt>
<trkpt lat="47.36177" lon="10.93397"><ele>1818</ele></trkpt>
<trkpt lat="47.3618" lon="10.9339"><ele>1815</ele></trkpt>
<trkpt lat="47.36185" lon="10.93385"><ele>1815</ele></trkpt>
<trkpt lat="47.36187" lon="10.93373"><ele>1815</ele></trkpt>
<trkpt lat="47.36196" lon="10.93353"><ele>1815</ele></trkpt>
<trkpt lat="47.36209" lon="10.93379"><ele>1799</ele></trkpt>
<trkpt lat="47.3622" lon="10.93373"><ele>1799</ele></trkpt>
<trkpt lat="47.36224" lon="10.93362"><ele>1799</ele></trkpt>
<trkpt lat="47.36231" lon="10.93362"><ele>1799</ele></trkpt>
<trkpt lat="47.36238" lon="10.93343"><ele>1788</ele></trkpt>
<trkpt lat="47.36246" lon="10.93341"><ele>1788</ele></trkpt>
<trkpt lat="47.36251" lon="10.93348"><ele>1788</ele></trkpt>
<trkpt lat="47.36262" lon="10.93339"><ele>1788</ele></trkpt>
<trkpt lat="47.36272" lon="10.93372"><ele>1770</ele></trkpt>
<trkpt lat="47.36277" lon="10.93362"><ele>1770</ele></trkpt>
<trkpt lat="47.36285" lon="10.93348"><ele>1770</ele></trkpt>
<trkpt lat="47.36292" lon="10.93347"><ele>1770</ele></trkpt>
<trkpt lat="47.36296" lon="10.93341"><ele>1760</ele></trkpt>
<trkpt lat="47.36299" lon="10.93335"><ele>1760</ele></trkpt>
<trkpt lat="47.36303" lon="10.93334"><ele>1760</ele></trkpt>
<trkpt lat="47.36318" lon="10.93319"><ele>1760</ele></trkpt>
<trkpt lat="47.3631" lon="10.93347"><ele>1755</ele></trkpt>
<trkpt lat="47.36309" lon="10.93371"><ele>1755</ele></trkpt>
<trkpt lat="47.36314" lon="10.93388"><ele>1755</ele></trkpt>
<trkpt lat="47.36326" lon="10.93375"><ele>1755</ele></trkpt>
<trkpt lat="47.36328" lon="10.93383"><ele>1737</ele></trkpt>
<trkpt lat="47.36349" lon="10.9336"><ele>1737</ele></trkpt>
<trkpt lat="47.36344" lon="10.93388"><ele>1737</ele></trkpt>
<trkpt lat="47.36345" lon="10.93404"><ele>1737</ele></trkpt>
<trkpt lat="47.36367" lon="10.93379"><ele>1709</ele></trkpt>
<trkpt lat="47.36374" lon="10.93389"><ele>1709</ele></trkpt>
<trkpt lat="47.36384" lon="10.93397"><ele>1709</ele></trkpt>
<trkpt lat="47.36397" lon="10.9339"><ele>1709</ele></trkpt>
<trkpt lat="47.36404" lon="10.93395"><ele>1691</ele></trkpt>
<trkpt lat="47.36406" lon="10.93402"><ele>1691</ele></trkpt>
<trkpt lat="47.36406" lon="10.93402"><ele>1691</ele></trkpt>
<trkpt lat="47.36419" lon="10.93391"><ele>1691</ele></trkpt>
<trkpt lat="47.36458" lon="10.93395"><ele>1684</ele></trkpt>
<trkpt lat="47.36476" lon="10.93393"><ele>1684</ele></trkpt>
<trkpt lat="47.36554" lon="10.93423"><ele>1684</ele></trkpt>
<trkpt lat="47.36589" lon="10.9345"><ele>1684</ele></trkpt>
<trkpt lat="47.36611" lon="10.93469"><ele>1669</ele></trkpt>
<trkpt lat="47.36623" lon="10.93482"><ele>1669</ele></trkpt>
<trkpt lat="47.36631" lon="10.93491"><ele>1669</ele></trkpt>
<trkpt lat="47.36669" lon="10.93501"><ele>1669</ele></trkpt>
<trkpt lat="47.36677" lon="10.93506"><ele>1662</ele></trkpt>
<trkpt lat="47.36692" lon="10.93517"><ele>1662</ele></trkpt>
<trkpt lat="47.36706" lon="10.93531"><ele>1662</ele></trkpt>
<trkpt lat="47.36729" lon="10.93542"><ele>1662</ele></trkpt>
<trkpt lat="47.36738" lon="10.93548"><ele>1658</ele></trkpt>
<trkpt lat="47.36754" lon="10.93556"><ele>1658</ele></trkpt>
<trkpt lat="47.36771" lon="10.93566"><ele>1658</ele></trkpt>
<trkpt lat="47.36781" lon="10.93568"><ele>1658</ele></trkpt>
<trkpt lat="47.36789" lon="10.9357"><ele>1658</ele></trkpt>
<trkpt lat="47.36795" lon="10.93573"><ele>1658</ele></trkpt>
<trkpt lat="47.36804" lon="10.93582"><ele>1658</ele></trkpt>
<trkpt lat="47.36811" lon="10.93589"><ele>1658</ele></trkpt>
<trkpt lat="47.36821" lon="10.93598"><ele>1658</ele></trkpt>
<trkpt lat="47.36841" lon="10.93617"><ele>1658</ele></trkpt>
<trkpt lat="47.36852" lon="10.93633"><ele>1658</ele></trkpt>
<trkpt lat="47.36872" lon="10.93673"><ele>1658</ele></trkpt>
<trkpt lat="47.36885" lon="10.93714"><ele>1659</ele></trkpt>
<trkpt lat="47.36891" lon="10.93729"><ele>1659</ele></trkpt>
<trkpt lat="47.36903" lon="10.93737"><ele>1659</ele></trkpt>
<trkpt lat="47.36912" lon="10.9374"><ele>1659</ele></trkpt>
<trkpt lat="47.36923" lon="10.93742"><ele>1657</ele></trkpt>
<trkpt lat="47.3693" lon="10.93742"><ele>1657</ele></trkpt>
<trkpt lat="47.36943" lon="10.93736"><ele>1657</ele></trkpt>
<trkpt lat="47.36943" lon="10.93736"><ele>1657</ele></trkpt>
<trkpt lat="47.36951" lon="10.93747"><ele>1659</ele></trkpt>
<trkpt lat="47.36956" lon="10.93746"><ele>1659</ele></trkpt>
<trkpt lat="47.3696" lon="10.9375"><ele>1659</ele></trkpt>
<trkpt lat="47.3697" lon="10.93756"><ele>1659</ele></trkpt>
<trkpt lat="47.36972" lon="10.93771"><ele>1663</ele></trkpt>
<trkpt lat="47.36976" lon="10.93776"><ele>1663</ele></trkpt>
<trkpt lat="47.36977" lon="10.93783"><ele>1663</ele></trkpt>
<trkpt lat="47.36988" lon="10.93785"><ele>1663</ele></trkpt>
<trkpt lat="47.37" lon="10.93784"><ele>1664</ele></trkpt>
<trkpt lat="47.37" lon="10.93784"><ele>1664</ele></trkpt>
<trkpt lat="47.37" lon="10.93784"><ele>1664</ele></trkpt>
<trkpt lat="47.37" lon="10.93784"><ele>1664</ele></trkpt>
<trkpt lat="47.37" lon="10.93784"><ele>1664</ele></trkpt>
<trkpt lat="47.37004" lon="10.93793"><ele>1664</ele></trkpt>
<trkpt lat="47.37038" lon="10.93789"><ele>1664</ele></trkpt>
<trkpt lat="47.37052" lon="10.93796"><ele>1664</ele></trkpt>
<trkpt lat="47.37064" lon="10.93811"><ele>1648</ele></trkpt>
<trkpt lat="47.37072" lon="10.93821"><ele>1648</ele></trkpt>
<trkpt lat="47.3708" lon="10.93828"><ele>1648</ele></trkpt>
<trkpt lat="47.37097" lon="10.93832"><ele>1648</ele></trkpt>
<trkpt lat="47.37102" lon="10.9385"><ele>1645</ele></trkpt>
<trkpt lat="47.37139" lon="10.93888"><ele>1645</ele></trkpt>
<trkpt lat="47.37139" lon="10.93888"><ele>1645</ele></trkpt>
<trkpt lat="47.37138" lon="10.93885"><ele>1645</ele></trkpt>
<trkpt lat="47.37147" lon="10.93902"><ele>1639</ele></trkpt>
<trkpt lat="47.37159" lon="10.93918"><ele>1639</ele></trkpt>
<trkpt lat="47.37174" lon="10.93929"><ele>1639</ele></trkpt>
<trkpt lat="47.37189" lon="10.93935"><ele>1639</ele></trkpt>
<trkpt lat="47.37203" lon="10.93948"><ele>1632</ele></trkpt>
<trkpt lat="47.37213" lon="10.9395"><ele>1632</ele></trkpt>
<trkpt lat="47.37213" lon="10.93956"><ele>1632</ele></trkpt>
<trkpt lat="47.37215" lon="10.93976"><ele>1632</ele></trkpt>
<trkpt lat="47.37216" lon="10.93983"><ele>1628</ele></trkpt>
<trkpt lat="47.37216" lon="10.93983"><ele>1628</ele></trkpt>
<trkpt lat="47.37216" lon="10.93983"><ele>1628</ele></trkpt>
<trkpt lat="47.37216" lon="10.93983"><ele>1628</ele></trkpt>
<trkpt lat="47.37216" lon="10.9399"><ele>1627</ele></trkpt>
<trkpt lat="47.37216" lon="10.93997"><ele>1627</ele></trkpt>
<trkpt lat="47.37229" lon="10.94005"><ele>1627</ele></trkpt>
<trkpt lat="47.37229" lon="10.94005"><ele>1627</ele></trkpt>
<trkpt lat="47.37226" lon="10.9401"><ele>1622</ele></trkpt>
<trkpt lat="47.37224" lon="10.94025"><ele>1622</ele></trkpt>
<trkpt lat="47.37223" lon="10.94036"><ele>1622</ele></trkpt>
<trkpt lat="47.37225" lon="10.94048"><ele>1622</ele></trkpt>
<trkpt lat="47.37242" lon="10.9406"><ele>1613</ele></trkpt>
<trkpt lat="47.37242" lon="10.9406"><ele>1613</ele></trkpt>
<trkpt lat="47.37247" lon="10.94056"><ele>1613</ele></trkpt>
<trkpt lat="47.37254" lon="10.94056"><ele>1613</ele></trkpt>
<trkpt lat="47.37265" lon="10.94069"><ele>1606</ele></trkpt>
<trkpt lat="47.37278" lon="10.94091"><ele>1606</ele></trkpt>
<trkpt lat="47.37286" lon="10.94118"><ele>1606</ele></trkpt>
<trkpt lat="47.37295" lon="10.94152"><ele>1606</ele></trkpt>
<trkpt lat="47.37302" lon="10.94177"><ele>1590</ele></trkpt>
<trkpt lat="47.37313" lon="10.94201"><ele>1590</ele></trkpt>
<trkpt lat="47.37327" lon="10.94229"><ele>1590</ele></trkpt>
<trkpt lat="47.37333" lon="10.94237"><ele>1590</ele></trkpt>
<trkpt lat="47.37339" lon="10.94249"><ele>1579</ele></trkpt>
<trkpt lat="47.37345" lon="10.94253"><ele>1579</ele></trkpt>
<trkpt lat="47.3735" lon="10.94255"><ele>1579</ele></trkpt>
<trkpt lat="47.37352" lon="10.94264"><ele>1579</ele></trkpt>
<trkpt lat="47.37354" lon="10.94283"><ele>1573</ele></trkpt>
<trkpt lat="47.37354" lon="10.94283"><ele>1573</ele></trkpt>
<trkpt lat="47.37354" lon="10.94283"><ele>1573</ele></trkpt>
<trkpt lat="47.37354" lon="10.94283"><ele>1573</ele></trkpt>
<trkpt lat="47.37355" lon="10.94295"><ele>1573</ele></trkpt>
<trkpt lat="47.3736" lon="10.9433"><ele>1573</ele></trkpt>
<trkpt lat="47.37378" lon="10.94388"><ele>1573</ele></trkpt>
<trkpt lat="47.37389" lon="10.94424"><ele>1573</ele></trkpt>
<trkpt lat="47.37389" lon="10.94424"><ele>1569</ele></trkpt>
<trkpt lat="47.37383" lon="10.94437"><ele>1569</ele></trkpt>
<trkpt lat="47.37381" lon="10.94459"><ele>1569</ele></trkpt>
<trkpt lat="47.37381" lon="10.94471"><ele>1569</ele></trkpt>
<trkpt lat="47.37389" lon="10.945"><ele>1577</ele></trkpt>
<trkpt lat="47.37392" lon="10.94543"><ele>1577</ele></trkpt>
<trkpt lat="47.37395" lon="10.94557"><ele>1577</ele></trkpt>
<trkpt lat="47.37392" lon="10.94574"><ele>1577</ele></trkpt>
<trkpt lat="47.3739" lon="10.94604"><ele>1578</ele></trkpt>
<trkpt lat="47.37387" lon="10.94619"><ele>1578</ele></trkpt>
<trkpt lat="47.37388" lon="10.94633"><ele>1578</ele></trkpt>
<trkpt lat="47.37389" lon="10.94669"><ele>1578</ele></trkpt>
<trkpt lat="47.37394" lon="10.94685"><ele>1583</ele></trkpt>
<trkpt lat="47.37409" lon="10.94707"><ele>1583</ele></trkpt>
<trkpt lat="47.37416" lon="10.94741"><ele>1583</ele></trkpt>
<trkpt lat="47.37427" lon="10.94761"><ele>1583</ele></trkpt>
<trkpt lat="47.37433" lon="10.9477"><ele>1594</ele></trkpt>
<trkpt lat="47.37441" lon="10.94776"><ele>1594</ele></trkpt>
<trkpt lat="47.37447" lon="10.9479"><ele>1594</ele></trkpt>
<trkpt lat="47.37461" lon="10.94808"><ele>1594</ele></trkpt>
<trkpt lat="47.37464" lon="10.94814"><ele>1602</ele></trkpt>
<trkpt lat="47.37471" lon="10.94836"><ele>1602</ele></trkpt>
<trkpt lat="47.37481" lon="10.94877"><ele>1602</ele></trkpt>
<trkpt lat="47.37476" lon="10.94916"><ele>1602</ele></trkpt>
<trkpt lat="47.3748" lon="10.94935"><ele>1606</ele></trkpt>
<trkpt lat="47.37506" lon="10.94992"><ele>1606</ele></trkpt>
<trkpt lat="47.37516" lon="10.95012"><ele>1606</ele></trkpt>
<trkpt lat="47.37516" lon="10.95031"><ele>1606</ele></trkpt>
<trkpt lat="47.37524" lon="10.95082"><ele>1606</ele></trkpt>
<trkpt lat="47.37528" lon="10.95096"><ele>1606</ele></trkpt>
<trkpt lat="47.37528" lon="10.95096"><ele>1606</ele></trkpt>
<trkpt lat="47.37528" lon="10.95096"><ele>1606</ele></trkpt>
<trkpt lat="47.37528" lon="10.95096"><ele>1606</ele></trkpt>
<trkpt lat="47.37537" lon="10.95124"><ele>1606</ele></trkpt>
<trkpt lat="47.37534" lon="10.95145"><ele>1606</ele></trkpt>
<trkpt lat="47.37535" lon="10.95178"><ele>1606</ele></trkpt>
<trkpt lat="47.37527" lon="10.95195"><ele>1599</ele></trkpt>
<trkpt lat="47.3753" lon="10.95223"><ele>1599</ele></trkpt>
<trkpt lat="47.37529" lon="10.95254"><ele>1599</ele></trkpt>
<trkpt lat="47.37539" lon="10.95285"><ele>1599</ele></trkpt>
<trkpt lat="47.37542" lon="10.95314"><ele>1583</ele></trkpt>
<trkpt lat="47.37533" lon="10.95326"><ele>1583</ele></trkpt>
<trkpt lat="47.37522" lon="10.95341"><ele>1583</ele></trkpt>
<trkpt lat="47.37511" lon="10.95391"><ele>1583</ele></trkpt>
<trkpt lat="47.375" lon="10.95416"><ele>1570</ele></trkpt>
<trkpt lat="47.37503" lon="10.95452"><ele>1570</ele></trkpt>
<trkpt lat="47.37506" lon="10.95481"><ele>1570</ele></trkpt>
<trkpt lat="47.37499" lon="10.95498"><ele>1570</ele></trkpt>
<trkpt lat="47.37493" lon="10.95511"><ele>1565</ele></trkpt>
<trkpt lat="47.3748" lon="10.95519"><ele>1565</ele></trkpt>
<trkpt lat="47.37467" lon="10.95544"><ele>1565</ele></trkpt>
<trkpt lat="47.37466" lon="10.95581"><ele>1565</ele></trkpt>
<trkpt lat="47.37458" lon="10.95596"><ele>1565</ele></trkpt>
<trkpt lat="47.37456" lon="10.95615"><ele>1565</ele></trkpt>
<trkpt lat="47.37456" lon="10.95625"><ele>1565</ele></trkpt>
<trkpt lat="47.37456" lon="10.95625"><ele>1565</ele></trkpt>
<trkpt lat="47.37456" lon="10.95625"><ele>1564</ele></trkpt>
<trkpt lat="47.37456" lon="10.95625"><ele>1564</ele></trkpt>
<trkpt lat="47.37453" lon="10.95662"><ele>1564</ele></trkpt>
<trkpt lat="47.3745" lon="10.95678"><ele>1564</ele></trkpt>
<trkpt lat="47.3745" lon="10.95678"><ele>1562</ele></trkpt>
<trkpt lat="47.37493" lon="10.95696"><ele>1562</ele></trkpt>
<trkpt lat="47.37516" lon="10.95697"><ele>1562</ele></trkpt>
<trkpt lat="47.3752" lon="10.95699"><ele>1562</ele></trkpt>
<trkpt lat="47.3752" lon="10.95699"><ele>1553</ele></trkpt>
<trkpt lat="47.3752" lon="10.95699"><ele>1553</ele></trkpt>
<trkpt lat="47.3752" lon="10.95699"><ele>1553</ele></trkpt>
<trkpt lat="47.37542" lon="10.95707"><ele>1553</ele></trkpt>
<trkpt lat="47.37589" lon="10.9572"><ele>1546</ele></trkpt>
<trkpt lat="47.37601" lon="10.95724"><ele>1546</ele></trkpt>
<trkpt lat="47.37601" lon="10.95724"><ele>1546</ele></trkpt>
<trkpt lat="47.37619" lon="10.95727"><ele>1546</ele></trkpt>
<trkpt lat="47.37638" lon="10.95733"><ele>1543</ele></trkpt>
<trkpt lat="47.37645" lon="10.95734"><ele>1543</ele></trkpt>
<trkpt lat="47.37661" lon="10.95731"><ele>1543</ele></trkpt>
<trkpt lat="47.37669" lon="10.95726"><ele>1543</ele></trkpt>
<trkpt lat="47.37677" lon="10.9572"><ele>1542</ele></trkpt>
<trkpt lat="47.37685" lon="10.95725"><ele>1542</ele></trkpt>
<trkpt lat="47.37702" lon="10.95728"><ele>1542</ele></trkpt>
<trkpt lat="47.37717" lon="10.95726"><ele>1542</ele></trkpt>
<trkpt lat="47.37731" lon="10.95708"><ele>1539</ele></trkpt>
<trkpt lat="47.37732" lon="10.95705"><ele>1539</ele></trkpt>
<trkpt lat="47.37732" lon="10.95705"><ele>1539</ele></trkpt>
<trkpt lat="47.37732" lon="10.95705"><ele>1539</ele></trkpt>
<trkpt lat="47.37732" lon="10.95705"><ele>1539</ele></trkpt>
<trkpt lat="47.37736" lon="10.95695"><ele>1539</ele></trkpt>
<trkpt lat="47.37749" lon="10.95699"><ele>1539</ele></trkpt>
<trkpt lat="47.37769" lon="10.95695"><ele>1539</ele></trkpt>
<trkpt lat="47.37791" lon="10.95675"><ele>1532</ele></trkpt>
<trkpt lat="47.37808" lon="10.95663"><ele>1532</ele></trkpt>
<trkpt lat="47.37829" lon="10.95647"><ele>1532</ele></trkpt>
<trkpt lat="47.37842" lon="10.95598"><ele>1532</ele></trkpt>
<trkpt lat="47.37868" lon="10.9556"><ele>1512</ele></trkpt>
<trkpt lat="47.37874" lon="10.95545"><ele>1512</ele></trkpt>
<trkpt lat="47.37879" lon="10.95526"><ele>1512</ele></trkpt>
<trkpt lat="47.37884" lon="10.95532"><ele>1512</ele></trkpt>
<trkpt lat="47.37888" lon="10.95524"><ele>1495</ele></trkpt>
<trkpt lat="47.37897" lon="10.95536"><ele>1495</ele></trkpt>
<trkpt lat="47.37905" lon="10.95521"><ele>1495</ele></trkpt>
<trkpt lat="47.37914" lon="10.95529"><ele>1495</ele></trkpt>
<trkpt lat="47.37913" lon="10.95542"><ele>1481</ele></trkpt>
<trkpt lat="47.37921" lon="10.95548"><ele>1481</ele></trkpt>
<trkpt lat="47.37913" lon="10.95559"><ele>1481</ele></trkpt>
<trkpt lat="47.37913" lon="10.95567"><ele>1481</ele></trkpt>
<trkpt lat="47.37923" lon="10.95561"><ele>1464</ele></trkpt>
<trkpt lat="47.37928" lon="10.95564"><ele>1464</ele></trkpt>
<trkpt lat="47.37937" lon="10.95553"><ele>1464</ele></trkpt>
<trkpt lat="47.3794" lon="10.95565"><ele>1464</ele></trkpt>
<trkpt lat="47.37947" lon="10.9557"><ele>1443</ele></trkpt>
<trkpt lat="47.37953" lon="10.95569"><ele>1443</ele></trkpt>
<trkpt lat="47.3796" lon="10.95563"><ele>1443</ele></trkpt>
<trkpt lat="47.3796" lon="10.95537"><ele>1443</ele></trkpt>
<trkpt lat="47.37967" lon="10.95532"><ele>1433</ele></trkpt>
<trkpt lat="47.37979" lon="10.9555"><ele>1433</ele></trkpt>
<trkpt lat="47.37979" lon="10.95538"><ele>1433</ele></trkpt>
<trkpt lat="47.37986" lon="10.95536"><ele>1433</ele></trkpt>
<trkpt lat="47.37977" lon="10.95511"><ele>1421</ele></trkpt>
<trkpt lat="47.37979" lon="10.95497"><ele>1421</ele></trkpt>
<trkpt lat="47.37985" lon="10.95504"><ele>1421</ele></trkpt>
<trkpt lat="47.37994" lon="10.95502"><ele>1421</ele></trkpt>
<trkpt lat="47.3799" lon="10.95484"><ele>1398</ele></trkpt>
<trkpt lat="47.37994" lon="10.95467"><ele>1398</ele></trkpt>
<trkpt lat="47.38003" lon="10.95468"><ele>1398</ele></trkpt>
<trkpt lat="47.37997" lon="10.95439"><ele>1398</ele></trkpt>
<trkpt lat="47.38009" lon="10.95441"><ele>1382</ele></trkpt>
<trkpt lat="47.38014" lon="10.95421"><ele>1382</ele></trkpt>
<trkpt lat="47.38023" lon="10.95422"><ele>1382</ele></trkpt>
<trkpt lat="47.3802" lon="10.95399"><ele>1382</ele></trkpt>
<trkpt lat="47.38031" lon="10.95399"><ele>1356</ele></trkpt>
<trkpt lat="47.38041" lon="10.95409"><ele>1356</ele></trkpt>
<trkpt lat="47.38039" lon="10.9539"><ele>1356</ele></trkpt>
<trkpt lat="47.38042" lon="10.95377"><ele>1356</ele></trkpt>
<trkpt lat="47.38052" lon="10.95382"><ele>1324</ele></trkpt>
<trkpt lat="47.38059" lon="10.9538"><ele>1324</ele></trkpt>
<trkpt lat="47.38071" lon="10.95394"><ele>1324</ele></trkpt>
<trkpt lat="47.38076" lon="10.95438"><ele>1324</ele></trkpt>
<trkpt lat="47.38084" lon="10.95419"><ele>1306</ele></trkpt>
<trkpt lat="47.38091" lon="10.95459"><ele>1306</ele></trkpt>
<trkpt lat="47.38088" lon="10.95489"><ele>1306</ele></trkpt>
<trkpt lat="47.38098" lon="10.95518"><ele>1306</ele></trkpt>
<trkpt lat="47.38107" lon="10.95503"><ele>1289</ele></trkpt>
<trkpt lat="47.38105" lon="10.95483"><ele>1289</ele></trkpt>
<trkpt lat="47.38118" lon="10.95453"><ele>1289</ele></trkpt>
<trkpt lat="47.38121" lon="10.95423"><ele>1289</ele></trkpt>
<trkpt lat="47.38132" lon="10.95401"><ele>1274</ele></trkpt>
<trkpt lat="47.38133" lon="10.95381"><ele>1274</ele></trkpt>
<trkpt lat="47.38132" lon="10.95364"><ele>1274</ele></trkpt>
<trkpt lat="47.38142" lon="10.95352"><ele>1274</ele></trkpt>
<trkpt lat="47.38135" lon="10.95321"><ele>1265</ele></trkpt>
<trkpt lat="47.38143" lon="10.95287"><ele>1265</ele></trkpt>
<trkpt lat="47.38149" lon="10.95267"><ele>1265</ele></trkpt>
<trkpt lat="47.3814" lon="10.95242"><ele>1265</ele></trkpt>
<trkpt lat="47.38151" lon="10.95189"><ele>1236</ele></trkpt>
<trkpt lat="47.38145" lon="10.95152"><ele>1236</ele></trkpt>
<trkpt lat="47.38146" lon="10.95119"><ele>1236</ele></trkpt>
<trkpt lat="47.3813" lon="10.95063"><ele>1236</ele></trkpt>
<trkpt lat="47.38105" lon="10.95003"><ele>1217</ele></trkpt>
<trkpt lat="47.38097" lon="10.94932"><ele>1217</ele></trkpt>
<trkpt lat="47.38098" lon="10.9492"><ele>1217</ele></trkpt>
<trkpt lat="47.38098" lon="10.9492"><ele>1217</ele></trkpt>
<trkpt lat="47.38098" lon="10.9492"><ele>1209</ele></trkpt>
<trkpt lat="47.38098" lon="10.9492"><ele>1209</ele></trkpt>
<trkpt lat="47.38101" lon="10.94852"><ele>1209</ele></trkpt>
<trkpt lat="47.38091" lon="10.94812"><ele>1209</ele></trkpt>
<trkpt lat="47.38095" lon="10.94798"><ele>1200</ele></trkpt>
<trkpt lat="47.38107" lon="10.94803"><ele>1200</ele></trkpt>
<trkpt lat="47.38112" lon="10.94762"><ele>1200</ele></trkpt>
<trkpt lat="47.38125" lon="10.94756"><ele>1200</ele></trkpt>
<trkpt lat="47.38139" lon="10.94769"><ele>1179</ele></trkpt>
<trkpt lat="47.38148" lon="10.94793"><ele>1179</ele></trkpt>
<trkpt lat="47.38156" lon="10.9481"><ele>1179</ele></trkpt>
<trkpt lat="47.38161" lon="10.94816"><ele>1179</ele></trkpt>
<trkpt lat="47.38162" lon="10.94816"><ele>1175</ele></trkpt>
<trkpt lat="47.38164" lon="10.94797"><ele>1175</ele></trkpt>
<trkpt lat="47.38169" lon="10.94776"><ele>1175</ele></trkpt>
<trkpt lat="47.38183" lon="10.94738"><ele>1175</ele></trkpt>
<trkpt lat="47.38198" lon="10.94733"><ele>1181</ele></trkpt>
<trkpt lat="47.38208" lon="10.94729"><ele>1181</ele></trkpt>
<trkpt lat="47.38233" lon="10.94727"><ele>1181</ele></trkpt>
<trkpt lat="47.38249" lon="10.94715"><ele>1181</ele></trkpt>
<trkpt lat="47.38259" lon="10.94681"><ele>1178</ele></trkpt>
<trkpt lat="47.38259" lon="10.94681"><ele>1178</ele></trkpt>
<trkpt lat="47.38259" lon="10.94681"><ele>1178</ele></trkpt>
<trkpt lat="47.38259" lon="10.94681"><ele>1178</ele></trkpt>
<trkpt lat="47.38259" lon="10.94678"><ele>1178</ele></trkpt>
<trkpt lat="47.38256" lon="10.94656"><ele>1178</ele></trkpt>
<trkpt lat="47.38254" lon="10.94646"><ele>1178</ele></trkpt>
<trkpt lat="47.38258" lon="10.94619"><ele>1178</ele></trkpt>
<trkpt lat="47.38294" lon="10.94584"><ele>1164</ele></trkpt>
<trkpt lat="47.38311" lon="10.94564"><ele>1164</ele></trkpt>
<trkpt lat="47.38324" lon="10.94542"><ele>1164</ele></trkpt>
<trkpt lat="47.38336" lon="10.94531"><ele>1164</ele></trkpt>
<trkpt lat="47.38348" lon="10.94522"><ele>1161</ele></trkpt>
<trkpt lat="47.38359" lon="10.94505"><ele>1161</ele></trkpt>
<trkpt lat="47.38369" lon="10.94494"><ele>1161</ele></trkpt>
<trkpt lat="47.38381" lon="10.94486"><ele>1161</ele></trkpt>
<trkpt lat="47.38393" lon="10.94475"><ele>1158</ele></trkpt>
<trkpt lat="47.38409" lon="10.94449"><ele>1158</ele></trkpt>
<trkpt lat="47.38419" lon="10.94433"><ele>1158</ele></trkpt>
<trkpt lat="47.38422" lon="10.94418"><ele>1158</ele></trkpt>
<trkpt lat="47.38428" lon="10.94401"><ele>1155</ele></trkpt>
<trkpt lat="47.38431" lon="10.94389"><ele>1155</ele></trkpt>
<trkpt lat="47.38433" lon="10.94366"><ele>1155</ele></trkpt>
<trkpt lat="47.38442" lon="10.94331"><ele>1155</ele></trkpt>
<trkpt lat="47.38446" lon="10.94318"><ele>1154</ele></trkpt>
<trkpt lat="47.38446" lon="10.94318"><ele>1154</ele></trkpt>
<trkpt lat="47.38446" lon="10.94318"><ele>1154</ele></trkpt>
<trkpt lat="47.38446" lon="10.94318"><ele>1154</ele></trkpt>
<trkpt lat="47.3846" lon="10.94274"><ele>1154</ele></trkpt>
<trkpt lat="47.38466" lon="10.94264"><ele>1154</ele></trkpt>
<trkpt lat="47.38489" lon="10.94231"><ele>1154</ele></trkpt>
<trkpt lat="47.38503" lon="10.94214"><ele>1154</ele></trkpt>
<trkpt lat="47.38513" lon="10.94198"><ele>1147</ele></trkpt>
<trkpt lat="47.38525" lon="10.94165"><ele>1147</ele></trkpt>
<trkpt lat="47.38544" lon="10.94152"><ele>1147</ele></trkpt>
<trkpt lat="47.38555" lon="10.94149"><ele>1147</ele></trkpt>
<trkpt lat="47.38563" lon="10.94151"><ele>1134</ele></trkpt>
<trkpt lat="47.38574" lon="10.94152"><ele>1134</ele></trkpt>
<trkpt lat="47.38574" lon="10.94152"><ele>1134</ele></trkpt>
<trkpt lat="47.38575" lon="10.94151"><ele>1134</ele></trkpt>
<trkpt lat="47.38578" lon="10.94143"><ele>1133</ele></trkpt>
<trkpt lat="47.38584" lon="10.94121"><ele>1133</ele></trkpt>
<trkpt lat="47.38603" lon="10.94076"><ele>1133</ele></trkpt>
<trkpt lat="47.38611" lon="10.94063"><ele>1133</ele></trkpt>
<trkpt lat="47.38636" lon="10.94033"><ele>1126</ele></trkpt>
<trkpt lat="47.38664" lon="10.93978"><ele>1126</ele></trkpt>
<trkpt lat="47.38689" lon="10.93924"><ele>1126</ele></trkpt>
<trkpt lat="47.38717" lon="10.93891"><ele>1126</ele></trkpt>
<trkpt lat="47.38717" lon="10.93891"><ele>1113</ele></trkpt>
<trkpt lat="47.38721" lon="10.93896"><ele>1113</ele></trkpt>
<trkpt lat="47.38725" lon="10.93896"><ele>1113</ele></trkpt>
<trkpt lat="47.38732" lon="10.93897"><ele>1113</ele></trkpt>
<trkpt lat="47.38743" lon="10.93891"><ele>1113</ele></trkpt>
<trkpt lat="47.38748" lon="10.93889"><ele>1113</ele></trkpt>
<trkpt lat="47.38753" lon="10.93888"><ele>1113</ele></trkpt>
<trkpt lat="47.38757" lon="10.93885"><ele>1113</ele></trkpt>
<trkpt lat="47.38757" lon="10.93885"><ele>1112</ele></trkpt>
<trkpt lat="47.38757" lon="10.93885"><ele>1112</ele></trkpt>

				</trkseg>
		  </trk>
		</gpx>
		