<?xml version="1.0" encoding="utf-8"?>
		<gpx xmlns="http://www.topografix.com/GPX/1/1" xmlns:xsd="http://www.w3.org/2001/XMLSchema" xmlns:xsi="http://www.w3.org/2001/XMLSchema-instance" version="1.1" creator="Fugawi 4,5,14,1696 http://www.fugawi.com/" xsi:schemaLocation="http://www.topografix.com/GPX/1/1 http://www.topografix.com/GPX/1/1/gpx.xsd">
			<trk>
				<name>Biberwier - 3 Seen Wanderung</name>
				<desc></desc>
				<trkseg>
					<trkpt lat="47.3647" lon="10.87525"><ele>1087</ele></trkpt>
<trkpt lat="47.3647" lon="10.87525"><ele>1087</ele></trkpt>
<trkpt lat="47.3647" lon="10.87525"><ele>1087</ele></trkpt>
<trkpt lat="47.3647" lon="10.87525"><ele>1087</ele></trkpt>
<trkpt lat="47.36471" lon="10.8753"><ele>1087</ele></trkpt>
<trkpt lat="47.36481" lon="10.87555"><ele>1087</ele></trkpt>
<trkpt lat="47.36495" lon="10.87581"><ele>1087</ele></trkpt>
<trkpt lat="47.36511" lon="10.87635"><ele>1087</ele></trkpt>
<trkpt lat="47.36511" lon="10.87635"><ele>1086</ele></trkpt>
<trkpt lat="47.36511" lon="10.87635"><ele>1086</ele></trkpt>
<trkpt lat="47.36513" lon="10.8764"><ele>1086</ele></trkpt>
<trkpt lat="47.36513" lon="10.8764"><ele>1086</ele></trkpt>
<trkpt lat="47.36494" lon="10.87629"><ele>1085</ele></trkpt>
<trkpt lat="47.36484" lon="10.87625"><ele>1085</ele></trkpt>
<trkpt lat="47.3648" lon="10.87621"><ele>1085</ele></trkpt>
<trkpt lat="47.36459" lon="10.87583"><ele>1085</ele></trkpt>
<trkpt lat="47.36446" lon="10.87547"><ele>1084</ele></trkpt>
<trkpt lat="47.36397" lon="10.87481"><ele>1084</ele></trkpt>
<trkpt lat="47.36387" lon="10.87473"><ele>1084</ele></trkpt>
<trkpt lat="47.36387" lon="10.87473"><ele>1084</ele></trkpt>
<trkpt lat="47.36387" lon="10.87473"><ele>1085</ele></trkpt>
<trkpt lat="47.36313" lon="10.87413"><ele>1085</ele></trkpt>
<trkpt lat="47.36296" lon="10.8739"><ele>1085</ele></trkpt>
<trkpt lat="47.36269" lon="10.87338"><ele>1085</ele></trkpt>
<trkpt lat="47.36231" lon="10.87185"><ele>1087</ele></trkpt>
<trkpt lat="47.36179" lon="10.86993"><ele>1087</ele></trkpt>
<trkpt lat="47.36158" lon="10.86958"><ele>1087</ele></trkpt>
<trkpt lat="47.36103" lon="10.86821"><ele>1087</ele></trkpt>
<trkpt lat="47.36086" lon="10.86788"><ele>1090</ele></trkpt>
<trkpt lat="47.36065" lon="10.86716"><ele>1090</ele></trkpt>
<trkpt lat="47.36057" lon="10.86706"><ele>1090</ele></trkpt>
<trkpt lat="47.36057" lon="10.86706"><ele>1090</ele></trkpt>
<trkpt lat="47.36057" lon="10.86706"><ele>1094</ele></trkpt>
<trkpt lat="47.36033" lon="10.86677"><ele>1094</ele></trkpt>
<trkpt lat="47.36013" lon="10.86665"><ele>1094</ele></trkpt>
<trkpt lat="47.35992" lon="10.86648"><ele>1094</ele></trkpt>
<trkpt lat="47.35985" lon="10.86621"><ele>1103</ele></trkpt>
<trkpt lat="47.35979" lon="10.86587"><ele>1103</ele></trkpt>
<trkpt lat="47.35983" lon="10.86572"><ele>1103</ele></trkpt>
<trkpt lat="47.36004" lon="10.86541"><ele>1103</ele></trkpt>
<trkpt lat="47.36006" lon="10.86524"><ele>1117</ele></trkpt>
<trkpt lat="47.36006" lon="10.86524"><ele>1117</ele></trkpt>
<trkpt lat="47.35994" lon="10.86514"><ele>1117</ele></trkpt>
<trkpt lat="47.35954" lon="10.86493"><ele>1117</ele></trkpt>
<trkpt lat="47.35935" lon="10.8649"><ele>1127</ele></trkpt>
<trkpt lat="47.35914" lon="10.86477"><ele>1127</ele></trkpt>
<trkpt lat="47.35907" lon="10.86463"><ele>1127</ele></trkpt>
<trkpt lat="47.35902" lon="10.86444"><ele>1127</ele></trkpt>
<trkpt lat="47.35899" lon="10.86421"><ele>1139</ele></trkpt>
<trkpt lat="47.35869" lon="10.86376"><ele>1139</ele></trkpt>
<trkpt lat="47.35857" lon="10.86336"><ele>1139</ele></trkpt>
<trkpt lat="47.35835" lon="10.86312"><ele>1139</ele></trkpt>
<trkpt lat="47.3579" lon="10.86273"><ele>1157</ele></trkpt>
<trkpt lat="47.35771" lon="10.86231"><ele>1157</ele></trkpt>
<trkpt lat="47.35761" lon="10.86164"><ele>1157</ele></trkpt>
<trkpt lat="47.35761" lon="10.86164"><ele>1157</ele></trkpt>
<trkpt lat="47.35761" lon="10.86164"><ele>1166</ele></trkpt>
<trkpt lat="47.3576" lon="10.86162"><ele>1166</ele></trkpt>
<trkpt lat="47.35738" lon="10.86128"><ele>1166</ele></trkpt>
<trkpt lat="47.35733" lon="10.86106"><ele>1166</ele></trkpt>
<trkpt lat="47.35733" lon="10.86071"><ele>1181</ele></trkpt>
<trkpt lat="47.35738" lon="10.86053"><ele>1181</ele></trkpt>
<trkpt lat="47.35738" lon="10.86044"><ele>1181</ele></trkpt>
<trkpt lat="47.35723" lon="10.85998"><ele>1181</ele></trkpt>
<trkpt lat="47.35712" lon="10.85986"><ele>1186</ele></trkpt>
<trkpt lat="47.35688" lon="10.85981"><ele>1186</ele></trkpt>
<trkpt lat="47.35659" lon="10.859"><ele>1186</ele></trkpt>
<trkpt lat="47.35644" lon="10.85868"><ele>1186</ele></trkpt>
<trkpt lat="47.35625" lon="10.85835"><ele>1186</ele></trkpt>
<trkpt lat="47.35597" lon="10.85779"><ele>1186</ele></trkpt>
<trkpt lat="47.35567" lon="10.85729"><ele>1186</ele></trkpt>
<trkpt lat="47.35567" lon="10.85729"><ele>1186</ele></trkpt>
<trkpt lat="47.35551" lon="10.85688"><ele>1180</ele></trkpt>
<trkpt lat="47.35538" lon="10.85657"><ele>1180</ele></trkpt>
<trkpt lat="47.35523" lon="10.85608"><ele>1180</ele></trkpt>
<trkpt lat="47.35508" lon="10.8556"><ele>1180</ele></trkpt>
<trkpt lat="47.35493" lon="10.85537"><ele>1171</ele></trkpt>
<trkpt lat="47.35481" lon="10.85499"><ele>1171</ele></trkpt>
<trkpt lat="47.35472" lon="10.85468"><ele>1171</ele></trkpt>
<trkpt lat="47.35463" lon="10.85438"><ele>1171</ele></trkpt>
<trkpt lat="47.35458" lon="10.85406"><ele>1178</ele></trkpt>
<trkpt lat="47.35458" lon="10.8538"><ele>1178</ele></trkpt>
<trkpt lat="47.3547" lon="10.8536"><ele>1178</ele></trkpt>
<trkpt lat="47.35477" lon="10.85352"><ele>1178</ele></trkpt>
<trkpt lat="47.35475" lon="10.85307"><ele>1186</ele></trkpt>
<trkpt lat="47.35475" lon="10.85307"><ele>1186</ele></trkpt>
<trkpt lat="47.35475" lon="10.85307"><ele>1186</ele></trkpt>
<trkpt lat="47.35477" lon="10.85269"><ele>1186</ele></trkpt>
<trkpt lat="47.35477" lon="10.85269"><ele>1193</ele></trkpt>
<trkpt lat="47.35461" lon="10.85293"><ele>1193</ele></trkpt>
<trkpt lat="47.35457" lon="10.85298"><ele>1193</ele></trkpt>
<trkpt lat="47.35453" lon="10.853"><ele>1193</ele></trkpt>
<trkpt lat="47.35448" lon="10.85297"><ele>1197</ele></trkpt>
<trkpt lat="47.35446" lon="10.85293"><ele>1197</ele></trkpt>
<trkpt lat="47.35445" lon="10.85287"><ele>1197</ele></trkpt>
<trkpt lat="47.35446" lon="10.85281"><ele>1197</ele></trkpt>
<trkpt lat="47.35457" lon="10.85264"><ele>1198</ele></trkpt>
<trkpt lat="47.35459" lon="10.85254"><ele>1198</ele></trkpt>
<trkpt lat="47.35456" lon="10.85241"><ele>1198</ele></trkpt>
<trkpt lat="47.35442" lon="10.85216"><ele>1198</ele></trkpt>
<trkpt lat="47.35414" lon="10.85186"><ele>1210</ele></trkpt>
<trkpt lat="47.35388" lon="10.85176"><ele>1210</ele></trkpt>
<trkpt lat="47.35388" lon="10.85176"><ele>1210</ele></trkpt>
<trkpt lat="47.35389" lon="10.85152"><ele>1210</ele></trkpt>
<trkpt lat="47.35402" lon="10.85136"><ele>1218</ele></trkpt>
<trkpt lat="47.35429" lon="10.85111"><ele>1218</ele></trkpt>
<trkpt lat="47.35442" lon="10.85087"><ele>1218</ele></trkpt>
<trkpt lat="47.35448" lon="10.85059"><ele>1218</ele></trkpt>
<trkpt lat="47.35449" lon="10.8503"><ele>1235</ele></trkpt>
<trkpt lat="47.35443" lon="10.85007"><ele>1235</ele></trkpt>
<trkpt lat="47.35441" lon="10.8498"><ele>1235</ele></trkpt>
<trkpt lat="47.35443" lon="10.84964"><ele>1235</ele></trkpt>
<trkpt lat="47.35442" lon="10.84941"><ele>1238</ele></trkpt>
<trkpt lat="47.35436" lon="10.84924"><ele>1238</ele></trkpt>
<trkpt lat="47.3543" lon="10.84899"><ele>1238</ele></trkpt>
<trkpt lat="47.3543" lon="10.84899"><ele>1238</ele></trkpt>
<trkpt lat="47.3543" lon="10.84898"><ele>1240</ele></trkpt>
<trkpt lat="47.35428" lon="10.84869"><ele>1240</ele></trkpt>
<trkpt lat="47.3543" lon="10.84851"><ele>1240</ele></trkpt>
<trkpt lat="47.35428" lon="10.84844"><ele>1240</ele></trkpt>
<trkpt lat="47.35423" lon="10.84828"><ele>1240</ele></trkpt>
<trkpt lat="47.35425" lon="10.84809"><ele>1240</ele></trkpt>
<trkpt lat="47.35434" lon="10.84783"><ele>1240</ele></trkpt>
<trkpt lat="47.35459" lon="10.84749"><ele>1240</ele></trkpt>
<trkpt lat="47.35477" lon="10.8471"><ele>1248</ele></trkpt>
<trkpt lat="47.3548" lon="10.84695"><ele>1248</ele></trkpt>
<trkpt lat="47.35479" lon="10.84681"><ele>1248</ele></trkpt>
<trkpt lat="47.35486" lon="10.84649"><ele>1248</ele></trkpt>
<trkpt lat="47.35498" lon="10.84622"><ele>1257</ele></trkpt>
<trkpt lat="47.35511" lon="10.84597"><ele>1257</ele></trkpt>
<trkpt lat="47.35513" lon="10.84582"><ele>1257</ele></trkpt>
<trkpt lat="47.35513" lon="10.84543"><ele>1257</ele></trkpt>
<trkpt lat="47.35517" lon="10.84499"><ele>1262</ele></trkpt>
<trkpt lat="47.35529" lon="10.84446"><ele>1262</ele></trkpt>
<trkpt lat="47.35529" lon="10.84446"><ele>1262</ele></trkpt>
<trkpt lat="47.35538" lon="10.84441"><ele>1262</ele></trkpt>
<trkpt lat="47.35552" lon="10.84415"><ele>1259</ele></trkpt>
<trkpt lat="47.35583" lon="10.84374"><ele>1259</ele></trkpt>
<trkpt lat="47.35603" lon="10.84334"><ele>1259</ele></trkpt>
<trkpt lat="47.35636" lon="10.84306"><ele>1259</ele></trkpt>
<trkpt lat="47.35676" lon="10.8426"><ele>1276</ele></trkpt>
<trkpt lat="47.35693" lon="10.84241"><ele>1276</ele></trkpt>
<trkpt lat="47.35717" lon="10.84193"><ele>1276</ele></trkpt>
<trkpt lat="47.35728" lon="10.84173"><ele>1276</ele></trkpt>
<trkpt lat="47.35743" lon="10.84161"><ele>1289</ele></trkpt>
<trkpt lat="47.35764" lon="10.84157"><ele>1289</ele></trkpt>
<trkpt lat="47.35781" lon="10.8417"><ele>1289</ele></trkpt>
<trkpt lat="47.35783" lon="10.84171"><ele>1289</ele></trkpt>
<trkpt lat="47.35783" lon="10.84171"><ele>1295</ele></trkpt>
<trkpt lat="47.35783" lon="10.84171"><ele>1295</ele></trkpt>
<trkpt lat="47.35811" lon="10.84196"><ele>1295</ele></trkpt>
<trkpt lat="47.35831" lon="10.84206"><ele>1295</ele></trkpt>
<trkpt lat="47.35851" lon="10.84213"><ele>1301</ele></trkpt>
<trkpt lat="47.35855" lon="10.84223"><ele>1301</ele></trkpt>
<trkpt lat="47.35855" lon="10.84223"><ele>1301</ele></trkpt>
<trkpt lat="47.35853" lon="10.84237"><ele>1301</ele></trkpt>
<trkpt lat="47.35845" lon="10.8428"><ele>1302</ele></trkpt>
<trkpt lat="47.35849" lon="10.84298"><ele>1302</ele></trkpt>
<trkpt lat="47.35844" lon="10.84318"><ele>1302</ele></trkpt>
<trkpt lat="47.35836" lon="10.84331"><ele>1302</ele></trkpt>
<trkpt lat="47.35821" lon="10.84341"><ele>1306</ele></trkpt>
<trkpt lat="47.35808" lon="10.84358"><ele>1306</ele></trkpt>
<trkpt lat="47.35797" lon="10.8438"><ele>1306</ele></trkpt>
<trkpt lat="47.35789" lon="10.84405"><ele>1306</ele></trkpt>
<trkpt lat="47.35798" lon="10.84416"><ele>1299</ele></trkpt>
<trkpt lat="47.3582" lon="10.84425"><ele>1299</ele></trkpt>
<trkpt lat="47.35844" lon="10.84425"><ele>1299</ele></trkpt>
<trkpt lat="47.35848" lon="10.84416"><ele>1299</ele></trkpt>
<trkpt lat="47.35856" lon="10.84411"><ele>1293</ele></trkpt>
<trkpt lat="47.35878" lon="10.8439"><ele>1293</ele></trkpt>
<trkpt lat="47.35899" lon="10.84369"><ele>1293</ele></trkpt>
<trkpt lat="47.35872" lon="10.84418"><ele>1293</ele></trkpt>
<trkpt lat="47.35874" lon="10.84445"><ele>1275</ele></trkpt>
<trkpt lat="47.35875" lon="10.84433"><ele>1275</ele></trkpt>
<trkpt lat="47.35912" lon="10.84395"><ele>1275</ele></trkpt>
<trkpt lat="47.35946" lon="10.84371"><ele>1275</ele></trkpt>
<trkpt lat="47.35932" lon="10.84405"><ele>1253</ele></trkpt>
<trkpt lat="47.35923" lon="10.84429"><ele>1253</ele></trkpt>
<trkpt lat="47.35919" lon="10.84439"><ele>1253</ele></trkpt>
<trkpt lat="47.35913" lon="10.84461"><ele>1253</ele></trkpt>
<trkpt lat="47.35925" lon="10.8445"><ele>1245</ele></trkpt>
<trkpt lat="47.35934" lon="10.84434"><ele>1245</ele></trkpt>
<trkpt lat="47.35945" lon="10.84432"><ele>1245</ele></trkpt>
<trkpt lat="47.35961" lon="10.84411"><ele>1245</ele></trkpt>
<trkpt lat="47.35981" lon="10.84382"><ele>1240</ele></trkpt>
<trkpt lat="47.35981" lon="10.84382"><ele>1240</ele></trkpt>
<trkpt lat="47.35981" lon="10.84382"><ele>1240</ele></trkpt>
<trkpt lat="47.35984" lon="10.84378"><ele>1240</ele></trkpt>
<trkpt lat="47.36001" lon="10.84373"><ele>1231</ele></trkpt>
<trkpt lat="47.36005" lon="10.84368"><ele>1231</ele></trkpt>
<trkpt lat="47.3602" lon="10.84364"><ele>1231</ele></trkpt>
<trkpt lat="47.36021" lon="10.8438"><ele>1231</ele></trkpt>
<trkpt lat="47.35996" lon="10.84449"><ele>1218</ele></trkpt>
<trkpt lat="47.36015" lon="10.84423"><ele>1218</ele></trkpt>
<trkpt lat="47.36024" lon="10.84424"><ele>1218</ele></trkpt>
<trkpt lat="47.3604" lon="10.84426"><ele>1218</ele></trkpt>
<trkpt lat="47.36063" lon="10.84429"><ele>1203</ele></trkpt>
<trkpt lat="47.36073" lon="10.84421"><ele>1203</ele></trkpt>
<trkpt lat="47.36089" lon="10.84417"><ele>1203</ele></trkpt>
<trkpt lat="47.36109" lon="10.84394"><ele>1203</ele></trkpt>
<trkpt lat="47.36109" lon="10.84373"><ele>1200</ele></trkpt>
<trkpt lat="47.36113" lon="10.84356"><ele>1200</ele></trkpt>
<trkpt lat="47.36118" lon="10.84334"><ele>1200</ele></trkpt>
<trkpt lat="47.3612" lon="10.84329"><ele>1200</ele></trkpt>
<trkpt lat="47.36132" lon="10.84315"><ele>1198</ele></trkpt>
<trkpt lat="47.36132" lon="10.84315"><ele>1198</ele></trkpt>
<trkpt lat="47.36131" lon="10.84331"><ele>1198</ele></trkpt>
<trkpt lat="47.3613" lon="10.84338"><ele>1198</ele></trkpt>
<trkpt lat="47.36129" lon="10.84366"><ele>1197</ele></trkpt>
<trkpt lat="47.36129" lon="10.84383"><ele>1197</ele></trkpt>
<trkpt lat="47.36129" lon="10.84383"><ele>1197</ele></trkpt>
<trkpt lat="47.36136" lon="10.84383"><ele>1197</ele></trkpt>
<trkpt lat="47.36147" lon="10.8439"><ele>1195</ele></trkpt>
<trkpt lat="47.36161" lon="10.84411"><ele>1195</ele></trkpt>
<trkpt lat="47.36161" lon="10.84411"><ele>1195</ele></trkpt>
<trkpt lat="47.36171" lon="10.84402"><ele>1195</ele></trkpt>
<trkpt lat="47.3618" lon="10.84395"><ele>1194</ele></trkpt>
<trkpt lat="47.36193" lon="10.84394"><ele>1194</ele></trkpt>
<trkpt lat="47.3621" lon="10.84389"><ele>1194</ele></trkpt>
<trkpt lat="47.36278" lon="10.84358"><ele>1194</ele></trkpt>
<trkpt lat="47.36289" lon="10.84347"><ele>1182</ele></trkpt>
<trkpt lat="47.36289" lon="10.84347"><ele>1182</ele></trkpt>
<trkpt lat="47.36289" lon="10.84347"><ele>1182</ele></trkpt>
<trkpt lat="47.36301" lon="10.84335"><ele>1182</ele></trkpt>
<trkpt lat="47.36302" lon="10.84326"><ele>1182</ele></trkpt>
<trkpt lat="47.36302" lon="10.84326"><ele>1182</ele></trkpt>
<trkpt lat="47.36321" lon="10.84322"><ele>1182</ele></trkpt>
<trkpt lat="47.36334" lon="10.84325"><ele>1182</ele></trkpt>
<trkpt lat="47.36347" lon="10.84358"><ele>1169</ele></trkpt>
<trkpt lat="47.36345" lon="10.84391"><ele>1169</ele></trkpt>
<trkpt lat="47.36319" lon="10.84432"><ele>1169</ele></trkpt>
<trkpt lat="47.36309" lon="10.84495"><ele>1169</ele></trkpt>
<trkpt lat="47.36316" lon="10.845"><ele>1143</ele></trkpt>
<trkpt lat="47.36328" lon="10.84489"><ele>1143</ele></trkpt>
<trkpt lat="47.36342" lon="10.8449"><ele>1143</ele></trkpt>
<trkpt lat="47.36367" lon="10.84475"><ele>1143</ele></trkpt>
<trkpt lat="47.36383" lon="10.84475"><ele>1129</ele></trkpt>
<trkpt lat="47.36401" lon="10.8446"><ele>1129</ele></trkpt>
<trkpt lat="47.36415" lon="10.8441"><ele>1129</ele></trkpt>
<trkpt lat="47.36431" lon="10.84366"><ele>1129</ele></trkpt>
<trkpt lat="47.36438" lon="10.8436"><ele>1113</ele></trkpt>
<trkpt lat="47.36444" lon="10.84362"><ele>1113</ele></trkpt>
<trkpt lat="47.36452" lon="10.84361"><ele>1113</ele></trkpt>
<trkpt lat="47.36458" lon="10.84358"><ele>1113</ele></trkpt>
<trkpt lat="47.36467" lon="10.84357"><ele>1107</ele></trkpt>
<trkpt lat="47.36476" lon="10.84356"><ele>1107</ele></trkpt>
<trkpt lat="47.36507" lon="10.84359"><ele>1107</ele></trkpt>
<trkpt lat="47.3652" lon="10.84364"><ele>1107</ele></trkpt>
<trkpt lat="47.36539" lon="10.84368"><ele>1101</ele></trkpt>
<trkpt lat="47.36545" lon="10.84375"><ele>1101</ele></trkpt>
<trkpt lat="47.36553" lon="10.84389"><ele>1101</ele></trkpt>
<trkpt lat="47.36555" lon="10.84391"><ele>1101</ele></trkpt>
<trkpt lat="47.36565" lon="10.84408"><ele>1100</ele></trkpt>
<trkpt lat="47.36571" lon="10.84418"><ele>1100</ele></trkpt>
<trkpt lat="47.36579" lon="10.84438"><ele>1100</ele></trkpt>
<trkpt lat="47.36587" lon="10.84449"><ele>1100</ele></trkpt>
<trkpt lat="47.36591" lon="10.84452"><ele>1100</ele></trkpt>
<trkpt lat="47.36602" lon="10.84464"><ele>1100</ele></trkpt>
<trkpt lat="47.36609" lon="10.8447"><ele>1100</ele></trkpt>
<trkpt lat="47.36611" lon="10.8447"><ele>1100</ele></trkpt>
<trkpt lat="47.36611" lon="10.8447"><ele>1100</ele></trkpt>
<trkpt lat="47.36611" lon="10.8447"><ele>1100</ele></trkpt>
<trkpt lat="47.36616" lon="10.8447"><ele>1100</ele></trkpt>
<trkpt lat="47.36635" lon="10.84475"><ele>1100</ele></trkpt>
<trkpt lat="47.36643" lon="10.84483"><ele>1102</ele></trkpt>
<trkpt lat="47.36644" lon="10.84505"><ele>1102</ele></trkpt>
<trkpt lat="47.36645" lon="10.84515"><ele>1102</ele></trkpt>
<trkpt lat="47.36645" lon="10.84527"><ele>1102</ele></trkpt>
<trkpt lat="47.3665" lon="10.84544"><ele>1107</ele></trkpt>
<trkpt lat="47.36648" lon="10.84571"><ele>1107</ele></trkpt>
<trkpt lat="47.36649" lon="10.84586"><ele>1107</ele></trkpt>
<trkpt lat="47.36651" lon="10.84591"><ele>1107</ele></trkpt>
<trkpt lat="47.36651" lon="10.84601"><ele>1110</ele></trkpt>
<trkpt lat="47.3665" lon="10.84609"><ele>1110</ele></trkpt>
<trkpt lat="47.36652" lon="10.84613"><ele>1110</ele></trkpt>
<trkpt lat="47.36655" lon="10.84619"><ele>1110</ele></trkpt>
<trkpt lat="47.36654" lon="10.84634"><ele>1105</ele></trkpt>
<trkpt lat="47.36652" lon="10.84654"><ele>1105</ele></trkpt>
<trkpt lat="47.36646" lon="10.84664"><ele>1105</ele></trkpt>
<trkpt lat="47.36648" lon="10.8467"><ele>1105</ele></trkpt>
<trkpt lat="47.3665" lon="10.84674"><ele>1113</ele></trkpt>
<trkpt lat="47.36652" lon="10.84679"><ele>1113</ele></trkpt>
<trkpt lat="47.36653" lon="10.84696"><ele>1113</ele></trkpt>
<trkpt lat="47.36653" lon="10.84714"><ele>1113</ele></trkpt>
<trkpt lat="47.36654" lon="10.84724"><ele>1106</ele></trkpt>
<trkpt lat="47.36655" lon="10.84733"><ele>1106</ele></trkpt>
<trkpt lat="47.36656" lon="10.84743"><ele>1106</ele></trkpt>
<trkpt lat="47.36657" lon="10.84757"><ele>1106</ele></trkpt>
<trkpt lat="47.36655" lon="10.84804"><ele>1102</ele></trkpt>
<trkpt lat="47.36658" lon="10.84808"><ele>1102</ele></trkpt>
<trkpt lat="47.3666" lon="10.84815"><ele>1102</ele></trkpt>
<trkpt lat="47.36661" lon="10.84826"><ele>1102</ele></trkpt>
<trkpt lat="47.36665" lon="10.84832"><ele>1100</ele></trkpt>
<trkpt lat="47.36672" lon="10.84834"><ele>1100</ele></trkpt>
<trkpt lat="47.36686" lon="10.84838"><ele>1100</ele></trkpt>
<trkpt lat="47.36692" lon="10.84844"><ele>1100</ele></trkpt>
<trkpt lat="47.36695" lon="10.84854"><ele>1108</ele></trkpt>
<trkpt lat="47.36696" lon="10.84865"><ele>1108</ele></trkpt>
<trkpt lat="47.36697" lon="10.84874"><ele>1108</ele></trkpt>
<trkpt lat="47.36697" lon="10.84887"><ele>1108</ele></trkpt>
<trkpt lat="47.36696" lon="10.84893"><ele>1102</ele></trkpt>
<trkpt lat="47.36693" lon="10.84904"><ele>1102</ele></trkpt>
<trkpt lat="47.36691" lon="10.84911"><ele>1102</ele></trkpt>
<trkpt lat="47.36695" lon="10.84947"><ele>1102</ele></trkpt>
<trkpt lat="47.36699" lon="10.84954"><ele>1101</ele></trkpt>
<trkpt lat="47.36701" lon="10.84962"><ele>1101</ele></trkpt>
<trkpt lat="47.36704" lon="10.8497"><ele>1101</ele></trkpt>
<trkpt lat="47.36708" lon="10.84981"><ele>1101</ele></trkpt>
<trkpt lat="47.36711" lon="10.84989"><ele>1101</ele></trkpt>
<trkpt lat="47.36716" lon="10.84997"><ele>1101</ele></trkpt>
<trkpt lat="47.36722" lon="10.85005"><ele>1101</ele></trkpt>
<trkpt lat="47.36724" lon="10.85008"><ele>1101</ele></trkpt>
<trkpt lat="47.36726" lon="10.85012"><ele>1100</ele></trkpt>
<trkpt lat="47.36727" lon="10.85022"><ele>1100</ele></trkpt>
<trkpt lat="47.36726" lon="10.85036"><ele>1100</ele></trkpt>
<trkpt lat="47.36725" lon="10.8505"><ele>1100</ele></trkpt>
<trkpt lat="47.36725" lon="10.8505"><ele>1099</ele></trkpt>
<trkpt lat="47.36722" lon="10.85061"><ele>1099</ele></trkpt>
<trkpt lat="47.3672" lon="10.85077"><ele>1099</ele></trkpt>
<trkpt lat="47.36715" lon="10.85087"><ele>1099</ele></trkpt>
<trkpt lat="47.36708" lon="10.85094"><ele>1096</ele></trkpt>
<trkpt lat="47.367" lon="10.85103"><ele>1096</ele></trkpt>
<trkpt lat="47.36695" lon="10.85111"><ele>1096</ele></trkpt>
<trkpt lat="47.36686" lon="10.85124"><ele>1096</ele></trkpt>
<trkpt lat="47.36678" lon="10.85136"><ele>1099</ele></trkpt>
<trkpt lat="47.3668" lon="10.85141"><ele>1099</ele></trkpt>
<trkpt lat="47.3668" lon="10.85141"><ele>1099</ele></trkpt>
<trkpt lat="47.36694" lon="10.85135"><ele>1099</ele></trkpt>
<trkpt lat="47.36694" lon="10.85135"><ele>1101</ele></trkpt>
<trkpt lat="47.36686" lon="10.8515"><ele>1101</ele></trkpt>
<trkpt lat="47.36691" lon="10.85148"><ele>1101</ele></trkpt>
<trkpt lat="47.36711" lon="10.85135"><ele>1101</ele></trkpt>
<trkpt lat="47.36724" lon="10.85139"><ele>1114</ele></trkpt>
<trkpt lat="47.36709" lon="10.85152"><ele>1114</ele></trkpt>
<trkpt lat="47.36683" lon="10.85209"><ele>1114</ele></trkpt>
<trkpt lat="47.36704" lon="10.85192"><ele>1114</ele></trkpt>
<trkpt lat="47.36725" lon="10.85198"><ele>1130</ele></trkpt>
<trkpt lat="47.36736" lon="10.85211"><ele>1130</ele></trkpt>
<trkpt lat="47.3674" lon="10.85235"><ele>1130</ele></trkpt>
<trkpt lat="47.36776" lon="10.85287"><ele>1130</ele></trkpt>
<trkpt lat="47.36776" lon="10.85287"><ele>1148</ele></trkpt>
<trkpt lat="47.36776" lon="10.85287"><ele>1148</ele></trkpt>
<trkpt lat="47.36784" lon="10.85299"><ele>1148</ele></trkpt>
<trkpt lat="47.36806" lon="10.8536"><ele>1148</ele></trkpt>
<trkpt lat="47.36819" lon="10.85382"><ele>1161</ele></trkpt>
<trkpt lat="47.36822" lon="10.85404"><ele>1161</ele></trkpt>
<trkpt lat="47.36808" lon="10.85445"><ele>1161</ele></trkpt>
<trkpt lat="47.36805" lon="10.85452"><ele>1161</ele></trkpt>
<trkpt lat="47.36802" lon="10.85475"><ele>1143</ele></trkpt>
<trkpt lat="47.36802" lon="10.85483"><ele>1143</ele></trkpt>
<trkpt lat="47.3681" lon="10.85481"><ele>1143</ele></trkpt>
<trkpt lat="47.36826" lon="10.85474"><ele>1143</ele></trkpt>
<trkpt lat="47.36834" lon="10.85478"><ele>1135</ele></trkpt>
<trkpt lat="47.36842" lon="10.85479"><ele>1135</ele></trkpt>
<trkpt lat="47.36839" lon="10.85498"><ele>1135</ele></trkpt>
<trkpt lat="47.36822" lon="10.8551"><ele>1135</ele></trkpt>
<trkpt lat="47.36815" lon="10.85525"><ele>1125</ele></trkpt>
<trkpt lat="47.36824" lon="10.85545"><ele>1125</ele></trkpt>
<trkpt lat="47.36837" lon="10.8555"><ele>1125</ele></trkpt>
<trkpt lat="47.36852" lon="10.85564"><ele>1125</ele></trkpt>
<trkpt lat="47.3686" lon="10.856"><ele>1112</ele></trkpt>
<trkpt lat="47.36871" lon="10.85613"><ele>1112</ele></trkpt>
<trkpt lat="47.36919" lon="10.85633"><ele>1112</ele></trkpt>
<trkpt lat="47.36942" lon="10.85655"><ele>1112</ele></trkpt>
<trkpt lat="47.36968" lon="10.85733"><ele>1106</ele></trkpt>
<trkpt lat="47.36981" lon="10.85773"><ele>1106</ele></trkpt>
<trkpt lat="47.3699" lon="10.85787"><ele>1106</ele></trkpt>
<trkpt lat="47.37027" lon="10.85832"><ele>1106</ele></trkpt>
<trkpt lat="47.3704" lon="10.85885"><ele>1105</ele></trkpt>
<trkpt lat="47.37051" lon="10.85909"><ele>1105</ele></trkpt>
<trkpt lat="47.3705" lon="10.85944"><ele>1105</ele></trkpt>
<trkpt lat="47.3705" lon="10.85944"><ele>1105</ele></trkpt>
<trkpt lat="47.37038" lon="10.85956"><ele>1105</ele></trkpt>
<trkpt lat="47.37033" lon="10.8597"><ele>1105</ele></trkpt>
<trkpt lat="47.37024" lon="10.85991"><ele>1105</ele></trkpt>
<trkpt lat="47.37014" lon="10.86029"><ele>1105</ele></trkpt>
<trkpt lat="47.37008" lon="10.86049"><ele>1105</ele></trkpt>
<trkpt lat="47.36966" lon="10.86112"><ele>1105</ele></trkpt>
<trkpt lat="47.36953" lon="10.86143"><ele>1105</ele></trkpt>
<trkpt lat="47.36949" lon="10.86167"><ele>1105</ele></trkpt>
<trkpt lat="47.36944" lon="10.86177"><ele>1103</ele></trkpt>
<trkpt lat="47.36918" lon="10.86204"><ele>1103</ele></trkpt>
<trkpt lat="47.36912" lon="10.86215"><ele>1103</ele></trkpt>
<trkpt lat="47.36912" lon="10.86215"><ele>1103</ele></trkpt>
<trkpt lat="47.36912" lon="10.86215"><ele>1097</ele></trkpt>
<trkpt lat="47.36908" lon="10.86221"><ele>1097</ele></trkpt>
<trkpt lat="47.36897" lon="10.86256"><ele>1097</ele></trkpt>
<trkpt lat="47.36893" lon="10.86293"><ele>1097</ele></trkpt>
<trkpt lat="47.36893" lon="10.86334"><ele>1092</ele></trkpt>
<trkpt lat="47.36897" lon="10.86375"><ele>1092</ele></trkpt>
<trkpt lat="47.36937" lon="10.86454"><ele>1092</ele></trkpt>
<trkpt lat="47.36957" lon="10.86478"><ele>1092</ele></trkpt>
<trkpt lat="47.36972" lon="10.86499"><ele>1092</ele></trkpt>
<trkpt lat="47.36977" lon="10.86507"><ele>1092</ele></trkpt>
<trkpt lat="47.36979" lon="10.86531"><ele>1092</ele></trkpt>
<trkpt lat="47.36995" lon="10.86555"><ele>1092</ele></trkpt>
<trkpt lat="47.37005" lon="10.86567"><ele>1092</ele></trkpt>
<trkpt lat="47.37004" lon="10.86588"><ele>1092</ele></trkpt>
<trkpt lat="47.37004" lon="10.86588"><ele>1092</ele></trkpt>
<trkpt lat="47.37002" lon="10.8659"><ele>1092</ele></trkpt>
<trkpt lat="47.36995" lon="10.86591"><ele>1090</ele></trkpt>
<trkpt lat="47.36987" lon="10.86585"><ele>1090</ele></trkpt>
<trkpt lat="47.36985" lon="10.86597"><ele>1090</ele></trkpt>
<trkpt lat="47.36984" lon="10.8661"><ele>1090</ele></trkpt>
<trkpt lat="47.36981" lon="10.86624"><ele>1086</ele></trkpt>
<trkpt lat="47.36982" lon="10.86644"><ele>1086</ele></trkpt>
<trkpt lat="47.36979" lon="10.86652"><ele>1086</ele></trkpt>
<trkpt lat="47.36955" lon="10.8667"><ele>1086</ele></trkpt>
<trkpt lat="47.36948" lon="10.86668"><ele>1084</ele></trkpt>
<trkpt lat="47.36915" lon="10.86693"><ele>1084</ele></trkpt>
<trkpt lat="47.36912" lon="10.86701"><ele>1084</ele></trkpt>
<trkpt lat="47.36907" lon="10.8672"><ele>1084</ele></trkpt>
<trkpt lat="47.36896" lon="10.86737"><ele>1085</ele></trkpt>
<trkpt lat="47.36891" lon="10.86749"><ele>1085</ele></trkpt>
<trkpt lat="47.3688" lon="10.86779"><ele>1085</ele></trkpt>
<trkpt lat="47.3687" lon="10.86792"><ele>1085</ele></trkpt>
<trkpt lat="47.36864" lon="10.86804"><ele>1088</ele></trkpt>
<trkpt lat="47.36864" lon="10.86808"><ele>1088</ele></trkpt>
<trkpt lat="47.36862" lon="10.86836"><ele>1088</ele></trkpt>
<trkpt lat="47.36861" lon="10.86865"><ele>1088</ele></trkpt>
<trkpt lat="47.36861" lon="10.86898"><ele>1090</ele></trkpt>
<trkpt lat="47.36845" lon="10.8699"><ele>1090</ele></trkpt>
<trkpt lat="47.36842" lon="10.86997"><ele>1090</ele></trkpt>
<trkpt lat="47.36842" lon="10.86997"><ele>1090</ele></trkpt>
<trkpt lat="47.36832" lon="10.86998"><ele>1088</ele></trkpt>
<trkpt lat="47.36815" lon="10.86987"><ele>1088</ele></trkpt>
<trkpt lat="47.36789" lon="10.86972"><ele>1088</ele></trkpt>
<trkpt lat="47.36781" lon="10.86969"><ele>1088</ele></trkpt>
<trkpt lat="47.36772" lon="10.86971"><ele>1091</ele></trkpt>
<trkpt lat="47.36765" lon="10.86976"><ele>1091</ele></trkpt>
<trkpt lat="47.36738" lon="10.87002"><ele>1091</ele></trkpt>
<trkpt lat="47.36738" lon="10.87002"><ele>1091</ele></trkpt>
<trkpt lat="47.36738" lon="10.87002"><ele>1091</ele></trkpt>
<trkpt lat="47.36723" lon="10.87016"><ele>1091</ele></trkpt>
<trkpt lat="47.36698" lon="10.87062"><ele>1091</ele></trkpt>
<trkpt lat="47.36694" lon="10.87079"><ele>1091</ele></trkpt>
<trkpt lat="47.36694" lon="10.87085"><ele>1090</ele></trkpt>
<trkpt lat="47.36695" lon="10.87104"><ele>1090</ele></trkpt>
<trkpt lat="47.36695" lon="10.87104"><ele>1090</ele></trkpt>
<trkpt lat="47.36718" lon="10.87116"><ele>1090</ele></trkpt>
<trkpt lat="47.3673" lon="10.87122"><ele>1091</ele></trkpt>
<trkpt lat="47.36744" lon="10.87131"><ele>1091</ele></trkpt>
<trkpt lat="47.36769" lon="10.87166"><ele>1091</ele></trkpt>
<trkpt lat="47.36773" lon="10.87178"><ele>1091</ele></trkpt>
<trkpt lat="47.36773" lon="10.87191"><ele>1087</ele></trkpt>
<trkpt lat="47.3677" lon="10.87208"><ele>1087</ele></trkpt>
<trkpt lat="47.36763" lon="10.87218"><ele>1087</ele></trkpt>
<trkpt lat="47.36763" lon="10.87218"><ele>1087</ele></trkpt>
<trkpt lat="47.36763" lon="10.87218"><ele>1087</ele></trkpt>
<trkpt lat="47.36761" lon="10.87223"><ele>1087</ele></trkpt>
<trkpt lat="47.36751" lon="10.87261"><ele>1087</ele></trkpt>
<trkpt lat="47.36751" lon="10.87287"><ele>1087</ele></trkpt>
<trkpt lat="47.36748" lon="10.87293"><ele>1086</ele></trkpt>
<trkpt lat="47.36741" lon="10.87298"><ele>1086</ele></trkpt>
<trkpt lat="47.36718" lon="10.87301"><ele>1086</ele></trkpt>
<trkpt lat="47.36694" lon="10.87292"><ele>1086</ele></trkpt>
<trkpt lat="47.36684" lon="10.8728"><ele>1085</ele></trkpt>
<trkpt lat="47.36684" lon="10.8728"><ele>1085</ele></trkpt>
<trkpt lat="47.36684" lon="10.8728"><ele>1085</ele></trkpt>
<trkpt lat="47.36681" lon="10.87276"><ele>1085</ele></trkpt>
<trkpt lat="47.36671" lon="10.87268"><ele>1084</ele></trkpt>
<trkpt lat="47.3666" lon="10.87269"><ele>1084</ele></trkpt>
<trkpt lat="47.36644" lon="10.87271"><ele>1084</ele></trkpt>
<trkpt lat="47.36623" lon="10.8728"><ele>1084</ele></trkpt>
<trkpt lat="47.36597" lon="10.87319"><ele>1092</ele></trkpt>
<trkpt lat="47.36582" lon="10.87334"><ele>1092</ele></trkpt>
<trkpt lat="47.36558" lon="10.87368"><ele>1092</ele></trkpt>
<trkpt lat="47.36558" lon="10.87368"><ele>1092</ele></trkpt>
<trkpt lat="47.36557" lon="10.87369"><ele>1089</ele></trkpt>
<trkpt lat="47.36545" lon="10.87367"><ele>1089</ele></trkpt>
<trkpt lat="47.36545" lon="10.87367"><ele>1089</ele></trkpt>
<trkpt lat="47.3653" lon="10.87388"><ele>1089</ele></trkpt>
<trkpt lat="47.3653" lon="10.87388"><ele>1088</ele></trkpt>
<trkpt lat="47.36521" lon="10.87392"><ele>1088</ele></trkpt>
<trkpt lat="47.36504" lon="10.87404"><ele>1088</ele></trkpt>
<trkpt lat="47.36485" lon="10.87422"><ele>1088</ele></trkpt>
<trkpt lat="47.36476" lon="10.87435"><ele>1089</ele></trkpt>
<trkpt lat="47.36472" lon="10.87442"><ele>1089</ele></trkpt>
<trkpt lat="47.3647" lon="10.87452"><ele>1089</ele></trkpt>
<trkpt lat="47.36466" lon="10.8747"><ele>1089</ele></trkpt>
<trkpt lat="47.36465" lon="10.87488"><ele>1088</ele></trkpt>
<trkpt lat="47.36467" lon="10.87504"><ele>1088</ele></trkpt>
<trkpt lat="47.36469" lon="10.87518"><ele>1088</ele></trkpt>

				</trkseg>
		  </trk>
		</gpx>
		